{"type":"FeatureCollection","features":[{"type":"Feature","geometry":{"type":"MultiPolygon","coordinates":[[[[-82.63307953,41.82257843],[-82.62561035,41.80732346],[-82.62374878,41.7985878],[-82.62539673,41.77639771],[-82.6170578,41.75035858],[-82.6240921,41.74132919],[-82.63153076,41.73848724],[-82.64833069,41.73971176],[-82.65485382,41.73662186],[-82.67006683,41.72040939],[-82.67164612,41.72845078],[-82.67817688,41.73498154],[-82.68427277,41.74540329],[-82.68566132,41.7593956],[-82.6796875,41.8126564],[-82.66666412,41.80761719],[-82.65431213,41.81059647],[-82.64386749,41.81132126],[-82.64042664,41.82294083],[-82.63307953,41.82257843]]],[[[-82.46628571,42.04435349],[-82.48183441,42.01831436],[-82.49053955,41.99809265],[-82.49761963,41.97143173],[-82.49802399,41.95975876],[-82.49719238,41.93087769],[-82.50526428,41.90171432],[-82.50821686,41.90520477],[-82.50965881,41.92562103],[-82.51565552,41.9385643],[-82.52839661,41.96103287],[-82.5398941,41.97522354],[-82.58887482,42.01784134],[-82.6064682,42.02503967],[-82.62021637,42.02432632],[-82.6377182,42.02882004],[-82.65978241,42.03128433],[-82.67242432,42.03036118],[-82.70124054,42.02376938],[-82.71939087,42.02340698],[-82.74350739,42.01924133],[-82.79059601,41.99759293],[-82.82289886,41.98645782],[-82.88946533,41.97997665],[-82.89976501,41.97441101],[-82.91547394,41.97305679],[-82.9328537,41.97790909],[-82.97008514,41.99863815],[-82.99892426,42.01235962],[-83.049263,42.02753067],[-83.04884338,42.03187561],[-83.05541992,42.03929901],[-83.06181335,42.0297699],[-83.08261108,42.03419113],[-83.10805511,42.04298019],[-83.14251709,42.04557419],[-83.14418793,42.04047012],[-83.14472198,42.05580902],[-83.1338501,42.08889771],[-83.13136292,42.10390091],[-83.12620544,42.11145782],[-83.12312317,42.1205368],[-83.12377167,42.13278961],[-83.12899017,42.15293121],[-83.13228607,42.16164017],[-83.1332016,42.17295456],[-83.12555695,42.1816864],[-83.12454224,42.19248581],[-83.11830139,42.20740128],[-83.12282562,42.23013687],[-83.11296844,42.24319458],[-83.11199188,42.25097275],[-83.10837555,42.25506973],[-83.09535217,42.28422928],[-83.08466339,42.29782867],[-83.0694046,42.30929184],[-83.0503006,42.31770706],[-83.01308441,42.3258934],[-82.96142578,42.33810043],[-82.94982147,42.33837891],[-82.93584442,42.34457016],[-82.92739105,42.34479141],[-82.91526794,42.34173965],[-82.90258789,42.34210968],[-82.89620209,42.33393478],[-82.87879181,42.33126068],[-82.86828613,42.32759094],[-82.8660965,42.36488724],[-82.82801819,42.37348938],[-82.80345154,42.39814758],[-82.70162201,42.39753342],[-82.58864594,42.39735794],[-82.55083466,42.39761353],[-82.47324371,42.33488846],[-82.47888947,42.32066727],[-82.44316101,42.32144928],[-82.45104218,42.3127861],[-82.4437027,42.30989456],[-82.4299469,42.29805756],[-82.43093872,42.28012466],[-82.43373871,42.27306747],[-82.43975067,42.26897812],[-82.44747925,42.26763153],[-82.45018005,42.25852585],[-82.43942261,42.26089478],[-82.44026947,42.25006866],[-82.43299103,42.2469902],[-82.43703461,42.19377136],[-82.45593262,42.19448471],[-82.46194458,42.10951614],[-82.46762848,42.10578537],[-82.46864319,42.0893631],[-82.46336365,42.08830261],[-82.46628571,42.04435349]]]]},"properties":{"name":"Essex County, Ontario","source":"GADM 3.6, level 2 \"Essex County\" (Ontario), via github.com/stephanietuerk/admin-boundaries lo-res/Admin2_simp05; only its inland line is used (the coast stays the province's)"}}]}