{"type":"FeatureCollection","features":[{"type":"Feature","properties":null,"geometry":{"type":"Polygon","coordinates":[[[34.22972642243212,31.33243857426785],[34.231399867573835,31.3338929273778],[34.23479403031888,31.336762590561186],[34.23482239379586,31.336772351320313],[34.23483184828818,31.336772351320313],[34.237970739740426,31.335669385538942],[34.237999103217405,31.335659624779815],[34.237999103217405,31.335649864020688],[34.23970091183609,31.333395128662314],[34.23996563762122,31.33319991347977],[34.242348169687375,31.332233598326184],[34.24268853141111,31.332184794530548],[34.24394597889048,31.332301923640074],[34.24396488787513,31.332301923640074],[34.24397434236746,31.332301923640074],[34.24398379685978,31.332292162880947],[34.244361976552824,31.33169675657419],[34.244900882615404,31.331423455318628],[34.25227538662971,31.33127704393172],[34.25230375010669,31.33127704393172],[34.25231320459901,31.331267283172593],[34.25232265909134,31.331267283172593],[34.256577180638054,31.329334652865416],[34.25663390759201,31.329315131347162],[34.25792917304068,31.32887589718644],[34.25816553534883,31.32883685414993],[34.26219314907972,31.32880757187255],[34.270513102326625,31.328817332631676],[34.2705414658036,31.328817332631676],[34.27056037478825,31.328817332631676],[34.273302177562805,31.327811974441577],[34.273755993194456,31.327792452923322],[34.27462580648845,31.32804623266063],[34.27468253344241,31.328055993419756],[34.27571307310594,31.328192644047537],[34.27603452584503,31.32831953391619],[34.27717851941648,31.32917848071938],[34.27719742840113,31.329198002237636],[34.27720688289346,31.329198002237636],[34.27992977668335,31.32949082501145],[34.27995814016033,31.32949082501145],[34.27998650363731,31.32949082501145],[34.284742113277304,31.328612356690005],[34.28478938573893,31.328602595930878],[34.28890208990076,31.327138482061805],[34.28893990787006,31.32711896054355],[34.28915736119356,31.326992070674898],[34.290027174487555,31.327099439025297],[34.2938940618489,31.33148201987339],[34.29391297083355,31.331511302150773],[34.29574714234481,31.33386364510042],[34.29576605132946,31.333883166618673],[34.29577550582179,31.3338929273778],[34.30238419595768,31.337357996867944],[34.30240310494233,31.33736775762707],[34.302422013926986,31.337357996867944],[34.30466272860826,31.33505445771393],[34.30540963350201,31.334908046327023],[34.30707362415139,31.33557177794767],[34.30744234935211,31.336030533626648],[34.307546348767694,31.337504408254848],[34.307546348767694,31.337514169013975],[34.30774489310654,31.33915397654734],[34.307754347598866,31.339173498065595],[34.307763802091195,31.339183258824722],[34.31152669003695,31.34152584101524],[34.311583416990906,31.342365266300177],[34.3103826964655,31.343302299176383],[34.31036378748085,31.343321820694637],[34.31036378748085,31.343331581453764],[34.31051505935807,31.344473590271644],[34.31051505935807,31.344493111789898],[34.310524513850396,31.344502872549025],[34.31199941465326,31.345517991498248],[34.31215068653047,31.34568392440341],[34.31345540647146,31.347684880024477],[34.31347431545611,31.34771416230186],[34.31368231428729,31.347889855966148],[34.31372958674892,31.347938659761784],[34.31530848696737,31.349695596404676],[34.315336850444346,31.349724878682057],[34.31705756804768,31.350827844463424],[34.317123749493966,31.350886409018187],[34.31979937082223,31.353238751967833],[34.31981827980688,31.353258273486087],[34.31982773429921,31.353258273486087],[34.31983718879153,31.353268034245215],[34.32291935328982,31.354156263325788],[34.322985534736105,31.354175784844042],[34.32664442326628,31.355649659472242],[34.32697533049769,31.35597176452344],[34.329357862563846,31.362316257956095],[34.33161748622977,31.368114148877627],[34.331626940722096,31.36813367039588],[34.331645849706746,31.36814343115501],[34.333612384110566,31.368563143797477],[34.33364074758754,31.368563143797477],[34.333650202079866,31.368563143797477],[34.33487928608225,31.368182474191517],[34.335720735899265,31.368641229870494],[34.33610837008464,31.372252710747546],[34.33611782457696,31.372281993024927],[34.33611782457696,31.372291753784054],[34.33719563670213,31.37408773346345],[34.337224000179106,31.374117015740833],[34.33937016993712,31.37639127261746],[34.33937962442944,31.376401033376588],[34.342811605143794,31.379651366165934],[34.342849423113094,31.37970016996157],[34.34477813954761,31.381954905319944],[34.34479704853226,31.381974426838198],[34.34715121712144,31.384980740649365],[34.34717012610609,31.38500026216762],[34.34718903509074,31.385010022926746],[34.349930837865294,31.386132510226368],[34.350148291188795,31.386278921613275],[34.3527293675938,31.389021694928008],[34.352738822086124,31.389031455687135],[34.35453517562807,31.391012889789952],[34.35455408461272,31.39102265054908],[34.35457299359737,31.39102265054908],[34.35484717387483,31.390895760680426],[34.35558462427626,31.390993368271698],[34.35891260557502,31.393872792214207],[34.35893151455968,31.393882552973334],[34.358940969052,31.393882552973334],[34.35895042354433,31.393882552973334],[34.36277949293637,31.393209060593563],[34.363110400167784,31.393228582111817],[34.3673649217145,31.39441939472533],[34.367639101991955,31.39458532763049],[34.368962730917595,31.395912790871787],[34.36899109439457,31.395922551630914],[34.37042817722813,31.397123125003553],[34.370456540705106,31.397142646521807],[34.37358597766502,31.400070874259956],[34.37362379563433,31.40009039577821],[34.378095770504544,31.403272403253666],[34.3781903154278,31.40336025008581],[34.37900340176784,31.40424847916638],[34.379050674229475,31.40431680448027],[34.37958012579973,31.4051171867287],[34.379599034784384,31.405136708246953],[34.379608489276706,31.40514646900608],[34.381622296142154,31.40658130059777],[34.38167902309611,31.406630104393408],[34.38663317707495,31.411129814351032],[34.386689904028906,31.411178618146668],[34.38786226107733,31.412584167460977],[34.38788117006199,31.41261344973836],[34.388987345664134,31.41364809020584],[34.38906298160274,31.413735937037984],[34.390812062683054,31.416234691374537],[34.39082151717538,31.41625421289279],[34.39155896757681,31.417122920455107],[34.39160624003844,31.417689044484483],[34.391294241791684,31.418206364718223],[34.391284787299355,31.418225886236478],[34.391284787299355,31.418235646995605],[34.39195605625451,31.419387416572608],[34.39196551074683,31.419406938090862],[34.39197496523916,31.41941669884999],[34.39471676801371,31.420744162091285],[34.39474513149069,31.420753922850412],[34.39476404047534,31.420753922850412],[34.39537858247653,31.420568468426996],[34.396106578385634,31.420773444368667],[34.39667384792519,31.42148597978495],[34.39668330241752,31.421495740544078],[34.39847020146714,31.423809040457215],[34.39850801943645,31.423838322734596],[34.40263963258292,31.427557171962043],[34.402677450552225,31.427586454239425],[34.4040483519395,31.42850396559738],[34.40407671541648,31.428523487115633],[34.40592034142006,31.42990951491169],[34.405995977358664,31.42997784022558],[34.40708324397615,31.43114913132084],[34.40711160745313,31.43117841359822],[34.40888905201043,31.432339943934352],[34.40890796099508,31.43234970469348],[34.41305848312621,31.434663004606616],[34.413096301095514,31.43468252612487],[34.41394720540485,31.43523888939512],[34.414136295251375,31.435902621015767],[34.412831575310385,31.43816711713327],[34.412812666325735,31.438206160169777],[34.41252903155595,31.43923103987813],[34.41240612315571,31.4394360158198],[34.40940904908836,31.44262778405438],[34.40939014010371,31.442647305572635],[34.40441707714022,31.44747888134058],[34.40440762264789,31.447498402858834],[34.40441707714022,31.44750816361796],[34.41153630986172,31.452925384933536],[34.411583582323345,31.452954667210918],[34.412633030971534,31.45350126972204],[34.41274648487945,31.453579355795057],[34.41491156362211,31.455443660788344],[34.414921018114434,31.45545342154747],[34.41823954492087,31.45844997459951],[34.41825845390552,31.458469496117765],[34.4195915373235,31.45948461506699],[34.41960099181582,31.459494375826118],[34.426531134690805,31.46457973133137],[34.426568952660105,31.46460901360875],[34.42926348297303,31.466941835040142],[34.42928239195768,31.46695159579927],[34.429291846450006,31.46695159579927],[34.42930130094233,31.46695159579927],[34.43507799575354,31.466824705930616],[34.435683083262404,31.467166332500067],[34.43647726061779,31.468864704588192],[34.43649616960244,31.468884226106447],[34.436505624094764,31.468893986865574],[34.44266049859901,31.474867571451398],[34.4427644980146,31.47499446132005],[34.44340740349277,31.47619503469269],[34.44342631247742,31.476214556210945],[34.44343576696975,31.47622431697007],[34.444107035924894,31.476761158722066],[34.444296125771416,31.4770246992185],[34.444541942571895,31.477873885262564],[34.44455139706422,31.47789340678082],[34.44455139706422,31.477903167539946],[34.444560851556545,31.477903167539946],[34.446319387129186,31.47912326243084],[34.446366659590815,31.47915254470822],[34.447898287347634,31.47987484088363],[34.44816301313276,31.48011885986181],[34.44849392036418,31.48073378768682],[34.4485033748565,31.480753309205074],[34.44852228384115,31.48077283072333],[34.44920300728863,31.481329193993577],[34.449335370181196,31.481485366139612],[34.45063063562986,31.483749862257113],[34.450658999106835,31.483779144534495],[34.45277680538787,31.48588746850596],[34.45279571437252,31.485916750783343],[34.45612369567128,31.489664882288174],[34.45614260465594,31.48968440380643],[34.45962185783191,31.49274928217236],[34.45965967580122,31.49277856444974],[34.463271291869766,31.496497413677186],[34.463290200854416,31.49651693519544],[34.4640087422712,31.497336838962124],[34.46403710574817,31.497356360480378],[34.46403710574817,31.497366121239505],[34.46518109931962,31.498088417414916],[34.46521891728892,31.49810793893317],[34.4658996407364,31.498361718670477],[34.46601309464431,31.49842028322524],[34.46672218156876,31.49885951738596],[34.4667694540304,31.498879038904214],[34.468480717141404,31.499591574320498],[34.46861308003397,31.499669660393515],[34.47154397265504,31.501807266642363],[34.471695244532256,31.501973199547525],[34.47186542539413,31.502256261562213],[34.47193160684041,31.50260764889079],[34.47189378887111,31.502763821036826],[34.47189378887111,31.502793103314207],[34.47189378887111,31.502802864073335],[34.47203560625599,31.50327138051144],[34.47204506074832,31.503290902029693],[34.47206396973297,31.503310423547948],[34.47230978653345,31.50361300708089],[34.4723286955181,31.503642289358268],[34.47328359924303,31.504969752599564],[34.47334978068931,31.505077120949963],[34.473709051397705,31.505965350030536],[34.47371850589003,31.505994632307917],[34.473727960382355,31.506004393067045],[34.47770830165162,31.51068955744808],[34.47774611962092,31.51072860048459],[34.478370116114434,31.51165587260167],[34.47838902509909,31.511675394119923],[34.47840793408374,31.511694915638177],[34.48393881209447,31.515618740807298],[34.48395772107912,31.515638262325552],[34.48859042231888,31.518390796399412],[34.48872278521144,31.51849816474981],[34.49238167374161,31.522392707641547],[34.492495127649526,31.522568401305836],[34.49329875949724,31.524706007554684],[34.49332712297422,31.52493050501461],[34.49319476008166,31.526043231555107],[34.49319476008166,31.52606275307336],[34.49320421457398,31.526082274591616],[34.49532202085501,31.52892265549762],[34.49536929331664,31.529000741570638],[34.49574747300968,31.529752320023427],[34.49575692750201,31.52977184154168],[34.495766381994336,31.529781602300808],[34.4967685581809,31.5305331807536],[34.500654354526894,31.533441886973495],[34.50076780843481,31.534144661630652],[34.50035181077246,31.53469126414177],[34.50033290178781,31.534710785660025],[34.50033290178781,31.534720546419152],[34.50035181077246,31.53473030717828],[34.50172271215973,31.53590159827354],[34.50175107563671,31.535911359032667],[34.50176998462136,31.535921119791794],[34.503689246563546,31.53673126279935],[34.503717610040525,31.536741023558477],[34.50553287256712,31.537297386828723],[34.50558014502876,31.537316908346977],[34.50662013918462,31.53744379821563],[34.50693213743138,31.53755116656603],[34.50741431654001,31.53789279313548],[34.50751831595559,31.538644371588273],[34.503443429763074,31.543095277750258],[34.50334888483981,31.543183124582402],[34.50303688659305,31.5433978612832],[34.5030179776084,31.543417382801454],[34.5030179776084,31.54342714356058],[34.50329215788586,31.545232883999105],[34.50330161237818,31.54525240551736],[34.50331106687051,31.545271927035614],[34.50473869521174,31.546404175094366],[34.504445605949634,31.547331447211445],[34.50100417074296,31.54800493959122],[34.5009852617583,31.548014700350347],[34.50097580726598,31.548014700350347],[34.50096635277365,31.548024461109474],[34.50028562932618,31.54852225982496],[34.50011544846431,31.548610106657105],[34.497591099013256,31.549498335737677],[34.497572190028606,31.549508096496805],[34.49756273553628,31.549517857255932],[34.497553281043956,31.54952761801506],[34.49674019470392,31.550767234424207],[34.49660783181135,31.550903885051987],[34.495010022608255,31.552094697665503],[34.49498165913128,31.552123979942884],[34.49320421457398,31.554173739359587],[34.493071851681414,31.554290868469113],[34.49009368659871,31.556145412703273],[34.49006532312174,31.556164934221528],[34.49006532312174,31.556174694980655],[34.48906314693518,31.557287421521153],[34.48882678462703,31.557443593667184],[34.486170072283414,31.55848799489379],[34.485905346498285,31.558546559448555],[34.48506389668127,31.558546559448555],[34.48501662421964,31.558546559448555],[34.48340936052421,31.55881009994499],[34.483390451539556,31.558819860704116],[34.483380997047234,31.558819860704116],[34.483371542554906,31.558829621463243],[34.48269081910743,31.559512874602145],[34.482681364615104,31.5595323961204],[34.48267191012278,31.559551917638654],[34.482388275353,31.560986749230345],[34.48228427593741,31.561201485931143],[34.48140500815109,31.56228493019426],[34.48130100873551,31.56238253778553],[34.479041385069586,31.56410043139191],[34.47894684014632,31.564158995946674],[34.4702581616987,31.56860014134953],[34.47023925271405,31.568619662867786],[34.47023925271405,31.568629423626913],[34.486160617791086,31.588189984917744],[34.486207890252714,31.588248549472507],[34.489999141675455,31.593646249269828],[34.489460235612874,31.594065961912296],[34.48902532896587,31.59442711],[34.48902532896587,31.594026918875787],[34.48875114868842,31.594026918875787],[34.48875114868842,31.5937438568611],[34.488467513918636,31.5937438568611],[34.488467513918636,31.593197254349977],[34.488193333641185,31.593197254349977],[34.488193333641185,31.592914192335293],[34.48791915336373,31.592914192335293],[34.48791915336373,31.592640891079732],[34.487644973086276,31.592640891079732],[34.487644973086276,31.592084527809483],[34.48736133831649,31.592084527809483],[34.48736133831649,31.591811226553922],[34.48708715803904,31.591811226553922],[34.48708715803904,31.591245102524546],[34.48680352326926,31.591245102524546],[34.48680352326926,31.590971801268985],[34.4865293429918,31.590971801268985],[34.4865293429918,31.590698500013424],[34.48625516271434,31.590698500013424],[34.48625516271434,31.59014213674318],[34.485971527944564,31.59014213674318],[34.485971527944564,31.58985907472849],[34.48569734766711,31.58985907472849],[34.48574462012874,31.58931247221737],[34.485413712897326,31.58931247221737],[34.485413712897326,31.58902941020268],[34.485139532619876,31.58902941020268],[34.485139532619876,31.588746348187993],[34.484855897850096,31.588746348187993],[34.484903170311725,31.588160702640362],[34.48458171757264,31.58819974567687],[34.48458171757264,31.587916683662186],[34.48430753729519,31.587916683662186],[34.48430753729519,31.587643382406625],[34.4840239025254,31.587643382406625],[34.48405226600238,31.587067497618122],[34.48374972224795,31.587087019136376],[34.48380644920191,31.586813717880815],[34.48347554197049,31.58680395712169],[34.48347554197049,31.586530655866127],[34.48319190720071,31.586530655866127],[34.48320136169304,31.58596453183675],[34.482917726923255,31.58597429259588],[34.48296499938489,31.58566194830381],[34.482643546645804,31.58569123058119],[34.482643546645804,31.585417929325633],[34.482359911876024,31.585417929325633],[34.482359911876024,31.585134867310945],[34.482085731598566,31.585134867310945],[34.482114095075545,31.58455898252244],[34.48180209682879,31.584578504040696],[34.481858823782744,31.584314963544262],[34.48152791655133,31.584305202785135],[34.48152791655133,31.584031901529574],[34.48125373627388,31.584031901529574],[34.48125373627388,31.583748839514886],[34.48097010150409,31.583748839514886],[34.48102682845805,31.583202237003764],[34.48069592122664,31.583192476244637],[34.48069592122664,31.58291917498908],[34.48041228645686,31.58291917498908],[34.48041228645686,31.58264587373352],[34.4801381061794,31.58264587373352],[34.48018537864103,31.58205046742676],[34.47986392590195,31.582079749704143],[34.47986392590195,31.58180644844858],[34.479580291132166,31.58180644844858],[34.479580291132166,31.581523386433894],[34.479306110854715,31.581523386433894],[34.479306110854715,31.581250085178333],[34.479022476084936,31.581250085178333],[34.479088657531214,31.58070348266721],[34.47874829580748,31.580693721908084],[34.47874829580748,31.580420420652523],[34.47847411553002,31.580420420652523],[34.47847411553002,31.580137358637838],[34.47819048076024,31.580137358637838],[34.4782472077142,31.57954195233108],[34.47791630048279,31.57958099536759],[34.47791630048279,31.57930769411203],[34.47764212020533,31.57930769411203],[34.47764212020533,31.57902463209734],[34.47735848543555,31.57902463209734],[34.47735848543555,31.57875133084178],[34.477084305158094,31.57875133084178],[34.47715048660438,31.578204728330658],[34.47681012488064,31.57819496757153],[34.47681012488064,31.57792166631597],[34.47652649011086,31.57792166631597],[34.47652649011086,31.577638604301285],[34.476252309833406,31.577638604301285],[34.47630903678736,31.577092001790163],[34.475968675063626,31.577082241031036],[34.475968675063626,31.576808939775475],[34.47569449478617,31.576808939775475],[34.47569449478617,31.576525877760787],[34.47542031450872,31.576525877760787],[34.47542031450872,31.576252576505226],[34.47513667973893,31.576252576505226],[34.47513667973893,31.575696213234977],[34.47486249946148,31.575696213234977],[34.47486249946148,31.57541315122029],[34.4745788646917,31.57541315122029],[34.4745788646917,31.57513984996473],[34.47430468441424,31.57513984996473],[34.47430468441424,31.574856787950043],[34.474030504136785,31.574856787950043],[34.474030504136785,31.57431018543892],[34.473746869367005,31.574300424679794],[34.473746869367005,31.574027123424234],[34.473472689089554,31.574027123424234],[34.473472689089554,31.573753822168673],[34.4731985088121,31.573753822168673],[34.4731985088121,31.573197458898424],[34.47291487404232,31.573197458898424],[34.47291487404232,31.572914396883736],[34.47264069376486,31.572914396883736],[34.47264069376486,31.572641095628178],[34.47236651348741,31.572641095628178],[34.47236651348741,31.57235803361349],[34.47208287871762,31.57235803361349],[34.47208287871762,31.57180167034324],[34.47180869844017,31.57180167034324],[34.47180869844017,31.57152836908768],[34.47152506367039,31.57152836908768],[34.47152506367039,31.57125506783212],[34.47125088339293,31.57125506783212],[34.47125088339293,31.570688943802743],[34.47097670311548,31.570688943802743],[34.47097670311548,31.570415642547182],[34.470693068345696,31.570415642547182],[34.470693068345696,31.57014234129162],[34.470418888068245,31.57014234129162],[34.470418888068245,31.569859279276937],[34.470135253298466,31.569859279276937],[34.470135253298466,31.569302916006688],[34.46986107302101,31.569302916006688],[34.46986107302101,31.569029614751127],[34.46957743825123,31.569029614751127],[34.46957743825123,31.56874655273644],[34.46930325797377,31.56874655273644],[34.46930325797377,31.568199950225317],[34.46902907769632,31.568199950225317],[34.46902907769632,31.56791688821063],[34.46874544292653,31.56791688821063],[34.46874544292653,31.56763382619594],[34.46847126264908,31.56763382619594],[34.46847126264908,31.567087223684823],[34.468197082371624,31.567087223684823],[34.468197082371624,31.566804161670134],[34.46792290209417,31.566804161670134],[34.46792290209417,31.566530860414574],[34.46763926732439,31.566530860414574],[34.46763926732439,31.566247798399885],[34.467365087046936,31.566247798399885],[34.467365087046936,31.565691435129636],[34.46708145227716,31.565691435129636],[34.46708145227716,31.565418133874076],[34.4668072719997,31.565418133874076],[34.4668072719997,31.565135071859387],[34.46652363722992,31.565135071859387],[34.46652363722992,31.564578708589142],[34.46624945695246,31.564578708589142],[34.46624945695246,31.56430540733358],[34.46597527667501,31.56430540733358],[34.46597527667501,31.56403210607802],[34.46569164190523,31.56403210607802],[34.46569164190523,31.563749044063332],[34.46541746162777,31.563749044063332],[34.46541746162777,31.563192680793083],[34.46513382685799,31.563192680793083],[34.46513382685799,31.562919379537522],[34.464859646580535,31.562919379537522],[34.464859646580535,31.562636317522834],[34.464585466303085,31.562636317522834],[34.464585466303085,31.56207995425259],[34.4643018315333,31.56207995425259],[34.4643018315333,31.561806652997028],[34.46402765125585,31.561806652997028],[34.46402765125585,31.56152359098234],[34.46375347097839,31.56152359098234],[34.46375347097839,31.56125028972678],[34.46346983620861,31.56125028972678],[34.46346983620861,31.56069392645653],[34.46319565593115,31.56069392645653],[34.46319565593115,31.56042062520097],[34.4629214756537,31.56042062520097],[34.4629214756537,31.56013756318628],[34.46263784088392,31.56013756318628],[34.46263784088392,31.559864261930723],[34.462363660606464,31.559864261930723],[34.462363660606464,31.559581199916035],[34.462080025836684,31.559581199916035],[34.462080025836684,31.559024836645786],[34.461805845559226,31.559024836645786],[34.461805845559226,31.558751535390225],[34.461531665281775,31.558751535390225],[34.461531665281775,31.558478234134665],[34.461248030511996,31.558478234134665],[34.461248030511996,31.558195172119976],[34.46097385023454,31.558195172119976],[34.46097385023454,31.557638808849727],[34.46069021546476,31.557638808849727],[34.46069021546476,31.55736550759417],[34.4604160351873,31.55736550759417],[34.4604160351873,31.557082445579482],[34.46014185490985,31.557082445579482],[34.46014185490985,31.55680914432392],[34.45985822014006,31.55680914432392],[34.45985822014006,31.556526082309233],[34.45958403986261,31.556526082309233],[34.45958403986261,31.555969719038984],[34.45930040509283,31.555969719038984],[34.45930040509283,31.555696417783423],[34.459026224815375,31.555696417783423],[34.459026224815375,31.555413355768735],[34.45875204453792,31.555413355768735],[34.45875204453792,31.555140054513174],[34.458477864260466,31.555140054513174],[34.458477864260466,31.55458369124293],[34.45819422949069,31.55458369124293],[34.45819422949069,31.554310389987368],[34.45792004921323,31.554310389987368],[34.45792004921323,31.55402732797268],[34.45763641444345,31.55402732797268],[34.45763641444345,31.55374426595799],[34.45736223416599,31.55374426595799],[34.45736223416599,31.55347096470243],[34.45708805388854,31.55347096470243],[34.45708805388854,31.55291460143218],[34.45680441911876,31.55291460143218],[34.45680441911876,31.55264130017662],[34.4565302388413,31.55264130017662],[34.4565302388413,31.552358238161933],[34.456246604071524,31.552358238161933],[34.456246604071524,31.552084936906375],[34.455972423794066,31.552084936906375],[34.455972423794066,31.551528573636126],[34.455698243516615,31.551528573636126],[34.455698243516615,31.551255272380565],[34.45541460874683,31.551255272380565],[34.45541460874683,31.550972210365877],[34.45514042846938,31.550972210365877],[34.45514042846938,31.55068914835119],[34.4548567936996,31.55068914835119],[34.4548567936996,31.55041584709563],[34.45458261342214,31.55041584709563],[34.45458261342214,31.54995709141665],[34.45458261342214,31.54985948382538],[34.45430843314468,31.54985948382538],[34.45430843314468,31.549674029401963],[34.45430843314468,31.549586182569822],[34.4540247983749,31.549586182569822],[34.4540247983749,31.549400728146406],[34.4540247983749,31.549303120555134],[34.45375061809745,31.549303120555134],[34.45375061809745,31.54910790537259],[34.45375061809745,31.549029819299573],[34.453476437819994,31.549029819299573],[34.453476437819994,31.548824843357902],[34.453476437819994,31.548473456029324],[34.453192803050214,31.548541781343214],[34.453192803050214,31.548200154773763],[34.452880804803456,31.548229437051145],[34.452918622772756,31.547917092759075],[34.452606624526,31.547946375036457],[34.452644442495306,31.547634030744387],[34.45233244424855,31.547673073780896],[34.45236080772552,31.547360729488826],[34.45205826397109,31.547390011766208],[34.45208662744807,31.54680436621858],[34.45180299267829,31.54680436621858],[34.45180299267829,31.54653106496302],[34.45152881240083,31.54653106496302],[34.45152881240083,31.54624800294833],[34.45124517763105,31.54624800294833],[34.45124517763105,31.54597470169277],[34.45097099735359,31.54597470169277],[34.45097099735359,31.545691639678083],[34.45069681707614,31.545691639678083],[34.45069681707614,31.54541833842252],[34.45041318230636,31.54541833842252],[34.45041318230636,31.545135276407834],[34.450139002028905,31.545135276407834],[34.450139002028905,31.544861975152273],[34.449855367259126,31.544861975152273],[34.449855367259126,31.544305611882027],[34.44958118698167,31.544305611882027],[34.44958118698167,31.54402254986734],[34.44930700670422,31.54402254986734],[34.44930700670422,31.54374924861178],[34.44902337193443,31.54374924861178],[34.44902337193443,31.54346618659709],[34.44874919165698,31.54346618659709],[34.44874919165698,31.54319288534153],[34.44847501137952,31.54319288534153],[34.44847501137952,31.54291958408597],[34.44819137660974,31.54291958408597],[34.44819137660974,31.54263652207128],[34.447917196332284,31.54263652207128],[34.447917196332284,31.54236322081572],[34.44764301605483,31.54236322081572],[34.44764301605483,31.54208015880103],[34.447359381285054,31.54208015880103],[34.447359381285054,31.541806857545474],[34.447085201007596,31.541806857545474],[34.447085201007596,31.541533556289913],[34.446801566237816,31.541533556289913],[34.446801566237816,31.540967432260537],[34.44652738596036,31.540967432260537],[34.44652738596036,31.540694131004976],[34.44625320568291,31.540694131004976],[34.44625320568291,31.540420829749415],[34.44596957091313,31.540420829749415],[34.44596957091313,31.540137767734727],[34.44569539063567,31.540137767734727],[34.44569539063567,31.539864466479166],[34.44541175586589,31.539864466479166],[34.44541175586589,31.539581404464478],[34.44513757558843,31.539581404464478],[34.44513757558843,31.53930810320892],[34.44486339531098,31.53930810320892],[34.44486339531098,31.539025041194233],[34.444579760541195,31.539025041194233],[34.444579760541195,31.53875173993867],[34.444305580263745,31.53875173993867],[34.444305580263745,31.538468677923984],[34.44403139998629,31.538468677923984],[34.44403139998629,31.538195376668423],[34.44374776521651,31.538195376668423],[34.44374776521651,31.537639013398174],[34.44347358493905,31.537639013398174],[34.44347358493905,31.537365712142613],[34.4431994046616,31.537365712142613],[34.4431994046616,31.537082650127925],[34.44291576989182,31.537082650127925],[34.44291576989182,31.536809348872367],[34.44264158961436,31.536809348872367],[34.44264158961436,31.53652628685768],[34.44235795484458,31.53652628685768],[34.44235795484458,31.53625298560212],[34.442083774567124,31.53625298560212],[34.442083774567124,31.53596992358743],[34.44180959428967,31.53596992358743],[34.44180959428967,31.53569662233187],[34.44152595951989,31.53569662233187],[34.44152595951989,31.53541356031718],[34.441251779242435,31.53541356031718],[34.441251779242435,31.53514025906162],[34.440968144472656,31.53514025906162],[34.440968144472656,31.53458389579137],[34.4406939641952,31.53458389579137],[34.4406939641952,31.534300833776687],[34.44041978391775,31.534300833776687],[34.44041978391775,31.534027532521126],[34.44013614914796,31.534027532521126],[34.44013614914796,31.533754231265565],[34.43986196887051,31.533754231265565],[34.43986196887051,31.533471169250877],[34.43957833410073,31.533471169250877],[34.43957833410073,31.533197867995316],[34.43930415382327,31.533197867995316],[34.43930415382327,31.532914805980628],[34.439029973545814,31.532914805980628],[34.439029973545814,31.532641504725067],[34.43875579326836,31.532641504725067],[34.43875579326836,31.532085141454818],[34.438472158498584,31.532085141454818],[34.438472158498584,31.53180207944013],[34.438197978221126,31.53180207944013],[34.438197978221126,31.531528778184573],[34.43791434345135,31.531528778184573],[34.43791434345135,31.53125547692901],[34.43764016317389,31.53125547692901],[34.43764016317389,31.530972414914324],[34.43736598289644,31.530972414914324],[34.43736598289644,31.530689352899635],[34.43708234812666,31.530689352899635],[34.43708234812666,31.530416051644075],[34.4368081678492,31.530416051644075],[34.4368081678492,31.530142750388514],[34.43652453307942,31.530142750388514],[34.43652453307942,31.529576626359137],[34.43625035280196,31.529576626359137],[34.43625035280196,31.529303325103577],[34.43597617252451,31.529303325103577],[34.43597617252451,31.52903002384802],[34.435692537754726,31.52903002384802],[34.435692537754726,31.52874696183333],[34.435418357477275,31.52874696183333],[34.435418357477275,31.52847366057777],[34.435134722707495,31.52847366057777],[34.435134722707495,31.528190598563082],[34.43486054243004,31.528190598563082],[34.43486054243004,31.52791729730752],[34.43458636215258,31.52791729730752],[34.43458636215258,31.52764399605196],[34.4343027273828,31.52764399605196],[34.4343027273828,31.527077872022584],[34.43402854710535,31.527077872022584],[34.43402854710535,31.526804570767023],[34.43375436682789,31.526804570767023],[34.43375436682789,31.526531269511466],[34.43347073205811,31.526531269511466],[34.43347073205811,31.526248207496778],[34.433196551780654,31.526248207496778],[34.433196551780654,31.525974906241217],[34.4329223715032,31.525974906241217],[34.4329223715032,31.52569184422653],[34.43263873673342,31.52569184422653],[34.43263873673342,31.525418542970968],[34.432364556455965,31.525418542970968],[34.432364556455965,31.52513548095628],[34.432080921686186,31.52513548095628],[34.432080921686186,31.52486217970072],[34.43180674140873,31.52486217970072],[34.43180674140873,31.52430581643047],[34.43152310663895,31.52430581643047],[34.43152310663895,31.524032515174913],[34.43124892636149,31.524032515174913],[34.43124892636149,31.523749453160224],[34.43097474608404,31.523749453160224],[34.43097474608404,31.523476151904664],[34.43069111131426,31.523476151904664],[34.43069111131426,31.523193089889975],[34.4304169310368,31.523193089889975],[34.4304169310368,31.522919788634415],[34.43013329626702,31.522919788634415],[34.43013329626702,31.522636726619726],[34.429859115989565,31.522636726619726],[34.429859115989565,31.522363425364166],[34.429584935712114,31.522363425364166],[34.429584935712114,31.522080363349477],[34.429310755434656,31.522080363349477],[34.429310755434656,31.521807062093917],[34.42902712066488,31.521807062093917],[34.42902712066488,31.52125069882367],[34.42875294038742,31.52125069882367],[34.42875294038742,31.520967636808983],[34.42846930561764,31.520967636808983],[34.42846930561764,31.520694335553422],[34.42819512534019,31.520694335553422],[34.42819512534019,31.52042103429786],[34.42792094506273,31.52042103429786],[34.42792094506273,31.520137972283173],[34.42763731029295,31.520137972283173],[34.42763731029295,31.519864671027612],[34.42736313001549,31.519864671027612],[34.42736313001549,31.519581609012924],[34.427079495245714,31.519581609012924],[34.427079495245714,31.519308307757363],[34.426805314968256,31.519308307757363],[34.426805314968256,31.519025245742675],[34.426531134690805,31.519025245742675],[34.426531134690805,31.518751944487118],[34.426247499921026,31.518751944487118],[34.426247499921026,31.518478643231557],[34.42597331964357,31.518478643231557],[34.42597331964357,31.51791251920218],[34.42568968487379,31.51791251920218],[34.42568968487379,31.51763921794662],[34.42541550459633,31.51763921794662],[34.42541550459633,31.51736591669106],[34.42514132431888,31.51736591669106],[34.42514132431888,31.51708285467637],[34.42485768954909,31.51708285467637],[34.42485768954909,31.51680955342081],[34.42458350927164,31.51680955342081],[34.42458350927164,31.516526491406122],[34.424309328994184,31.516526491406122],[34.424309328994184,31.516253190150564],[34.424025694224405,31.516253190150564],[34.424025694224405,31.515970128135876],[34.423751513946954,31.515970128135876],[34.423751513946954,31.515696826880315],[34.42341115222321,31.51574563067595],[34.423477333669496,31.515413764865627],[34.42315588093041,31.515452807902136],[34.423193698899716,31.515140463610066],[34.42290060963761,31.515150224369194],[34.42291951862226,31.51485740159538],[34.42263588385248,31.51485740159538],[34.42263588385248,31.51430103832513],[34.42236170357502,31.51430103832513],[34.42236170357502,31.51402773706957],[34.42208752329757,31.51402773706957],[34.42208752329757,31.513744675054884],[34.42176607055848,31.513803239609647],[34.42180388852779,31.513471373799323],[34.421482435788704,31.51351041683583],[34.42152970825033,31.513198072543762],[34.4212271644959,31.51320783330289],[34.42124607348055,31.512915010529074],[34.420971893203095,31.512915010529074],[34.420971893203095,31.512641709273513],[34.420697712925644,31.512641709273513],[34.420697712925644,31.512358647258825],[34.42041407815586,31.512358647258825],[34.42041407815586,31.512085346003264],[34.42013989787841,31.512085346003264],[34.42013989787841,31.511802283988576],[34.41985626310863,31.511802283988576],[34.41985626310863,31.511528982733015],[34.41958208283117,31.511528982733015],[34.41958208283117,31.51124592071833],[34.41930790255372,31.51124592071833],[34.41930790255372,31.51097261946277],[34.41903372227626,31.51097261946277],[34.41903372227626,31.51041625619252],[34.41875008750648,31.51041625619252],[34.41875008750648,31.51014295493696],[34.418400271290416,31.510201519491723],[34.41847590722902,31.50985989292227],[34.41815445448994,31.509889175199653],[34.418192272459244,31.50958659166671],[34.417908637689465,31.50958659166671],[34.417918092181786,31.509303529652023],[34.417643911904335,31.509303529652023],[34.417643911904335,31.509030228396462],[34.417360277134556,31.509030228396462],[34.417360277134556,31.508747166381774],[34.4170860968571,31.508747166381774],[34.4170860968571,31.508473865126216],[34.41680246208732,31.508473865126216],[34.41680246208732,31.508200563870655],[34.41652828180986,31.508200563870655],[34.41652828180986,31.507917501855967],[34.41624464704008,31.507917501855967],[34.41624464704008,31.50763443984128],[34.416121738639845,31.50763443984128],[34.41597046676262,31.50763443984128],[34.41597046676262,31.507439224658736],[34.41597046676262,31.50736113858572],[34.41569628648517,31.50736113858572],[34.4157057409775,31.50707807657103],[34.41541265171539,31.507087837330157],[34.41546937866934,31.506814536074597],[34.415138471437935,31.50680477531547],[34.415138471437935,31.50628745508173],[34.414864291160484,31.50624841204522],[34.414892654637455,31.50594582851228],[34.4145806563907,31.505975110789663],[34.4145806563907,31.505692048774975],[34.414306476113246,31.505692048774975],[34.414306476113246,31.505418747519414],[34.41403229583579,31.505418747519414],[34.41403229583579,31.505135685504726],[34.41374866106601,31.505135685504726],[34.41374866106601,31.504862384249165],[34.41347448078855,31.504862384249165],[34.41347448078855,31.504579322234477],[34.41319084601877,31.504579322234477],[34.41319084601877,31.504306020978916],[34.41291666574132,31.504306020978916],[34.41291666574132,31.504032719723355],[34.41264248546386,31.504032719723355],[34.41264248546386,31.503749657708667],[34.41235885069408,31.503749657708667],[34.41235885069408,31.503466595693983],[34.412084670416625,31.503466595693983],[34.412084670416625,31.50319329443842],[34.411801035646846,31.50319329443842],[34.411801035646846,31.50291999318286],[34.41152685536939,31.50291999318286],[34.41152685536939,31.502636931168173],[34.41125267509194,31.502636931168173],[34.41125267509194,31.502080567897924],[34.41096904032216,31.502080567897924],[34.41096904032216,31.501807266642363],[34.4106948600447,31.501807266642363],[34.4106948600447,31.501524204627675],[34.41041122527492,31.501524204627675],[34.41041122527492,31.501250903372114],[34.41013704499746,31.501250903372114],[34.41013704499746,31.500977602116556],[34.40986286472001,31.500977602116556],[34.40986286472001,31.50069454010187],[34.409588684442554,31.50069454010187],[34.409588684442554,31.50041147808718],[34.409305049672774,31.50041147808718],[34.409305049672774,31.50013817683162],[34.409030869395316,31.50013817683162],[34.409030869395316,31.49986487557606],[34.40874723462554,31.49986487557606],[34.40874723462554,31.49958181356137],[34.408473054348086,31.49958181356137],[34.408473054348086,31.49930851230581],[34.40819887407063,31.49930851230581],[34.40819887407063,31.49902545029112],[34.40791523930085,31.49902545029112],[34.40791523930085,31.49875214903556],[34.40764105902339,31.49875214903556],[34.40764105902339,31.498195785765315],[34.40735742425361,31.498195785765315],[34.40735742425361,31.497912723750627],[34.40708324397615,31.497912723750627],[34.40708324397615,31.497639422495066],[34.4068090636987,31.497639422495066],[34.4068090636987,31.497356360480378],[34.40652542892892,31.497356360480378],[34.40652542892892,31.497083059224817],[34.406251248651465,31.497083059224817],[34.406251248651465,31.496809757969256],[34.405967613881685,31.496809757969256],[34.405967613881685,31.496526695954568],[34.40569343360423,31.496526695954568],[34.40569343360423,31.496253394699007],[34.40541925332678,31.496253394699007],[34.40541925332678,31.495970332684323],[34.40513561855699,31.495970332684323],[34.40513561855699,31.49569703142876],[34.40486143827954,31.49569703142876],[34.40486143827954,31.495413969414074],[34.40458725800208,31.495413969414074],[34.40458725800208,31.495140668158513],[34.4043036232323,31.495140668158513],[34.4043036232323,31.494857606143825],[34.40402944295485,31.494857606143825],[34.40402944295485,31.494584304888264],[34.40375526267739,31.494584304888264],[34.40375526267739,31.494311003632703],[34.403471627907614,31.494311003632703],[34.403471627907614,31.494027941618015],[34.403197447630156,31.494027941618015],[34.403197447630156,31.493744879603327],[34.402913812860376,31.493744879603327],[34.402913812860376,31.493471578347766],[34.40236545230547,31.493471578347766],[34.40236545230547,31.49319827709221],[34.40208181753569,31.49319827709221],[34.40208181753569,31.49291521507752],[34.40180763725823,31.49291521507752],[34.40180763725823,31.49264191382196],[34.40152400248845,31.49264191382196],[34.40152400248845,31.49235885180727],[34.40124982221099,31.49235885180727],[34.40124982221099,31.49208555055171],[34.40096618744121,31.49208555055171],[34.40096618744121,31.491802488537022],[34.400692007163755,31.491802488537022],[34.400692007163755,31.49152918728146],[34.400417826886304,31.49152918728146],[34.400417826886304,31.491246125266773],[34.400134192116525,31.491246125266773],[34.400134192116525,31.490972824011212],[34.39986001183907,31.490972824011212],[34.39986001183907,31.490689761996528],[34.399585831561616,31.490689761996528],[34.399585831561616,31.490416460740967],[34.39931165128416,31.490416460740967],[34.39931165128416,31.490143159485406],[34.39902801651438,31.490143159485406],[34.39902801651438,31.489860097470718],[34.39875383623692,31.489860097470718],[34.39875383623692,31.489586796215157],[34.39847020146714,31.489586796215157],[34.39847020146714,31.48930373420047],[34.39819602118968,31.48930373420047],[34.39819602118968,31.489030432944908],[34.397912386419904,31.489030432944908],[34.397912386419904,31.488757131689347],[34.39763820614245,31.488757131689347],[34.39763820614245,31.48847406967466],[34.397364025864995,31.48847406967466],[34.397364025864995,31.488191007659974],[34.397080391095216,31.488191007659974],[34.397080391095216,31.487917706404414],[34.39652257604798,31.487917706404414],[34.39652257604798,31.487634644389725],[34.39624839577052,31.487634644389725],[34.39624839577052,31.487361343134165],[34.39597421549307,31.487361343134165],[34.39597421549307,31.487088041878604],[34.39569058072329,31.487088041878604],[34.39569058072329,31.486804979863916],[34.39541640044583,31.486804979863916],[34.39541640044583,31.486531678608355],[34.39514222016838,31.486531678608355],[34.39514222016838,31.486248616593667],[34.394858585398595,31.486248616593667],[34.394858585398595,31.485975315338106],[34.394584405121144,31.485975315338106],[34.394584405121144,31.48569225332342],[34.394310224843686,31.48569225332342],[34.394310224843686,31.48541895206786],[34.394026590073906,31.48541895206786],[34.394026590073906,31.485135890053172],[34.39375240979645,31.485135890053172],[34.39375240979645,31.48486258879761],[34.39346877502667,31.48486258879761],[34.39346877502667,31.484579526782923],[34.39319459474922,31.484579526782923],[34.39324186721085,31.48431598628649],[34.39292041447176,31.484306225527362],[34.39296768693339,31.48397435971704],[34.39263677970198,31.484023163512674],[34.39267459767128,31.483710819220605],[34.39236259942452,31.483749862257113],[34.39238150840918,31.48344727872417],[34.39207896465474,31.483476561001552],[34.39209787363939,31.483183738227737],[34.391804784377285,31.483193498986864],[34.391804784377285,31.482920197731307],[34.391530604099835,31.482920197731307],[34.391530604099835,31.482666417994],[34.391246969330055,31.48263713571662],[34.391246969330055,31.482412638256694],[34.3909727890526,31.482363834461058],[34.3909727890526,31.48214909776026],[34.39068915428282,31.48208077244637],[34.39068915428282,31.481895318022953],[34.39068915428282,31.48180747119081],[34.39041497400536,31.48180747119081],[34.39041497400536,31.48159273449001],[34.39014079372791,31.48152440917612],[34.39014079372791,31.48138775854834],[34.39014079372791,31.48125110792056],[34.38986661345045,31.48125110792056],[34.38986661345045,31.480968045905872],[34.38958297868067,31.480968045905872],[34.38958297868067,31.48069474465031],[34.38929934391089,31.480704505409438],[34.38930879840321,31.480421443394754],[34.38901570914111,31.48043120415388],[34.389025163633434,31.480138381380065],[34.388722619879005,31.48015790289832],[34.38875098335598,31.479865080124505],[34.38843898510922,31.479894362401886],[34.388476803078525,31.479582018109816],[34.38815535033944,31.479621061146325],[34.388193168308746,31.479308716854256],[34.38787171556966,31.47935752064989],[34.38791898803129,31.479025654839567],[34.38758808079988,31.47908421939433],[34.38763535326151,31.478752353584007],[34.38729499153777,31.47881091813877],[34.38736117298405,31.47846929156932],[34.38703026575264,31.47845953081019],[34.3870869927066,31.478195990313758],[34.38680335793682,31.478195990313758],[34.38680335793682,31.477912928299073],[34.386444087228426,31.477912928299073],[34.38624554288958,31.477912928299073],[34.38624554288958,31.477668909320894],[34.385971362612125,31.477639627043512],[34.3859997260891,31.47733704351057],[34.385697182334674,31.47736632578795],[34.3857444547963,31.47709302453239],[34.385413547564895,31.477083263773263],[34.385413547564895,31.476800201758575],[34.38513936728744,31.476800201758575],[34.38513936728744,31.476526900503014],[34.38486518700998,31.476526900503014],[34.38486518700998,31.476253599247453],[34.3845815522402,31.476253599247453],[34.3845815522402,31.475970537232765],[34.38430737196275,31.475970537232765],[34.38430737196275,31.475697235977204],[34.38403319168529,31.475697235977204],[34.38403319168529,31.47541417396252],[34.38374955691551,31.47541417396252],[34.38374955691551,31.47514087270696],[34.38347537663805,31.47514087270696],[34.38347537663805,31.47485781069227],[34.38319174186827,31.47485781069227],[34.38319174186827,31.47458450943671],[34.382917561590816,31.47458450943671],[34.382917561590816,31.47430144742202],[34.382633926821036,31.47430144742202],[34.382633926821036,31.47402814616646],[34.382359746543585,31.47402814616646],[34.382359746543585,31.473745084151773],[34.38208556626613,31.473745084151773],[34.38208556626613,31.473471782896212],[34.38180193149635,31.473471782896212],[34.38180193149635,31.47319848164065],[34.38152775121889,31.47319848164065],[34.38152775121889,31.472915419625966],[34.38124411644911,31.472915419625966],[34.38124411644911,31.47263235761128],[34.38096993617166,31.47263235761128],[34.38096993617166,31.472359056355717],[34.3806957558942,31.472359056355717],[34.3806957558942,31.472085755100156],[34.380421575616744,31.472085755100156],[34.380421575616744,31.47180269308547],[34.380137940846964,31.47180269308547],[34.380137940846964,31.471529391829907],[34.37986376056951,31.471529391829907],[34.37986376056951,31.47124632981522],[34.379589580292055,31.47124632981522],[34.37958012579973,31.47097302855966],[34.379305945522276,31.47097302855966],[34.379305945522276,31.47068996654497],[34.37903176524482,31.47068996654497],[34.37903176524482,31.47041666528941],[34.37874813047504,31.47041666528941],[34.37874813047504,31.470143364033852],[34.37847395019758,31.470143364033852],[34.37847395019758,31.469860302019164],[34.3781903154278,31.469860302019164],[34.3781903154278,31.469587000763603],[34.37791613515035,31.469587000763603],[34.37791613515035,31.469030637493354],[34.37764195487289,31.469030637493354],[34.37764195487289,31.468747575478666],[34.37735832010311,31.468747575478666],[34.37735832010311,31.468474274223105],[34.377084139825655,31.468474274223105],[34.377084139825655,31.468200972967544],[34.376800505055876,31.468200972967544],[34.376800505055876,31.467917910952856],[34.376526324778425,31.467917910952856],[34.376526324778425,31.46763484893817],[34.37625214450097,31.46763484893817],[34.37625214450097,31.46736154768261],[34.37596850973119,31.46736154768261],[34.37596850973119,31.46708824642705],[34.37569432945373,31.46708824642705],[34.37569432945373,31.46680518441236],[34.37542014917628,31.46680518441236],[34.37542014917628,31.4665318831568],[34.37513651440649,31.4665318831568],[34.37513651440649,31.466248821142113],[34.37486233412904,31.466248821142113],[34.37486233412904,31.465692457871864],[34.37458815385158,31.465692457871864],[34.37458815385158,31.465409395857176],[34.374304519081804,31.465409395857176],[34.374304519081804,31.46513609460162],[34.374030338804346,31.46513609460162],[34.374030338804346,31.464862793346057],[34.373746704034566,31.464862793346057],[34.373746704034566,31.46457973133137],[34.373472523757115,31.46457973133137],[34.373472523757115,31.46430643007581],[34.37319834347966,31.46430643007581],[34.37319834347966,31.46402336806112],[34.37291470870988,31.46402336806112],[34.37291470870988,31.46375006680556],[34.37264052843242,31.46375006680556],[34.37264052843242,31.46346700479087],[34.37235689366264,31.46346700479087],[34.37235689366264,31.46319370353531],[34.37208271338519,31.46319370353531],[34.37208271338519,31.462627579505938],[34.37180853310773,31.462637340265065],[34.37180853310773,31.462364039009504],[34.37152489833795,31.462364039009504],[34.37152489833795,31.462080976994816],[34.371250718060494,31.462080976994816],[34.371250718060494,31.461807675739255],[34.370967083290715,31.461807675739255],[34.370967083290715,31.461524613724567],[34.37069290301326,31.461524613724567],[34.37069290301326,31.461251312469006],[34.370418722735806,31.461251312469006],[34.370418722735806,31.460968250454318],[34.37014454245835,31.460968250454318],[34.37014454245835,31.460694949198757],[34.36986090768857,31.460694949198757],[34.36986090768857,31.460421647943196],[34.36958672741111,31.460421647943196],[34.36958672741111,31.46013858592851],[34.36930309264133,31.46013858592851],[34.36930309264133,31.45986528467295],[34.36902891236388,31.45986528467295],[34.36902891236388,31.4593089214027],[34.36875473208642,31.4593089214027],[34.36875473208642,31.459025859388014],[34.36847109731664,31.459025859388014],[34.36847109731664,31.458752558132453],[34.368196917039185,31.458752558132453],[34.368196917039185,31.458469496117765],[34.367913282269406,31.458469496117765],[34.367913282269406,31.458196194862204],[34.367639101991955,31.458196194862204],[34.367639101991955,31.457913132847516],[34.3673649217145,31.457913132847516],[34.3673649217145,31.457639831591955],[34.36708128694472,31.457639831591955],[34.36708128694472,31.45735676957727],[34.36680710666726,31.45735676957727],[34.36680710666726,31.45708346832171],[34.36652347189748,31.45708346832171],[34.36652347189748,31.45681016706615],[34.36624929162002,31.45681016706615],[34.36624929162002,31.45652710505146],[34.36597511134257,31.45652710505146],[34.36597511134257,31.45597074178121],[34.36569147657279,31.45597074178121],[34.36569147657279,31.45569744052565],[34.365417296295334,31.45569744052565],[34.365417296295334,31.455414378510962],[34.365143116017876,31.455414378510962],[34.365143116017876,31.4551410772554],[34.3648594812481,31.4551410772554],[34.3648594812481,31.454858015240717],[34.364585300970646,31.454858015240717],[34.364585300970646,31.454584713985156],[34.36431112069319,31.454584713985156],[34.36431112069319,31.454301651970468],[34.36402748592341,31.454301651970468],[34.36402748592341,31.454028350714907],[34.36375330564595,31.454028350714907],[34.36375330564595,31.453755049459346],[34.36346967087617,31.453755049459346],[34.36346967087617,31.453471987444658],[34.36319549059871,31.453471987444658],[34.36319549059871,31.453198686189097],[34.36291185582893,31.453198686189097],[34.36291185582893,31.45291562417441],[34.36263767555148,31.45291562417441],[34.36263767555148,31.452642322918848],[34.362363495274025,31.452642322918848],[34.362363495274025,31.452359260904164],[34.362079860504245,31.452359260904164],[34.362079860504245,31.452085959648603],[34.36180568022679,31.452085959648603],[34.36180568022679,31.451802897633915],[34.36152204545701,31.451802897633915],[34.36152204545701,31.451529596378354],[34.36124786517956,31.451529596378354],[34.36124786517956,31.451246534363666],[34.3609736849021,31.451246534363666],[34.3609736849021,31.450973233108105],[34.36069950462464,31.450973233108105],[34.36069950462464,31.450690171093417],[34.36041586985486,31.450690171093417],[34.36041586985486,31.450416869837856],[34.36014168957741,31.450416869837856],[34.36014168957741,31.450133807823168],[34.359858054807624,31.450133807823168],[34.359858054807624,31.44986050656761],[34.35958387453017,31.44986050656761],[34.35958387453017,31.449577444552922],[34.359309694252715,31.449577444552922],[34.359309694252715,31.44930414329736],[34.359026059482936,31.44930414329736],[34.359026059482936,31.4490308420418],[34.35875187920548,31.4490308420418],[34.35875187920548,31.448747780027112],[34.3584682444357,31.448747780027112],[34.3584682444357,31.44847447877155],[34.35819406415825,31.44847447877155],[34.35819406415825,31.448191416756863],[34.35791988388079,31.448191416756863],[34.35791988388079,31.447918115501302],[34.35763624911101,31.447918115501302],[34.35763624911101,31.447361752231057],[34.35736206883355,31.447361752231057],[34.35736206883355,31.44707869021637],[34.35707843406377,31.44707869021637],[34.35707843406377,31.446805388960808],[34.35680425378632,31.446805388960808],[34.35680425378632,31.446532087705247],[34.356530073508864,31.446532087705247],[34.356530073508864,31.44624902569056],[34.356246438739085,31.44624902569056],[34.356246438739085,31.445975724434998],[34.35597225846163,31.445975724434998],[34.35597225846163,31.44569266242031],[34.355698078184176,31.44569266242031],[34.355698078184176,31.44541936116475],[34.35541444341439,31.44541936116475],[34.35541444341439,31.44513629915006],[34.35514026313694,31.44513629915006],[34.35514026313694,31.4448629978945],[34.35486608285948,31.4448629978945],[34.35486608285948,31.444579935879815],[34.3545824480897,31.444579935879815],[34.3545824480897,31.444306634624255],[34.35430826781224,31.444306634624255],[34.35430826781224,31.444033333368694],[34.354024633042464,31.444033333368694],[34.354024633042464,31.443750271354006],[34.35375045276501,31.443750271354006],[34.35375045276501,31.443467209339317],[34.353476272487555,31.443467209339317],[34.353476272487555,31.443193908083757],[34.353192637717775,31.443193908083757],[34.353192637717775,31.442920606828196],[34.35291845744032,31.442920606828196],[34.35291845744032,31.442637544813508],[34.35263482267054,31.442637544813508],[34.35263482267054,31.442364243557947],[34.35236064239309,31.442364243557947],[34.35236064239309,31.442081181543262],[34.35208646211563,31.442081181543262],[34.35208646211563,31.4418078802877],[34.35180282734585,31.4418078802877],[34.35180282734585,31.441524818273013],[34.35152864706839,31.441524818273013],[34.35152864706839,31.441251517017452],[34.35124501229861,31.441251517017452],[34.35124501229861,31.440968455002764],[34.350970832021154,31.440968455002764],[34.350970832021154,31.440695153747203],[34.350696651743704,31.440695153747203],[34.350696651743704,31.440412091732515],[34.350422471466246,31.440412091732515],[34.350422471466246,31.440138790476954],[34.350138836696466,31.440138790476954],[34.350138836696466,31.439865489221393],[34.34986465641901,31.439865489221393],[34.34986465641901,31.43958242720671],[34.34958102164923,31.43958242720671],[34.34958102164923,31.439309125951148],[34.34930684137178,31.439309125951148],[34.34930684137178,31.43902606393646],[34.34903266109432,31.43902606393646],[34.34903266109432,31.4387527626809],[34.34874902632454,31.4387527626809],[34.34874902632454,31.438479461425338],[34.34847484604708,31.438479461425338],[34.34847484604708,31.43819639941065],[34.3481912112773,31.43819639941065],[34.3481912112773,31.437913337395962],[34.347633396230066,31.437913337395962],[34.347633396230066,31.4376400361404],[34.347359215952615,31.4376400361404],[34.347359215952615,31.43736673488484],[34.34708503567516,31.43736673488484],[34.34708503567516,31.437083672870155],[34.34680140090538,31.437083672870155],[34.34680140090538,31.436810371614595],[34.34652722062792,31.436810371614595],[34.34652722062792,31.436527309599906],[34.34625304035047,31.436527309599906],[34.34625304035047,31.436254008344346],[34.34596940558069,31.436254008344346],[34.34596940558069,31.435970946329657],[34.34569522530323,31.435970946329657],[34.34569522530323,31.435697645074097],[34.34542104502577,31.435697645074097],[34.34542104502577,31.43541458305941],[34.345137410255994,31.43541458305941],[34.345137410255994,31.435141281803848],[34.34486322997854,31.435141281803848],[34.34486322997854,31.43485821978916],[34.34457959520876,31.43485821978916],[34.34457959520876,31.434584918533602],[34.344305414931306,31.434584918533602],[34.344305414931306,31.434301856518914],[34.34403123465385,31.434301856518914],[34.34403123465385,31.434028555263353],[34.34374759988407,31.434028555263353],[34.34374759988407,31.433745493248665],[34.34347341960662,31.433745493248665],[34.34347341960662,31.433472191993104],[34.34291560455938,31.433472191993104],[34.34291560455938,31.433198890737543],[34.34264142428192,31.433198890737543],[34.34264142428192,31.432915828722855],[34.34235778951214,31.432915828722855],[34.34235778951214,31.432642527467294],[34.342083609234685,31.432642527467294],[34.342083609234685,31.432359465452606],[34.341799974464905,31.432359465452606],[34.341799974464905,31.432086164197045],[34.341525794187454,31.432086164197045],[34.341525794187454,31.43180310218236],[34.341251613909996,31.43180310218236],[34.341251613909996,31.4315298009268],[34.34097743363254,31.4315298009268],[34.34097743363254,31.43124673891211],[34.34069379886276,31.43124673891211],[34.34069379886276,31.43097343765655],[34.34041961858531,31.43097343765655],[34.34041961858531,31.430690375641863],[34.34013598381552,31.430690375641863],[34.34013598381552,31.430417074386302],[34.33986180353807,31.430417074386302],[34.33986180353807,31.43014377313074],[34.33958762326061,31.43014377313074],[34.33958762326061,31.429860711116053],[34.33930398849083,31.429860711116053],[34.33930398849083,31.429587409860492],[34.33902980821338,31.429587409860492],[34.33902980821338,31.429304347845807],[34.338746173443596,31.429304347845807],[34.338746173443596,31.429031046590246],[34.338471993166145,31.429031046590246],[34.338471993166145,31.42874798457556],[34.33791417811891,31.42874798457556],[34.33791417811891,31.428474683319997],[34.33763999784145,31.428474683319997],[34.33763999784145,31.42819162130531],[34.33735636307167,31.42819162130531],[34.33735636307167,31.42791832004975],[34.33708218279422,31.42791832004975],[34.33708218279422,31.42763525803506],[34.33680800251676,31.42763525803506],[34.33680800251676,31.4273619567795],[34.33652436774698,31.4273619567795],[34.33652436774698,31.42708865552394],[34.336250187469524,31.42708865552394],[34.336250187469524,31.426805593509254],[34.33597600719207,31.426805593509254],[34.33597600719207,31.426522531494566],[34.33569237242229,31.426522531494566],[34.33569237242229,31.426249230239005],[34.335418192144836,31.426249230239005],[34.335418192144836,31.425975928983444],[34.33514401186738,31.425975928983444],[34.33514401186738,31.425692866968756],[34.3348603770976,31.425692866968756],[34.3348603770976,31.425419565713195],[34.33458619682015,31.425419565713195],[34.33458619682015,31.425136503698507],[34.33430256205036,31.425136503698507],[34.33430256205036,31.424863202442946],[34.33402838177291,31.424863202442946],[34.33402838177291,31.424580140428258],[34.33375420149545,31.424580140428258],[34.33375420149545,31.4243068391727],[34.333196386448215,31.4243068391727],[34.333196386448215,31.424023777158013],[34.332912751678435,31.424023777158013],[34.332912751678435,31.42375047590245],[34.332638571400985,31.42375047590245],[34.332638571400985,31.42347717464689],[34.3323549366312,31.42347717464689],[34.3323549366312,31.423194112632203],[34.33208075635375,31.423194112632203],[34.33208075635375,31.422920811376642],[34.33180657607629,31.422920811376642],[34.33180657607629,31.422637749361954],[34.33153239579884,31.422637749361954],[34.33153239579884,31.422354687347266],[34.33124876102905,31.422354687347266],[34.33124876102905,31.422081386091705],[34.3309745807516,31.422081386091705],[34.3309745807516,31.421808084836144],[34.33070040047414,31.421808084836144],[34.33070040047414,31.42152502282146],[34.33041676570436,31.42152502282146],[34.33041676570436,31.4212517215659],[34.33014258542691,31.4212517215659],[34.33014258542691,31.42096865955121],[34.329858950657126,31.42096865955121],[34.329858950657126,31.42069535829565],[34.329584770379675,31.42069535829565],[34.329584770379675,31.42041229628096],[34.329301135609896,31.42041229628096],[34.329301135609896,31.4201389950254],[34.32902695533244,31.4201389950254],[34.32902695533244,31.41986569376984],[34.3284691402852,31.41986569376984],[34.3284691402852,31.41958263175515],[34.32819496000775,31.41958263175515],[34.32819496000775,31.41930933049959],[34.32791132523796,31.41930933049959],[34.32791132523796,31.419026268484906],[34.32763714496051,31.419026268484906],[34.32763714496051,31.418752967229345],[34.327362964683054,31.418752967229345],[34.327362964683054,31.418469905214657],[34.327079329913275,31.418469905214657],[34.327079329913275,31.418196603959096],[34.32680514963582,31.418196603959096],[34.32680514963582,31.417913541944408],[34.326530969358366,31.417913541944408],[34.326530969358366,31.417640240688847],[34.32624733458859,31.417640240688847],[34.32624733458859,31.41735717867416],[34.32597315431113,31.41735717867416],[34.32597315431113,31.417083877418598],[34.32569897403368,31.417083877418598],[34.32569897403368,31.41680081540391],[34.32541533926389,31.41680081540391],[34.32541533926389,31.416527514148353],[34.32485752421666,31.416527514148353],[34.32485752421666,31.41625421289279],[34.3245833439392,31.41625421289279],[34.3245833439392,31.415971150878104],[34.324309163661745,31.415971150878104],[34.324309163661745,31.415697849622543],[34.324025528891966,31.415697849622543],[34.324025528891966,31.415414787607855],[34.323751348614515,31.415414787607855],[34.323751348614515,31.415141486352294],[34.32346771384473,31.415141486352294],[34.32346771384473,31.414858424337606],[34.32291935328982,31.414858424337606],[34.32291935328982,31.414585123082045],[34.32263571852004,31.414585123082045],[34.32263571852004,31.414302061067357],[34.32236153824258,31.414302061067357],[34.32236153824258,31.4140287598118],[34.3220779034728,31.4140287598118],[34.3220779034728,31.41374569779711],[34.32180372319535,31.41374569779711],[34.32180372319535,31.41347239654155],[34.321529542917894,31.41347239654155],[34.321529542917894,31.41319909528599],[34.32125536264044,31.41319909528599],[34.32125536264044,31.4129160332713],[34.320697547593205,31.4129160332713],[34.320697547593205,31.41264273201574],[34.320413912823426,31.41264273201574],[34.320413912823426,31.412359670001052],[34.32013973254597,31.412359670001052],[34.32013973254597,31.41208636874549],[34.31986555226851,31.41208636874549],[34.31986555226851,31.411803306730803],[34.31958191749873,31.411803306730803],[34.31958191749873,31.411530005475246],[34.31930773722128,31.411530005475246],[34.31930773722128,31.411246943460558],[34.31874992217404,31.411246943460558],[34.31874992217404,31.410973642204997],[34.318475741896584,31.410973642204997],[34.318475741896584,31.41069058019031],[34.318192107126805,31.41069058019031],[34.318192107126805,31.410417278934748],[34.31791792684935,31.410417278934748],[34.31791792684935,31.41013421692006],[34.31763429207957,31.41013421692006],[34.31763429207957,31.4098609156645],[34.31736011180212,31.4098609156645],[34.31736011180212,31.40957785364981],[34.31680229675488,31.40957785364981],[34.31680229675488,31.40930455239425],[34.31652811647742,31.40930455239425],[34.31652811647742,31.40903125113869],[34.31625393619997,31.40903125113869],[34.31625393619997,31.408748189124005],[34.315970301430184,31.408748189124005],[34.315970301430184,31.408474887868444],[34.31569612115273,31.408474887868444],[34.31569612115273,31.408191825853756],[34.315421940875275,31.408191825853756],[34.315421940875275,31.407918524598195],[34.315138306105496,31.407918524598195],[34.315138306105496,31.407635462583507],[34.31458049105826,31.407635462583507],[34.31458049105826,31.407362161327946],[34.31430631078081,31.407362161327946],[34.31430631078081,31.407079099313258],[34.31403213050335,31.407079099313258],[34.31402267601103,31.406805798057697],[34.31374849573357,31.406805798057697],[34.31374849573357,31.406532496802136],[34.31347431545611,31.406532496802136],[34.31347431545611,31.40624943478745],[34.31319068068633,31.40624943478745],[34.31319068068633,31.40597613353189],[34.312632865639095,31.40597613353189],[34.312632865639095,31.405693071517202],[34.312358685361644,31.405693071517202],[34.312358685361644,31.40541977026164],[34.31208450508419,31.40541977026164],[34.31208450508419,31.405136708246953],[34.311810324806736,31.405136708246953],[34.311810324806736,31.404863406991392],[34.31152669003695,31.404863406991392],[34.31152669003695,31.404580344976704],[34.31097832948204,31.404580344976704],[34.31097832948204,31.404307043721143],[34.31069469471226,31.404307043721143],[34.31069469471226,31.404023981706455],[34.31042051443481,31.404023981706455],[34.31042051443481,31.403750680450898],[34.31013687966502,31.403750680450898],[34.31013687966502,31.403477379195337],[34.30957906461779,31.403477379195337],[34.30957906461779,31.40319431718065],[34.309304884340335,31.40319431718065],[34.309304884340335,31.402921015925088],[34.30903070406288,31.402921015925088],[34.30903070406288,31.4026379539104],[34.30847288901565,31.4026379539104],[34.30847288901565,31.40236465265484],[34.30818925424586,31.40236465265484],[34.30818925424586,31.40208159064015],[34.30791507396841,31.40208159064015],[34.30791507396841,31.40180828938459],[34.30764089369095,31.40180828938459],[34.30764089369095,31.401525227369902],[34.307083078643714,31.401525227369902],[34.307083078643714,31.401251926114345],[34.30680889836626,31.401251926114345],[34.30680889836626,31.400968864099656],[34.306525263596484,31.400968864099656],[34.306525263596484,31.400695562844096],[34.305976903041575,31.400695562844096],[34.305976903041575,31.400412500829407],[34.30569326827179,31.400412500829407],[34.30569326827179,31.400139199573847],[34.30541908799434,31.400139199573847],[34.30541908799434,31.39985613755916],[34.30513545322456,31.39985613755916],[34.30513545322456,31.399582836303598],[34.30458709266964,31.399582836303598],[34.30458709266964,31.399309535048037],[34.30430345789986,31.399309535048037],[34.30430345789986,31.39902647303335],[34.30402927762241,31.39902647303335],[34.30402927762241,31.39875317177779],[34.303471462575175,31.39875317177779],[34.303471462575175,31.398470109763103],[34.30319728229772,31.398470109763103],[34.30319728229772,31.398196808507542],[34.30291364752794,31.398196808507542],[34.30291364752794,31.397913746492854],[34.30263946725048,31.397913746492854],[34.30263946725048,31.397640445237293],[34.30208165220325,31.397640445237293],[34.30208165220325,31.397367143981732],[34.30180747192579,31.397367143981732],[34.30180747192579,31.397084081967044],[34.30153329164834,31.397084081967044],[34.30153329164834,31.396801019952356],[34.3009754766011,31.396801019952356],[34.3009754766011,31.396527718696795],[34.30069184183132,31.396527718696795],[34.30069184183132,31.396254417441234],[34.300417661553865,31.396254417441234],[34.300417661553865,31.39597135542655],[34.30014348127641,31.39597135542655],[34.30014348127641,31.39569805417099],[34.29958566622918,31.39569805417099],[34.29958566622918,31.3954149921563],[34.29930203145939,31.3954149921563],[34.29930203145939,31.39514169090074],[34.29902785118194,31.39514169090074],[34.29902785118194,31.394858628886052],[34.2984700361347,31.394858628886052],[34.2984700361347,31.39458532763049],[34.298195855857244,31.39458532763049],[34.298195855857244,31.394302265615803],[34.297912221087465,31.394302265615803],[34.297912221087465,31.394028964360242],[34.297638040810014,31.394028964360242],[34.297638040810014,31.393745902345554],[34.29708022576278,31.393745902345554],[34.29708022576278,31.393472601089996],[34.29680604548532,31.393472601089996],[34.29680604548532,31.39318953907531],[34.29653186520787,31.39318953907531],[34.29653186520787,31.392916237819747],[34.29624823043809,31.392916237819747],[34.29624823043809,31.39263317580506],[34.29597405016063,31.39263317580506],[34.29597405016063,31.3923598745495],[34.29569986988317,31.3923598745495],[34.29569986988317,31.392086573293938],[34.29514205483594,31.392086573293938],[34.29514205483594,31.39180351127925],[34.294858420066156,31.39180351127925],[34.294858420066156,31.39153021002369],[34.294584239788705,31.39153021002369],[34.294584239788705,31.391247148009],[34.294300605018925,31.391247148009],[34.294300605018925,31.390973846753443],[34.29402642474147,31.390973846753443],[34.29402642474147,31.390690784738755],[34.29375224446401,31.390690784738755],[34.29375224446401,31.390417483483194],[34.29346860969423,31.390417483483194],[34.29346860969423,31.390134421468506],[34.29319442941678,31.390134421468506],[34.29319442941678,31.389861120212945],[34.29291079464699,31.389861120212945],[34.29291079464699,31.389587818957384],[34.29263661436954,31.389587818957384],[34.29263661436954,31.389304756942696],[34.29208825381463,31.389304756942696],[34.29208825381463,31.389031455687135],[34.29180461904485,31.389031455687135],[34.29180461904485,31.388748393672447],[34.291530438767396,31.388748393672447],[34.291530438767396,31.38847509241689],[34.291246803997616,31.38847509241689],[34.291246803997616,31.38820179116133],[34.29097262372016,31.38820179116133],[34.29097262372016,31.38791872914664],[34.29069844344271,31.38791872914664],[34.29069844344271,31.387635667131953],[34.29041480867292,31.387635667131953],[34.29041480867292,31.387362365876392],[34.29014062839547,31.387362365876392],[34.29014062839547,31.387079303861704],[34.28985699362569,31.387079303861704],[34.28985699362569,31.386806002606143],[34.28958281334823,31.386806002606143],[34.28958281334823,31.386532701350582],[34.289024998300995,31.386532701350582],[34.289024998300995,31.386249639335894],[34.288750818023544,31.386249639335894],[34.288750818023544,31.385976338080336],[34.28846718325376,31.385976338080336],[34.28846718325376,31.38569327606565],[34.28819300297631,31.38569327606565],[34.28819300297631,31.385419974810087],[34.28791882269885,31.385419974810087],[34.28791882269885,31.3851369127954],[34.28763518792907,31.3851369127954],[34.28763518792907,31.38486361153984],[34.28736100765162,31.38486361153984],[34.28736100765162,31.38458054952515],[34.28708682737416,31.38458054952515],[34.28708682737416,31.38430724826959],[34.28680319260438,31.38430724826959],[34.28680319260438,31.3840241862549],[34.28625483204947,31.3840241862549],[34.28625483204947,31.38375088499934],[34.285971197279686,31.38375088499934],[34.285971197279686,31.383467822984652],[34.285697017002235,31.383467822984652],[34.285697017002235,31.383194521729095],[34.285413382232456,31.383194521729095],[34.285413382232456,31.382921220473534],[34.285139201955,31.382921220473534],[34.285139201955,31.382638158458846],[34.28486502167754,31.382638158458846],[34.28486502167754,31.382364857203285],[34.28458138690776,31.382364857203285],[34.28458138690776,31.382081795188597],[34.28430720663031,31.382081795188597],[34.28430720663031,31.381808493933036],[34.28402357186052,31.381808493933036],[34.28402357186052,31.381525431918348],[34.28374939158307,31.381525431918348],[34.28374939158307,31.381252130662787],[34.283191576535835,31.381252130662787],[34.283191576535835,31.3809690686481],[34.282917396258384,31.3809690686481],[34.282917396258384,31.38069576739254],[34.282643215980926,31.38069576739254],[34.282643215980926,31.380412705377854],[34.282359581211146,31.380412705377854],[34.282359581211146,31.380139404122293],[34.28208540093369,31.380139404122293],[34.28208540093369,31.379866102866732],[34.28181122065624,31.379866102866732],[34.28181122065624,31.379583040852044],[34.28152758588645,31.379583040852044],[34.28152758588645,31.379309739596483],[34.281253405609,31.379309739596483],[34.281253405609,31.379026677581795],[34.28096977083922,31.379026677581795],[34.28096977083922,31.378753376326234],[34.28069559056176,31.378753376326234],[34.28069559056176,31.378470314311546],[34.280137775514525,31.378470314311546],[34.280137775514525,31.37819701305599],[34.279863595237074,31.37819701305599],[34.279863595237074,31.3779139510413],[34.27957996046729,31.3779139510413],[34.27957996046729,31.37764064978574],[34.27930578018984,31.37764064978574],[34.27930578018984,31.37735758777105],[34.27902214542006,31.37735758777105],[34.27902214542006,31.37708428651549],[34.2787479651426,31.37708428651549],[34.2787479651426,31.37681098525993],[34.27847378486515,31.37681098525993],[34.27847378486515,31.37652792324524],[34.27819015009536,31.37652792324524],[34.27819015009536,31.376244861230553],[34.27791596981791,31.376244861230553],[34.27791596981791,31.375971559974992],[34.277358154770674,31.375971559974992],[34.277358154770674,31.375698258719435],[34.277083974493216,31.375698258719435],[34.277083974493216,31.375415196704747],[34.276809794215765,31.375415196704747],[34.276809794215765,31.375141895449186],[34.276526159445986,31.375141895449186],[34.276526159445986,31.374858833434498],[34.27625197916853,31.374858833434498],[34.27625197916853,31.374585532178937],[34.27596834439875,31.374585532178937],[34.27596834439875,31.37430247016425],[34.27569416412129,31.37430247016425],[34.27569416412129,31.374029168908688],[34.27541998384384,31.374029168908688],[34.27541998384384,31.373746106894],[34.27513634907405,31.373746106894],[34.27513634907405,31.37347280563844],[34.27457853402682,31.37347280563844],[34.27457853402682,31.37319950438288],[34.274304353749365,31.37319950438288],[34.274304353749365,31.372916442368194],[34.27403017347191,31.372916442368194],[34.27403017347191,31.372643141112633],[34.27374653870213,31.372643141112633],[34.27374653870213,31.372360079097945],[34.27347235842468,31.372360079097945],[34.27347235842468,31.372086777842384],[34.2731887236549,31.372086777842384],[34.2731887236549,31.371803715827696],[34.27291454337744,31.371803715827696],[34.27291454337744,31.371530414572135],[34.27264036309998,31.371530414572135],[34.27264036309998,31.371247352557447],[34.27236618282253,31.371247352557447],[34.27236618282253,31.370974051301886],[34.27180836777529,31.370974051301886],[34.27180836777529,31.370690989287198],[34.27152473300551,31.370690989287198],[34.27152473300551,31.37041768803164],[34.271250552728056,31.37041768803164],[34.271250552728056,31.370134626016952],[34.270976372450605,31.370134626016952],[34.270976372450605,31.36986132476139],[34.27069273768082,31.36986132476139],[34.27069273768082,31.369578262746703],[34.27041855740337,31.369578262746703],[34.27041855740337,31.369304961491142],[34.27013492263359,31.369304961491142],[34.27013492263359,31.36903166023558],[34.26986074235613,31.36903166023558],[34.26986074235613,31.368748598220893],[34.26958656207867,31.368748598220893],[34.26958656207867,31.368475296965332],[34.26930292730889,31.368475296965332],[34.26930292730889,31.368192234950644],[34.268745112261655,31.368192234950644],[34.268745112261655,31.367918933695087],[34.268470931984204,31.367918933695087],[34.268470931984204,31.367645632439526],[34.268196751706746,31.367645632439526],[34.268196751706746,31.367362570424838],[34.26791311693697,31.367362570424838],[34.26791311693697,31.36707950841015],[34.267638936659516,31.36707950841015],[34.267638936659516,31.36680620715459],[34.26736475638206,31.36680620715459],[34.26736475638206,31.3665231451399],[34.26708112161228,31.3665231451399],[34.26708112161228,31.36624984388434],[34.26680694133482,31.36624984388434],[34.26680694133482,31.36597654262878],[34.26653276105737,31.36597654262878],[34.26653276105737,31.36569348061409],[34.26597494601013,31.36569348061409],[34.26597494601013,31.365420179358534],[34.26569131124035,31.365420179358534],[34.26569131124035,31.365137117343846],[34.265417130962895,31.365137117343846],[34.265417130962895,31.364863816088285],[34.26514295068544,31.364863816088285],[34.26514295068544,31.364580754073597],[34.26485931591566,31.364580754073597],[34.26485931591566,31.364307452818036],[34.26458513563821,31.364307452818036],[34.26458513563821,31.364024390803348],[34.26430150086842,31.364024390803348],[34.26430150086842,31.363751089547787],[34.26402732059097,31.363751089547787],[34.26402732059097,31.3634680275331],[34.26374368582119,31.3634680275331],[34.26374368582119,31.363194726277538],[34.26319532526628,31.363194726277538],[34.26319532526628,31.36292142502198],[34.26292114498882,31.36292142502198],[34.26292114498882,31.362638363007292],[34.262637510219044,31.362638363007292],[34.262637510219044,31.36236506175173],[34.262363329941586,31.36236506175173],[34.262363329941586,31.362081999737043],[34.262089149664135,31.362081999737043],[34.262089149664135,31.361808698481482],[34.26180551489435,31.361808698481482],[34.26180551489435,31.361525636466794],[34.2615313346169,31.361525636466794],[34.2615313346169,31.361252335211233],[34.26124769984712,31.361252335211233],[34.26124769984712,31.360969273196545],[34.26097351956966,31.360969273196545],[34.26097351956966,31.360695971940984],[34.26041570452242,31.360695971940984],[34.26041570452242,31.3604129099263],[34.26014152424497,31.3604129099263],[34.26014152424497,31.36013960867074],[34.259857889475185,31.36013960867074],[34.259857889475185,31.35985654665605],[34.259583709197734,31.35985654665605],[34.259583709197734,31.35958324540049],[34.259300074427955,31.35958324540049],[34.259300074427955,31.35930994414493],[34.2590258941505,31.35930994414493],[34.2590258941505,31.35902688213024],[34.258751713873046,31.35902688213024],[34.258751713873046,31.35875358087468],[34.25819389882581,31.35875358087468],[34.25819389882581,31.358470518859992],[34.25791971854835,31.358470518859992],[34.25791971854835,31.35819721760443],[34.25763608377857,31.35819721760443],[34.25763608377857,31.357914155589743],[34.25736190350111,31.357914155589743],[34.25736190350111,31.357640854334186],[34.25708772322366,31.357640854334186],[34.25708772322366,31.357367553078625],[34.25680408845388,31.357367553078625],[34.25680408845388,31.357084491063937],[34.256246273406646,31.357084491063937],[34.256246273406646,31.35680142904925],[34.25597209312919,31.35680142904925],[34.25597209312919,31.356528127793688],[34.25569791285174,31.356528127793688],[34.25569791285174,31.356254826538127],[34.25541427808195,31.356254826538127],[34.25541427808195,31.35597176452344],[34.2551400978045,31.35597176452344],[34.2551400978045,31.355698463267878],[34.25458228275726,31.355698463267878],[34.25458228275726,31.35541540125319],[34.25430810247981,31.35541540125319],[34.25430810247981,31.355142099997632],[34.254024467710025,31.355142099997632],[34.254024467710025,31.354859037982944],[34.253750287432574,31.354859037982944],[34.253750287432574,31.354585736727383],[34.253466652662794,31.354585736727383],[34.253466652662794,31.354302674712695],[34.25319247238534,31.354302674712695],[34.25319247238534,31.354029373457134],[34.25264411183043,31.354029373457134],[34.25264411183043,31.353746311442446],[34.25236047706065,31.353746311442446],[34.25236047706065,31.353473010186885],[34.25208629678319,31.353473010186885],[34.25208629678319,31.353199708931324],[34.25180266201341,31.353199708931324],[34.25180266201341,31.352916646916636],[34.25152848173595,31.352916646916636],[34.25152848173595,31.35263358490195],[34.2512543014585,31.35263358490195],[34.2512543014585,31.35236028364639],[34.250696486411265,31.35236028364639],[34.250696486411265,31.35208698239083],[34.250412851641485,31.35208698239083],[34.250412851641485,31.351803920376142],[34.25013867136403,31.351803920376142],[34.25013867136403,31.35153061912058],[34.249864491086576,31.35153061912058],[34.249864491086576,31.351247557105893],[34.24958085631679,31.351247557105893],[34.24958085631679,31.350974255850332],[34.24902304126956,31.350974255850332],[34.24902304126956,31.350691193835644],[34.2487488609921,31.350691193835644],[34.2487488609921,31.350417892580083],[34.248474680714644,31.350417892580083],[34.248474680714644,31.3501348305654],[34.248191045944864,31.3501348305654],[34.248191045944864,31.349861529309837],[34.24791686566741,31.349861529309837],[34.24791686566741,31.34957846729515],[34.247642685389955,31.34957846729515],[34.247642685389955,31.34930516603959],[34.24708487034272,31.34930516603959],[34.24708487034272,31.349031864784028],[34.24681069006527,31.349031864784028],[34.24681069006527,31.34874880276934],[34.24652705529548,31.34874880276934],[34.24652705529548,31.34847550151378],[34.24625287501803,31.34847550151378],[34.24625287501803,31.34819243949909],[34.24596924024825,31.34819243949909],[34.24596924024825,31.34791913824353],[34.24542087969334,31.34791913824353],[34.24542087969334,31.347636076228845],[34.245137244923555,31.347636076228845],[34.245137244923555,31.347362774973284],[34.244863064646104,31.347362774973284],[34.244863064646104,31.347089473717723],[34.244579429876325,31.347089473717723],[34.244579429876325,31.346806411703035],[34.24430524959887,31.346806411703035],[34.24430524959887,31.346523349688347],[34.24402161482909,31.346523349688347],[34.24402161482909,31.346250048432786],[34.24347325427418,31.346250048432786],[34.24347325427418,31.345976747177225],[34.24319907399672,31.345976747177225],[34.24319907399672,31.345693685162537],[34.24291543922694,31.345693685162537],[34.24291543922694,31.345420383906976],[34.24264125894948,31.345420383906976],[34.24264125894948,31.345137321892288],[34.24236707867203,31.345137321892288],[34.24236707867203,31.34486402063673],[34.241809263624795,31.34486402063673],[34.241809263624795,31.344580958622043],[34.241525628855015,31.344580958622043],[34.241525628855015,31.344307657366482],[34.24125144857756,31.344307657366482],[34.24125144857756,31.344024595351794],[34.24096781380778,31.344024595351794],[34.24096781380778,31.343751294096233],[34.24069363353032,31.343751294096233],[34.24069363353032,31.343477992840672],[34.24013581848309,31.343477992840672],[34.24013581848309,31.343194930825984],[34.23986163820563,31.343194930825984],[34.23986163820563,31.342911868811296],[34.23957800343585,31.342911868811296],[34.23957800343585,31.342638567555735],[34.239303823158394,31.342638567555735],[34.239303823158394,31.34235550554105],[34.23874600811116,31.34235550554105],[34.23874600811116,31.34208220428549],[34.238471827833706,31.34208220428549],[34.238471827833706,31.34180890302993],[34.23819764755625,31.34180890302993],[34.23819764755625,31.34152584101524],[34.23791401278647,31.34152584101524],[34.23791401278647,31.34125253975968],[34.23763983250901,31.34125253975968],[34.23763983250901,31.34096947774499],[34.23708201746178,31.34096947774499],[34.23708201746178,31.34069617648943],[34.23680783718432,31.34069617648943],[34.23680783718432,31.340413114474742],[34.23652420241454,31.340413114474742],[34.23652420241454,31.34013981321918],[34.236250022137085,31.34013981321918],[34.236250022137085,31.339856751204497],[34.235975841859634,31.339856751204497],[34.235975841859634,31.339583449948936],[34.2354180268124,31.339583449948936],[34.2354180268124,31.339310148693375],[34.23513439204262,31.339310148693375],[34.23513439204262,31.339027086678687],[34.23486021176516,31.339027086678687],[34.23486021176516,31.338753785423126],[34.23458603148771,31.338753785423126],[34.23458603148771,31.338470723408438],[34.23402821644047,31.338470723408438],[34.23402821644047,31.338197422152877],[34.23375403616301,31.338197422152877],[34.23375403616301,31.33791436013819],[34.233470401393234,31.33791436013819],[34.233470401393234,31.337641058882628],[34.233196221115776,31.337641058882628],[34.233196221115776,31.337357996867944],[34.232922040838325,31.337357996867944],[34.232922040838325,31.337084695612383],[34.23236422579109,31.337084695612383],[34.23236422579109,31.336801633597695],[34.23208059102131,31.336801633597695],[34.23208059102131,31.336528332342134],[34.23180641074385,31.336528332342134],[34.23180641074385,31.336255031086573],[34.2315322304664,31.336255031086573],[34.2315322304664,31.335971969071885],[34.23124859569662,31.335971969071885],[34.23124859569662,31.335757232371087],[34.23069078064938,31.335698667816324],[34.23069078064938,31.335415605801636],[34.230416600371925,31.335415605801636],[34.230416600371925,31.335142304546075],[34.230142420094474,31.335142304546075],[34.230142420094474,31.334859242531387],[34.22985878532469,31.334859242531387],[34.22985878532469,31.33458594127583],[34.22930097027746,31.33458594127583],[34.22930097027746,31.33430287926114],[34.22902679,31.33430287926114],[34.22972642243212,31.33243857426785]]]}}],"properties":{"source":"The owner's IDF control map (data/idf-control.kml, 100 areas merged, gaps under 120 m closed)","fetched":"2026-10-07T13:47:04.198Z","cleaned":"3 slivers and walled-in pockets of the rest (0.80 km² in all) given to the held part"}}