{"type":"FeatureCollection","features":[{"type":"Feature","properties":null,"geometry":{"type":"Polygon","coordinates":[[[34.22972642243212,31.33243857426785],[34.23046387283355,31.330466900924165],[34.262344420956936,31.239750405596325],[34.26800766186023,31.22360611],[34.28553629063269,31.234899308310126],[34.30086202269319,31.244767435787686],[34.31301104533214,31.25259556460767],[34.32059354817762,31.258217761864913],[34.33888799082849,31.271794977810796],[34.357522795203096,31.28561621273486],[34.3579577018501,31.286309226632884],[34.3685656422399,31.303000124740333],[34.36832927993175,31.329939819931298],[34.36651401740515,31.350866887499933],[34.36582383946536,31.358773102392934],[34.36953000045716,31.369402569082414],[34.37064563055163,31.372604098076124],[34.37456924486693,31.383838731831485],[34.40790578480852,31.420607511463505],[34.415885376331694,31.427196023874338],[34.452474261633434,31.457434855650288],[34.50823685737237,31.503935112132083],[34.50842594721889,31.503974155168592],[34.53738505721353,31.5098696536814],[34.54627228,31.523378544313392],[34.5461304626151,31.542617000553026],[34.53252544815795,31.55984474041247],[34.489999141675455,31.593646249269828],[34.486207890252714,31.588248549472507],[34.486160617791086,31.588189984917744],[34.47023925271405,31.568629423626913],[34.47023925271405,31.568619662867786],[34.4702581616987,31.56860014134953],[34.47894684014632,31.564158995946674],[34.479041385069586,31.56410043139191],[34.48130100873551,31.56238253778553],[34.48140500815109,31.56228493019426],[34.48228427593741,31.561201485931143],[34.482388275353,31.560986749230345],[34.48267191012278,31.559551917638654],[34.482681364615104,31.5595323961204],[34.48269081910743,31.559512874602145],[34.483371542554906,31.558829621463243],[34.483380997047234,31.558819860704116],[34.483390451539556,31.558819860704116],[34.48340936052421,31.55881009994499],[34.48501662421964,31.558546559448555],[34.48506389668127,31.558546559448555],[34.485905346498285,31.558546559448555],[34.486170072283414,31.55848799489379],[34.48882678462703,31.557443593667184],[34.48906314693518,31.557287421521153],[34.49006532312174,31.556174694980655],[34.49006532312174,31.556164934221528],[34.49009368659871,31.556145412703273],[34.493071851681414,31.554290868469113],[34.49320421457398,31.554173739359587],[34.49498165913128,31.552123979942884],[34.495010022608255,31.552094697665503],[34.49660783181135,31.550903885051987],[34.49674019470392,31.550767234424207],[34.497553281043956,31.54952761801506],[34.49756273553628,31.549517857255932],[34.497572190028606,31.549508096496805],[34.497591099013256,31.549498335737677],[34.50011544846431,31.548610106657105],[34.50028562932618,31.54852225982496],[34.50096635277365,31.548024461109474],[34.50097580726598,31.548014700350347],[34.5009852617583,31.548014700350347],[34.50100417074296,31.54800493959122],[34.504445605949634,31.547331447211445],[34.50473869521174,31.546404175094366],[34.50331106687051,31.545271927035614],[34.50330161237818,31.54525240551736],[34.50329215788586,31.545232883999105],[34.5030179776084,31.54342714356058],[34.5030179776084,31.543417382801454],[34.50303688659305,31.5433978612832],[34.50334888483981,31.543183124582402],[34.503443429763074,31.543095277750258],[34.50751831595559,31.538644371588273],[34.50741431654001,31.53789279313548],[34.50693213743138,31.53755116656603],[34.50662013918462,31.53744379821563],[34.50558014502876,31.537316908346977],[34.50553287256712,31.537297386828723],[34.503717610040525,31.536741023558477],[34.503689246563546,31.53673126279935],[34.50176998462136,31.535921119791794],[34.50175107563671,31.535911359032667],[34.50172271215973,31.53590159827354],[34.50035181077246,31.53473030717828],[34.50033290178781,31.534720546419152],[34.50033290178781,31.534710785660025],[34.50035181077246,31.53469126414177],[34.50076780843481,31.534144661630652],[34.500654354526894,31.533441886973495],[34.4967685581809,31.5305331807536],[34.495766381994336,31.529781602300808],[34.49575692750201,31.52977184154168],[34.49574747300968,31.529752320023427],[34.49536929331664,31.529000741570638],[34.49532202085501,31.52892265549762],[34.49320421457398,31.526082274591616],[34.49319476008166,31.52606275307336],[34.49319476008166,31.526043231555107],[34.49332712297422,31.52493050501461],[34.49329875949724,31.524706007554684],[34.492495127649526,31.522568401305836],[34.49238167374161,31.522392707641547],[34.48872278521144,31.51849816474981],[34.48859042231888,31.518390796399412],[34.48395772107912,31.515638262325552],[34.48393881209447,31.515618740807298],[34.47840793408374,31.511694915638177],[34.47838902509909,31.511675394119923],[34.478370116114434,31.51165587260167],[34.47774611962092,31.51072860048459],[34.47770830165162,31.51068955744808],[34.473727960382355,31.506004393067045],[34.47371850589003,31.505994632307917],[34.473709051397705,31.505965350030536],[34.47334978068931,31.505077120949963],[34.47328359924303,31.504969752599564],[34.4723286955181,31.503642289358268],[34.47230978653345,31.50361300708089],[34.47206396973297,31.503310423547948],[34.47204506074832,31.503290902029693],[34.47203560625599,31.50327138051144],[34.47189378887111,31.502802864073335],[34.47189378887111,31.502793103314207],[34.47189378887111,31.502763821036826],[34.47193160684041,31.50260764889079],[34.47186542539413,31.502256261562213],[34.471695244532256,31.501973199547525],[34.47154397265504,31.501807266642363],[34.46861308003397,31.499669660393515],[34.468480717141404,31.499591574320498],[34.4667694540304,31.498879038904214],[34.46672218156876,31.49885951738596],[34.46601309464431,31.49842028322524],[34.4658996407364,31.498361718670477],[34.46521891728892,31.49810793893317],[34.46518109931962,31.498088417414916],[34.46403710574817,31.497366121239505],[34.46403710574817,31.497356360480378],[34.4640087422712,31.497336838962124],[34.463290200854416,31.49651693519544],[34.463271291869766,31.496497413677186],[34.45965967580122,31.49277856444974],[34.45962185783191,31.49274928217236],[34.45614260465594,31.48968440380643],[34.45612369567128,31.489664882288174],[34.45279571437252,31.485916750783343],[34.45277680538787,31.48588746850596],[34.450658999106835,31.483779144534495],[34.45063063562986,31.483749862257113],[34.449335370181196,31.481485366139612],[34.44920300728863,31.481329193993577],[34.44852228384115,31.48077283072333],[34.4485033748565,31.480753309205074],[34.44849392036418,31.48073378768682],[34.44816301313276,31.48011885986181],[34.447898287347634,31.47987484088363],[34.446366659590815,31.47915254470822],[34.446319387129186,31.47912326243084],[34.444560851556545,31.477903167539946],[34.44455139706422,31.477903167539946],[34.44455139706422,31.47789340678082],[34.444541942571895,31.477873885262564],[34.444296125771416,31.4770246992185],[34.444107035924894,31.476761158722066],[34.44343576696975,31.47622431697007],[34.44342631247742,31.476214556210945],[34.44340740349277,31.47619503469269],[34.4427644980146,31.47499446132005],[34.44266049859901,31.474867571451398],[34.436505624094764,31.468893986865574],[34.43649616960244,31.468884226106447],[34.43647726061779,31.468864704588192],[34.435683083262404,31.467166332500067],[34.43507799575354,31.466824705930616],[34.42930130094233,31.46695159579927],[34.429291846450006,31.46695159579927],[34.42928239195768,31.46695159579927],[34.42926348297303,31.466941835040142],[34.426568952660105,31.46460901360875],[34.426531134690805,31.46457973133137],[34.41960099181582,31.459494375826118],[34.4195915373235,31.45948461506699],[34.41825845390552,31.458469496117765],[34.41823954492087,31.45844997459951],[34.414921018114434,31.45545342154747],[34.41491156362211,31.455443660788344],[34.41274648487945,31.453579355795057],[34.412633030971534,31.45350126972204],[34.411583582323345,31.452954667210918],[34.41153630986172,31.452925384933536],[34.40441707714022,31.44750816361796],[34.40440762264789,31.447498402858834],[34.40441707714022,31.44747888134058],[34.40939014010371,31.442647305572635],[34.40940904908836,31.44262778405438],[34.41240612315571,31.4394360158198],[34.41252903155595,31.43923103987813],[34.412812666325735,31.438206160169777],[34.412831575310385,31.43816711713327],[34.414136295251375,31.435902621015767],[34.41394720540485,31.43523888939512],[34.413096301095514,31.43468252612487],[34.41305848312621,31.434663004606616],[34.40890796099508,31.43234970469348],[34.40888905201043,31.432339943934352],[34.40711160745313,31.43117841359822],[34.40708324397615,31.43114913132084],[34.405995977358664,31.42997784022558],[34.40592034142006,31.42990951491169],[34.40407671541648,31.428523487115633],[34.4040483519395,31.42850396559738],[34.402677450552225,31.427586454239425],[34.40263963258292,31.427557171962043],[34.39850801943645,31.423838322734596],[34.39847020146714,31.423809040457215],[34.39668330241752,31.421495740544078],[34.39667384792519,31.42148597978495],[34.396106578385634,31.420773444368667],[34.39537858247653,31.420568468426996],[34.39476404047534,31.420753922850412],[34.39474513149069,31.420753922850412],[34.39471676801371,31.420744162091285],[34.39197496523916,31.41941669884999],[34.39196551074683,31.419406938090862],[34.39195605625451,31.419387416572608],[34.391284787299355,31.418235646995605],[34.391284787299355,31.418225886236478],[34.391294241791684,31.418206364718223],[34.39160624003844,31.417689044484483],[34.39155896757681,31.417122920455107],[34.39082151717538,31.41625421289279],[34.390812062683054,31.416234691374537],[34.38906298160274,31.413735937037984],[34.388987345664134,31.41364809020584],[34.38788117006199,31.41261344973836],[34.38786226107733,31.412584167460977],[34.386689904028906,31.411178618146668],[34.38663317707495,31.411129814351032],[34.38167902309611,31.406630104393408],[34.381622296142154,31.40658130059777],[34.379608489276706,31.40514646900608],[34.379599034784384,31.405136708246953],[34.37958012579973,31.4051171867287],[34.379050674229475,31.40431680448027],[34.37900340176784,31.40424847916638],[34.3781903154278,31.40336025008581],[34.378095770504544,31.403272403253666],[34.37362379563433,31.40009039577821],[34.37358597766502,31.400070874259956],[34.370456540705106,31.397142646521807],[34.37042817722813,31.397123125003553],[34.36899109439457,31.395922551630914],[34.368962730917595,31.395912790871787],[34.367639101991955,31.39458532763049],[34.3673649217145,31.39441939472533],[34.363110400167784,31.393228582111817],[34.36277949293637,31.393209060593563],[34.35895042354433,31.393882552973334],[34.358940969052,31.393882552973334],[34.35893151455968,31.393882552973334],[34.35891260557502,31.393872792214207],[34.35558462427626,31.390993368271698],[34.35484717387483,31.390895760680426],[34.35457299359737,31.39102265054908],[34.35455408461272,31.39102265054908],[34.35453517562807,31.391012889789952],[34.352738822086124,31.389031455687135],[34.3527293675938,31.389021694928008],[34.350148291188795,31.386278921613275],[34.349930837865294,31.386132510226368],[34.34718903509074,31.385010022926746],[34.34717012610609,31.38500026216762],[34.34715121712144,31.384980740649365],[34.34479704853226,31.381974426838198],[34.34477813954761,31.381954905319944],[34.342849423113094,31.37970016996157],[34.342811605143794,31.379651366165934],[34.33937962442944,31.376401033376588],[34.33937016993712,31.37639127261746],[34.337224000179106,31.374117015740833],[34.33719563670213,31.37408773346345],[34.33611782457696,31.372291753784054],[34.33611782457696,31.372281993024927],[34.33610837008464,31.372252710747546],[34.335720735899265,31.368641229870494],[34.33487928608225,31.368182474191517],[34.333650202079866,31.368563143797477],[34.33364074758754,31.368563143797477],[34.333612384110566,31.368563143797477],[34.331645849706746,31.36814343115501],[34.331626940722096,31.36813367039588],[34.33161748622977,31.368114148877627],[34.329357862563846,31.362316257956095],[34.32697533049769,31.35597176452344],[34.32664442326628,31.355649659472242],[34.322985534736105,31.354175784844042],[34.32291935328982,31.354156263325788],[34.31983718879153,31.353268034245215],[34.31982773429921,31.353258273486087],[34.31981827980688,31.353258273486087],[34.31979937082223,31.353238751967833],[34.317123749493966,31.350886409018187],[34.31705756804768,31.350827844463424],[34.315336850444346,31.349724878682057],[34.31530848696737,31.349695596404676],[34.31372958674892,31.347938659761784],[34.31368231428729,31.347889855966148],[34.31347431545611,31.34771416230186],[34.31345540647146,31.347684880024477],[34.31215068653047,31.34568392440341],[34.31199941465326,31.345517991498248],[34.310524513850396,31.344502872549025],[34.31051505935807,31.344493111789898],[34.31051505935807,31.344473590271644],[34.31036378748085,31.343331581453764],[34.31036378748085,31.343321820694637],[34.3103826964655,31.343302299176383],[34.311583416990906,31.342365266300177],[34.31152669003695,31.34152584101524],[34.307763802091195,31.339183258824722],[34.307754347598866,31.339173498065595],[34.30774489310654,31.33915397654734],[34.307546348767694,31.337514169013975],[34.307546348767694,31.337504408254848],[34.30744234935211,31.336030533626648],[34.30707362415139,31.33557177794767],[34.30540963350201,31.334908046327023],[34.30466272860826,31.33505445771393],[34.302422013926986,31.337357996867944],[34.30240310494233,31.33736775762707],[34.30238419595768,31.337357996867944],[34.29577550582179,31.3338929273778],[34.29576605132946,31.333883166618673],[34.29574714234481,31.33386364510042],[34.29391297083355,31.331511302150773],[34.2938940618489,31.33148201987339],[34.290027174487555,31.327099439025297],[34.28915736119356,31.326992070674898],[34.28893990787006,31.32711896054355],[34.28890208990076,31.327138482061805],[34.28478938573893,31.328602595930878],[34.284742113277304,31.328612356690005],[34.27998650363731,31.32949082501145],[34.27995814016033,31.32949082501145],[34.27992977668335,31.32949082501145],[34.27720688289346,31.329198002237636],[34.27719742840113,31.329198002237636],[34.27717851941648,31.32917848071938],[34.27603452584503,31.32831953391619],[34.27571307310594,31.328192644047537],[34.27468253344241,31.328055993419756],[34.27462580648845,31.32804623266063],[34.273755993194456,31.327792452923322],[34.273302177562805,31.327811974441577],[34.27056037478825,31.328817332631676],[34.2705414658036,31.328817332631676],[34.270513102326625,31.328817332631676],[34.26219314907972,31.32880757187255],[34.25816553534883,31.32883685414993],[34.25792917304068,31.32887589718644],[34.25663390759201,31.329315131347162],[34.256577180638054,31.329334652865416],[34.25232265909134,31.331267283172593],[34.25231320459901,31.331267283172593],[34.25230375010669,31.33127704393172],[34.25227538662971,31.33127704393172],[34.244900882615404,31.331423455318628],[34.244361976552824,31.33169675657419],[34.24398379685978,31.332292162880947],[34.24397434236746,31.332301923640074],[34.24396488787513,31.332301923640074],[34.24394597889048,31.332301923640074],[34.24268853141111,31.332184794530548],[34.242348169687375,31.332233598326184],[34.23996563762122,31.33319991347977],[34.23970091183609,31.333395128662314],[34.237999103217405,31.335649864020688],[34.237999103217405,31.335659624779815],[34.237970739740426,31.335669385538942],[34.23483184828818,31.336772351320313],[34.23482239379586,31.336772351320313],[34.23479403031888,31.336762590561186],[34.231399867573835,31.3338929273778],[34.22972642243212,31.33243857426785]]]}}],"properties":{"source":"The owner's IDF control map (data/idf-control.kml, 100 areas merged, gaps under 120 m closed)","fetched":"2026-10-07T13:47:04.198Z","cleaned":"3 slivers and walled-in pockets of the rest (0.80 km² in all) given to the held part"}}