{"type":"FeatureCollection","features":[{"type":"Feature","properties":{"name":"Gold Coast","source":"ABS ASGS Edition 3, Local Government Area 2022 (LGA 33430), via github.com/wfmackey/absmapsdata; CC BY 4.0"},"geometry":{"type":"MultiPolygon","coordinates":[[[[153.440358,-27.740453],[153.443036,-27.737854],[153.445749,-27.734336],[153.447572,-27.735668],[153.448829,-27.737858],[153.445911,-27.742111],[153.443428,-27.742473],[153.440358,-27.740453]]],[[[153.305466,-27.714049],[153.302117,-27.713091],[153.302285,-27.711949],[153.307872,-27.712834],[153.305466,-27.714049]]],[[[153.413259,-27.812996],[153.413781,-27.810499],[153.4159,-27.809812],[153.416777,-27.807379],[153.41858,-27.808913],[153.418728,-27.810857],[153.413259,-27.812996]]],[[[153.416951,-27.879785],[153.417796,-27.877681],[153.415798,-27.872887],[153.415746,-27.870047],[153.417917,-27.870038],[153.419861,-27.874424],[153.42036,-27.876919],[153.421599,-27.879291],[153.418706,-27.880405],[153.416951,-27.879785]]],[[[153.416309,-27.791779],[153.416127,-27.788408],[153.422048,-27.784466],[153.42324,-27.782983],[153.424957,-27.784049],[153.424318,-27.78693],[153.417549,-27.793012],[153.416309,-27.791779]]],[[[153.414198,-27.809892],[153.413579,-27.805733],[153.413723,-27.803763],[153.417477,-27.800107],[153.421225,-27.794221],[153.422064,-27.794141],[153.421907,-27.798594],[153.418006,-27.802989],[153.418435,-27.804008],[153.415512,-27.80675],[153.415141,-27.809502],[153.414198,-27.809892]]],[[[153.437981,-27.769431],[153.437774,-27.770733],[153.43497,-27.771495],[153.433944,-27.770416],[153.436153,-27.768776],[153.437981,-27.769431]]],[[[153.404917,-27.867319],[153.408935,-27.867591],[153.410566,-27.869537],[153.410437,-27.872347],[153.409597,-27.874899],[153.406053,-27.88107],[153.405022,-27.88198],[153.401153,-27.881943],[153.40007,-27.880538],[153.403034,-27.874671],[153.40346,-27.872326],[153.402469,-27.870823],[153.400401,-27.869782],[153.400126,-27.868637],[153.402253,-27.867687],[153.404917,-27.867319]]],[[[153.395548,-27.832996],[153.396266,-27.834513],[153.396133,-27.839694],[153.394862,-27.839889],[153.393416,-27.838949],[153.392287,-27.838829],[153.390285,-27.839809],[153.385728,-27.84053],[153.384451,-27.838349],[153.382543,-27.83811],[153.381904,-27.8363],[153.382231,-27.832959],[153.38379,-27.831785],[153.386564,-27.834072],[153.390165,-27.8361],[153.392365,-27.835668],[153.393737,-27.832577],[153.395548,-27.832996]]],[[[153.417897,-27.935323],[153.418683,-27.940022],[153.416308,-27.940152],[153.414085,-27.933651],[153.413915,-27.931328],[153.419012,-27.931546],[153.417897,-27.935323]]],[[[153.413206,-27.90479],[153.412303,-27.907381],[153.410393,-27.904511],[153.410447,-27.902509],[153.409669,-27.899626],[153.410666,-27.899284],[153.412976,-27.902626],[153.413206,-27.90479]]],[[[153.401042,-27.88788],[153.400308,-27.883602],[153.403236,-27.884323],[153.403726,-27.886785],[153.402164,-27.888879],[153.401042,-27.88788]]],[[[153.419276,-27.882683],[153.42017,-27.881149],[153.421998,-27.881709],[153.422876,-27.880222],[153.423781,-27.875608],[153.423499,-27.873603],[153.420947,-27.870649],[153.419735,-27.866753],[153.414891,-27.861292],[153.411043,-27.857554],[153.40942,-27.857244],[153.408986,-27.852082],[153.411002,-27.851727],[153.410796,-27.849824],[153.408163,-27.847301],[153.407042,-27.84244],[153.406443,-27.835019],[153.408486,-27.832198],[153.40784,-27.826465],[153.409212,-27.822702],[153.410582,-27.821266],[153.412299,-27.820859],[153.416592,-27.818182],[153.422197,-27.81325],[153.425023,-27.809365],[153.427149,-27.80474],[153.428014,-27.800709],[153.430765,-27.796295],[153.432507,-27.790367],[153.43319,-27.783615],[153.437977,-27.777756],[153.438298,-27.774981],[153.439487,-27.77221],[153.438116,-27.767664],[153.43606,-27.765483],[153.436196,-27.764066],[153.438296,-27.759128],[153.437884,-27.753704],[153.43842,-27.751107],[153.441523,-27.751637],[153.444183,-27.753877],[153.445255,-27.756306],[153.445201,-27.758936],[153.44437,-27.763723],[153.442448,-27.770937],[153.441569,-27.777718],[153.439884,-27.785225],[153.437937,-27.796869],[153.437159,-27.800466],[153.434227,-27.817733],[153.433291,-27.825021],[153.432754,-27.826922],[153.431372,-27.836445],[153.430619,-27.843124],[153.428917,-27.854183],[153.427195,-27.868374],[153.425798,-27.885046],[153.425686,-27.890773],[153.424973,-27.899129],[153.424965,-27.907993],[153.426633,-27.917838],[153.428781,-27.925207],[153.429775,-27.932567],[153.428023,-27.934008],[153.424577,-27.933661],[153.422519,-27.932022],[153.420114,-27.925981],[153.419208,-27.922239],[153.417751,-27.919846],[153.419664,-27.915657],[153.419832,-27.912323],[153.421515,-27.904318],[153.42197,-27.898529],[153.421424,-27.894776],[153.419053,-27.889041],[153.419259,-27.887232],[153.418512,-27.884106],[153.419276,-27.882683]]],[[[153.38613,-27.785952],[153.389329,-27.785161],[153.396416,-27.784252],[153.402549,-27.78314],[153.406452,-27.782956],[153.408495,-27.783765],[153.408286,-27.785192],[153.405828,-27.785526],[153.411397,-27.788774],[153.411633,-27.790926],[153.409516,-27.799024],[153.407451,-27.804633],[153.405242,-27.808637],[153.402894,-27.811643],[153.398851,-27.815416],[153.394552,-27.818764],[153.39172,-27.818153],[153.389217,-27.818418],[153.386118,-27.820036],[153.384015,-27.820388],[153.376959,-27.817928],[153.373677,-27.814009],[153.373193,-27.81155],[153.373652,-27.809327],[153.375398,-27.807319],[153.377294,-27.807329],[153.378104,-27.804619],[153.38043,-27.804741],[153.381314,-27.802241],[153.384493,-27.800133],[153.386826,-27.800352],[153.38774,-27.797405],[153.391207,-27.795548],[153.39251,-27.792926],[153.39106,-27.790529],[153.387926,-27.789667],[153.383758,-27.786564],[153.38613,-27.785952]]],[[[153.388349,-27.821236],[153.389554,-27.819872],[153.392747,-27.819807],[153.395676,-27.820967],[153.397651,-27.823086],[153.397007,-27.828636],[153.39505,-27.829617],[153.393894,-27.828249],[153.392695,-27.828185],[153.390942,-27.829799],[153.388645,-27.82966],[153.386531,-27.828173],[153.385889,-27.824579],[153.38361,-27.823943],[153.384937,-27.822411],[153.388349,-27.821236]]],[[[153.399352,-27.819291],[153.399495,-27.817441],[153.403825,-27.813375],[153.407068,-27.809614],[153.407984,-27.810084],[153.407389,-27.813026],[153.404533,-27.816774],[153.402013,-27.821324],[153.400398,-27.821669],[153.399352,-27.819291]]],[[[153.373426,-27.802054],[153.371514,-27.800724],[153.373252,-27.800121],[153.374478,-27.802169],[153.375638,-27.802669],[153.376358,-27.802281],[153.37656,-27.800177],[153.377563,-27.799377],[153.380311,-27.80154],[153.380402,-27.802827],[153.378159,-27.803168],[153.376857,-27.805423],[153.373854,-27.807043],[153.372547,-27.806749],[153.371927,-27.804029],[153.3704,-27.801538],[153.373426,-27.802054]]],[[[153.383469,-27.830716],[153.385837,-27.829953],[153.39094,-27.830719],[153.392145,-27.831642],[153.391631,-27.833157],[153.389753,-27.833805],[153.388196,-27.833264],[153.385708,-27.830985],[153.383469,-27.830716]]],[[[153.35623,-27.798817],[153.356422,-27.797868],[153.362818,-27.798264],[153.361297,-27.800085],[153.357112,-27.800052],[153.35623,-27.798817]]],[[[153.38425,-27.79959],[153.384269,-27.797309],[153.38669,-27.796992],[153.386391,-27.800067],[153.38425,-27.79959]]],[[[153.401738,-27.827621],[153.4011,-27.825755],[153.402022,-27.824858],[153.403922,-27.826146],[153.403152,-27.827823],[153.401738,-27.827621]]],[[[153.393276,-27.828522],[153.394376,-27.829782],[153.393153,-27.831038],[153.391573,-27.830204],[153.393276,-27.828522]]],[[[153.552177,-28.164396],[153.54145,-28.168985],[153.539515,-28.172054],[153.534655,-28.17763],[153.531168,-28.175227],[153.48586,-28.157023],[153.481514,-28.158231],[153.480594,-28.157377],[153.476952,-28.156879],[153.474974,-28.158012],[153.474613,-28.159558],[153.47249,-28.16174],[153.468456,-28.162419],[153.466706,-28.164436],[153.464904,-28.167556],[153.458528,-28.175001],[153.459153,-28.178145],[153.457055,-28.180505],[153.455251,-28.181203],[153.452629,-28.181027],[153.45017,-28.181843],[153.447923,-28.183463],[153.444513,-28.183968],[153.438893,-28.186252],[153.435762,-28.18716],[153.431299,-28.190904],[153.428631,-28.194334],[153.426795,-28.194928],[153.424335,-28.197835],[153.421362,-28.199554],[153.417821,-28.200545],[153.418244,-28.202461],[153.414917,-28.207406],[153.412123,-28.209132],[153.405719,-28.21101],[153.400128,-28.217058],[153.397557,-28.218937],[153.390912,-28.227874],[153.389449,-28.230962],[153.390519,-28.23272],[153.389729,-28.234819],[153.387531,-28.236368],[153.38251,-28.237436],[153.378929,-28.240298],[153.37219,-28.24273],[153.369575,-28.245065],[153.364729,-28.247342],[153.357289,-28.249261],[153.354022,-28.248358],[153.351037,-28.249078],[153.347496,-28.249018],[153.345856,-28.248441],[153.34236,-28.250122],[153.33911,-28.250533],[153.334712,-28.24833],[153.333955,-28.246787],[153.331895,-28.246114],[153.330905,-28.240534],[153.331037,-28.238862],[153.329771,-28.236861],[153.325723,-28.235923],[153.324054,-28.236138],[153.321868,-28.237789],[153.316855,-28.238519],[153.314568,-28.23717],[153.312041,-28.237309],[153.307901,-28.238247],[153.304766,-28.239683],[153.300372,-28.238014],[153.298021,-28.235135],[153.296194,-28.233795],[153.291515,-28.233746],[153.28818,-28.235289],[153.28661,-28.235416],[153.281993,-28.23378],[153.279604,-28.23348],[153.277207,-28.234192],[153.276696,-28.235577],[153.274242,-28.237997],[153.26906,-28.238598],[153.265344,-28.24124],[153.264011,-28.243465],[153.261142,-28.243576],[153.254785,-28.245312],[153.249737,-28.247481],[153.246527,-28.246669],[153.243931,-28.247287],[153.242726,-28.248827],[153.239071,-28.251839],[153.235621,-28.256625],[153.235495,-28.259251],[153.234513,-28.262846],[153.232844,-28.265063],[153.225547,-28.264124],[153.221977,-28.263395],[153.218845,-28.263374],[153.212501,-28.257758],[153.211391,-28.257469],[153.207398,-28.252973],[153.208577,-28.249429],[153.208135,-28.247904],[153.205319,-28.244179],[153.200585,-28.240008],[153.198948,-28.236374],[153.198179,-28.232166],[153.197575,-28.225745],[153.195835,-28.221984],[153.194833,-28.218453],[153.194751,-28.214703],[153.193972,-28.212926],[153.191494,-28.209614],[153.189014,-28.204007],[153.188817,-28.199702],[153.192616,-28.201153],[153.194266,-28.200675],[153.192692,-28.196529],[153.192562,-28.192997],[153.193471,-28.191616],[153.184054,-28.192957],[153.183927,-28.192502],[153.186487,-28.187026],[153.187571,-28.180082],[153.18902,-28.178867],[153.192395,-28.178594],[153.193685,-28.175957],[153.192804,-28.173794],[153.195232,-28.170357],[153.195743,-28.166951],[153.198417,-28.164212],[153.198634,-28.162696],[153.195446,-28.160298],[153.194786,-28.157495],[153.1957,-28.151202],[153.196606,-28.150518],[153.197325,-28.147166],[153.200396,-28.129983],[153.199505,-28.129849],[153.201228,-28.121262],[153.200271,-28.120596],[153.202469,-28.117112],[153.20579,-28.117842],[153.206044,-28.11629],[153.214076,-28.117419],[153.215677,-28.108442],[153.21779,-28.10898],[153.221312,-28.111219],[153.222787,-28.102939],[153.223716,-28.103075],[153.229894,-28.099968],[153.227531,-28.09725],[153.229613,-28.089568],[153.231556,-28.089859],[153.23244,-28.085314],[153.22943,-28.084851],[153.229487,-28.08279],[153.21336,-28.080333],[153.216194,-28.065669],[153.219959,-28.066236],[153.219875,-28.062936],[153.218976,-28.061292],[153.216099,-28.059866],[153.225128,-28.061197],[153.226327,-28.054753],[153.228755,-28.055108],[153.230762,-28.04434],[153.229223,-28.040057],[153.230096,-28.039635],[153.232578,-28.025657],[153.236285,-28.025951],[153.238882,-28.011155],[153.21864,-28.008326],[153.2181,-28.006007],[153.219733,-28.003376],[153.220899,-27.999692],[153.220534,-27.99437],[153.210669,-27.992957],[153.211273,-27.989882],[153.207934,-27.985768],[153.201615,-27.982637],[153.200774,-27.980541],[153.20353,-27.978358],[153.216768,-27.980257],[153.225122,-27.981638],[153.225934,-27.977173],[153.220156,-27.976241],[153.221774,-27.968115],[153.222725,-27.967774],[153.222975,-27.965213],[153.224045,-27.962847],[153.222748,-27.962291],[153.223201,-27.957907],[153.225201,-27.956106],[153.222445,-27.951364],[153.221065,-27.950106],[153.219127,-27.951235],[153.206599,-27.949233],[153.208236,-27.941132],[153.21059,-27.941475],[153.213751,-27.925853],[153.21479,-27.926013],[153.215712,-27.921967],[153.213582,-27.918048],[153.212622,-27.917894],[153.215469,-27.902748],[153.211694,-27.902165],[153.212098,-27.900112],[153.194994,-27.897454],[153.195051,-27.897164],[153.180689,-27.895066],[153.183345,-27.891345],[153.184699,-27.887656],[153.184689,-27.884942],[153.186274,-27.881228],[153.18574,-27.878014],[153.186371,-27.87519],[153.185424,-27.873746],[153.188946,-27.855092],[153.181078,-27.853918],[153.182023,-27.84854],[153.180635,-27.848325],[153.181499,-27.843982],[153.180513,-27.84086],[153.177324,-27.839443],[153.175698,-27.839416],[153.175731,-27.836838],[153.172908,-27.834404],[153.174424,-27.832507],[153.175669,-27.829418],[153.180043,-27.824479],[153.183346,-27.820011],[153.181531,-27.817569],[153.18055,-27.815206],[153.177829,-27.814294],[153.176887,-27.812043],[153.178032,-27.811266],[153.176176,-27.808363],[153.16945,-27.803629],[153.169013,-27.80057],[153.170063,-27.799405],[153.17416,-27.797649],[153.177733,-27.796598],[153.182352,-27.794542],[153.184241,-27.78886],[153.186308,-27.786451],[153.19139,-27.78153],[153.193013,-27.77939],[153.191225,-27.777221],[153.187846,-27.777072],[153.18637,-27.775444],[153.187071,-27.774121],[153.190544,-27.774058],[153.193342,-27.772904],[153.193783,-27.771939],[153.193274,-27.768368],[153.193943,-27.766817],[153.195998,-27.766126],[153.197972,-27.7641],[153.19885,-27.759009],[153.197267,-27.753996],[153.197538,-27.746593],[153.199744,-27.744172],[153.201089,-27.740212],[153.20235,-27.739617],[153.207322,-27.73897],[153.209422,-27.739672],[153.216544,-27.737738],[153.218336,-27.736911],[153.219829,-27.734745],[153.218349,-27.730794],[153.21623,-27.727386],[153.219096,-27.727175],[153.22162,-27.725234],[153.225122,-27.723426],[153.227579,-27.723709],[153.227535,-27.726541],[153.228727,-27.727308],[153.232601,-27.723837],[153.230593,-27.721577],[153.226398,-27.720705],[153.221624,-27.718639],[153.215461,-27.718166],[153.212736,-27.715284],[153.213637,-27.714327],[153.221089,-27.714243],[153.22696,-27.715373],[153.228153,-27.714938],[153.229163,-27.712497],[153.233325,-27.711156],[153.233762,-27.710216],[153.23211,-27.707023],[153.232814,-27.705283],[153.235373,-27.704551],[153.236219,-27.70307],[153.233891,-27.699379],[153.233404,-27.696738],[153.233909,-27.694314],[153.239454,-27.695045],[153.241007,-27.695862],[153.241144,-27.697764],[153.243288,-27.698307],[153.24749,-27.697628],[153.25244,-27.697444],[153.254919,-27.695331],[153.255262,-27.69274],[153.256517,-27.691877],[153.258997,-27.692851],[153.266238,-27.692736],[153.267808,-27.693516],[153.270016,-27.695882],[153.273461,-27.697986],[153.274903,-27.697729],[153.278053,-27.695788],[153.283647,-27.695379],[153.28668,-27.694342],[153.289464,-27.692422],[153.292527,-27.69202],[153.292899,-27.694485],[153.292267,-27.698144],[153.293157,-27.701643],[153.294706,-27.703206],[153.298374,-27.709851],[153.300463,-27.71267],[153.303665,-27.71446],[153.309456,-27.713979],[153.31241,-27.71217],[153.316422,-27.712273],[153.319225,-27.711444],[153.321241,-27.710228],[153.32359,-27.707183],[153.324603,-27.702246],[153.326264,-27.698738],[153.32806,-27.696992],[153.332197,-27.696224],[153.338745,-27.698253],[153.341918,-27.697895],[153.348106,-27.695109],[153.352126,-27.697824],[153.353378,-27.699773],[153.354489,-27.704433],[153.354603,-27.706619],[153.356511,-27.711682],[153.362933,-27.70978],[153.366606,-27.711682],[153.369405,-27.711245],[153.36989,-27.709055],[153.371947,-27.707266],[153.37708,-27.707882],[153.383081,-27.709746],[153.385119,-27.709894],[153.387873,-27.709063],[153.391272,-27.707001],[153.392504,-27.707756],[153.393854,-27.710038],[153.399183,-27.716006],[153.402045,-27.719876],[153.404025,-27.723646],[153.40463,-27.726045],[153.405069,-27.732094],[153.405784,-27.734396],[153.407492,-27.736992],[153.409641,-27.739247],[153.412282,-27.74091],[153.415146,-27.741792],[153.420214,-27.742332],[153.426394,-27.741881],[153.429345,-27.740964],[153.433933,-27.738927],[153.43929,-27.735747],[153.436243,-27.744319],[153.435218,-27.753166],[153.436005,-27.755226],[153.43619,-27.759058],[153.435633,-27.762849],[153.428962,-27.775441],[153.426642,-27.778531],[153.42488,-27.779602],[153.413343,-27.782092],[153.409535,-27.78268],[153.407628,-27.782047],[153.392378,-27.783804],[153.384277,-27.784366],[153.382058,-27.786421],[153.38966,-27.791269],[153.39156,-27.793948],[153.390086,-27.795321],[153.386959,-27.796633],[153.38431,-27.79552],[153.38332,-27.796264],[153.383622,-27.799608],[153.380637,-27.801293],[153.379142,-27.799551],[153.377165,-27.799199],[153.376603,-27.799653],[153.375852,-27.802069],[153.375166,-27.802322],[153.373337,-27.799734],[153.37104,-27.799023],[153.370501,-27.797497],[153.366629,-27.796291],[153.362794,-27.796485],[153.358268,-27.797691],[153.356357,-27.797656],[153.355307,-27.798876],[153.353719,-27.798512],[153.349986,-27.800044],[153.351374,-27.801767],[153.355375,-27.801409],[153.358057,-27.800438],[153.361791,-27.800393],[153.364707,-27.798377],[153.368747,-27.801734],[153.370254,-27.804709],[153.371042,-27.807637],[153.369782,-27.811676],[153.371077,-27.816049],[153.375743,-27.819087],[153.378793,-27.82057],[153.380356,-27.820692],[153.381509,-27.823082],[153.383628,-27.824341],[153.386067,-27.8283],[153.38539,-27.829543],[153.381857,-27.831229],[153.380658,-27.833506],[153.380247,-27.836351],[153.382505,-27.838782],[153.384229,-27.838336],[153.385562,-27.840642],[153.390277,-27.840136],[153.393035,-27.839031],[153.394769,-27.840363],[153.394575,-27.843009],[153.39573,-27.845297],[153.395987,-27.853184],[153.39641,-27.856535],[153.397675,-27.858575],[153.398861,-27.857967],[153.401754,-27.862761],[153.401651,-27.864528],[153.40019,-27.866065],[153.397793,-27.867246],[153.394751,-27.868017],[153.394629,-27.871934],[153.395572,-27.873012],[153.393488,-27.874351],[153.39086,-27.874952],[153.385259,-27.874195],[153.382534,-27.872476],[153.38216,-27.870199],[153.383246,-27.866429],[153.382395,-27.861942],[153.382427,-27.859758],[153.381466,-27.857798],[153.378965,-27.854728],[153.374144,-27.853407],[153.368673,-27.852815],[153.368192,-27.853672],[153.373112,-27.85408],[153.376064,-27.854979],[153.37971,-27.857482],[153.38185,-27.861006],[153.381769,-27.867369],[153.380548,-27.870414],[153.378121,-27.873784],[153.377317,-27.877678],[153.378404,-27.879794],[153.380963,-27.882124],[153.381731,-27.883648],[153.381647,-27.886757],[153.380797,-27.889104],[153.37739,-27.891234],[153.371751,-27.893645],[153.367158,-27.893398],[153.365328,-27.892406],[153.356765,-27.890986],[153.355414,-27.893334],[153.354894,-27.896913],[153.352163,-27.902055],[153.349624,-27.900805],[153.347177,-27.897137],[153.344683,-27.895174],[153.342323,-27.896134],[153.345365,-27.897927],[153.347345,-27.899812],[153.348423,-27.901745],[153.346999,-27.903045],[153.343186,-27.910059],[153.344199,-27.911849],[153.347858,-27.916367],[153.348058,-27.919339],[153.350346,-27.917229],[153.349968,-27.914101],[153.352778,-27.91499],[153.355078,-27.914489],[153.357131,-27.9132],[153.357922,-27.911415],[153.357181,-27.909308],[153.358314,-27.906824],[153.357972,-27.903243],[153.356452,-27.900466],[153.356904,-27.896471],[153.358458,-27.893332],[153.360212,-27.893092],[153.36119,-27.894494],[153.365192,-27.895419],[153.368297,-27.896867],[153.370951,-27.896421],[153.375624,-27.8946],[153.377652,-27.893159],[153.381327,-27.891772],[153.383448,-27.889008],[153.382973,-27.885563],[153.383726,-27.882469],[153.381865,-27.879833],[153.379087,-27.87893],[153.378107,-27.876759],[153.378353,-27.87501],[153.379975,-27.873808],[153.382108,-27.874647],[153.385389,-27.877049],[153.388899,-27.877634],[153.392498,-27.877188],[153.394937,-27.875847],[153.397493,-27.872311],[153.399158,-27.871489],[153.400722,-27.872749],[153.40037,-27.87478],[153.397432,-27.880566],[153.396302,-27.884051],[153.396745,-27.88727],[153.400801,-27.892618],[153.403082,-27.896661],[153.405017,-27.902302],[153.407031,-27.905745],[153.408281,-27.91183],[153.408069,-27.916623],[153.40673,-27.92244],[153.405987,-27.930599],[153.408184,-27.939959],[153.410536,-27.942761],[153.409919,-27.948948],[153.410308,-27.954944],[153.412273,-27.955463],[153.414167,-27.959207],[153.413452,-27.961158],[153.415596,-27.961481],[153.418502,-27.966122],[153.418751,-27.968975],[153.420417,-27.970347],[153.421408,-27.974087],[153.420176,-27.977004],[153.418448,-27.978341],[153.416204,-27.982222],[153.417547,-27.988148],[153.415503,-27.990351],[153.416123,-27.993433],[153.417896,-27.991499],[153.41912,-27.991242],[153.421602,-27.993948],[153.424688,-27.998414],[153.424168,-27.994549],[153.424678,-27.992093],[153.428116,-27.988813],[153.425853,-27.988856],[153.422447,-27.991848],[153.421513,-27.991539],[153.419104,-27.986742],[153.418581,-27.982302],[153.420158,-27.980747],[153.423814,-27.983178],[153.421593,-27.979266],[153.424415,-27.974331],[153.423879,-27.971961],[153.427209,-27.971473],[153.426533,-27.969665],[153.423979,-27.970568],[153.42283,-27.967783],[153.423404,-27.966281],[153.42601,-27.966366],[153.426127,-27.964354],[153.424191,-27.963501],[153.423883,-27.961065],[153.423948,-27.951989],[153.425207,-27.949824],[153.424388,-27.944218],[153.424717,-27.941799],[153.423818,-27.940771],[153.422004,-27.942121],[153.422236,-27.948788],[153.421238,-27.948819],[153.421044,-27.945608],[153.421287,-27.940889],[153.422742,-27.938582],[153.42555,-27.937037],[153.429933,-27.936194],[153.429265,-27.938098],[153.430398,-27.939001],[153.430212,-27.947579],[153.430287,-27.955147],[153.430096,-27.96312],[153.429532,-27.968425],[153.429377,-27.974532],[153.430419,-27.987185],[153.430368,-27.990652],[153.431502,-28.00291],[153.432041,-28.005865],[153.433859,-28.019703],[153.437739,-28.04036],[153.443914,-28.065479],[153.448942,-28.080124],[153.450367,-28.083593],[153.452453,-28.086993],[153.454396,-28.089018],[153.459386,-28.090111],[153.460714,-28.09238],[153.45997,-28.094784],[153.463424,-28.101045],[153.466769,-28.108386],[153.470674,-28.115703],[153.472386,-28.118362],[153.47783,-28.125379],[153.479379,-28.126425],[153.483266,-28.127775],[153.486326,-28.126559],[153.488619,-28.131093],[153.490462,-28.132953],[153.492598,-28.13678],[153.498664,-28.145503],[153.501065,-28.14855],[153.503937,-28.150905],[153.510414,-28.157636],[153.514615,-28.161206],[153.518067,-28.163359],[153.524722,-28.166504],[153.529508,-28.167218],[153.532884,-28.166918],[153.534033,-28.165895],[153.536656,-28.165111],[153.541028,-28.167145],[153.543612,-28.166849],[153.544931,-28.164348],[153.54759,-28.164309],[153.550067,-28.162123],[153.552177,-28.164396]]]]}}]}