{"type": "FeatureCollection", "features": [{"type": "Feature", "properties": {"name": "Western Jalisco: Puerto Vallarta, Cabo Corrientes, San Sebasti\u00e1n del Oeste, Mascota, Talpa de Allende and Tomatl\u00e1n (with the sea beside them)"}, "geometry": {"type": "Polygon", "coordinates": [[[-105.94234446015876, 20.4449718448098], [-105.93799198551761, 20.46778764214025], [-105.93154079289582, 20.49010101833218], [-105.92304656946736, 20.511719362664564], [-105.91258263799993, 20.53245606398303], [-105.90023932392738, 20.552132121541202], [-105.88612317565381, 20.570577690148443], [-105.87007370074814, 20.58791183774973], [-105.85185713596518, 20.604190857806913], [-105.82333843411753, 20.624218360990458], [-105.81306256208624, 20.63411126393624], [-105.76191882058009, 20.674425155939332], [-105.74091498719316, 20.687948527339138], [-105.7186663987404, 20.699308232565187], [-105.68812603469077, 20.71151888207552], [-105.63769443453057, 20.726135111235234], [-105.59708547515515, 20.735156631159544], [-105.54137027436207, 20.742356439565643], [-105.53346903419745, 20.7728275962272], [-105.52506732475844, 20.7944277141415], [-105.51470140446509, 20.81515695705775], [-105.49805035723966, 20.841820718202943], [-105.4824345604057, 20.862004545278587], [-105.45935002860298, 20.88519365500826], [-105.43325938864908, 20.926125955210214], [-105.38096636774631, 20.988373114427088], [-105.34865801262973, 21.031127289863022], [-105.31780796093986, 21.065351336437566], [-105.28442202158008, 21.094399197477035], [-105.2599065463831, 21.11106098355388], [-105.22155450069845, 21.133151232734882], [-105.20605899657177, 21.140556647322864], [-105.16603568524813, 21.15536589716668], [-105.13684440016361, 21.163302538163666], [-105.09690785496775, 21.17042883481391], [-105.05631056516519, 21.172566455949646], [-105.03527005093318, 21.171310550711986], [-105.01841832809372, 21.181060920387107], [-104.99897785147674, 21.196660064448402], [-104.97779909519615, 21.210605039560495], [-104.95532805584253, 21.222327660665613], [-104.93178558373799, 21.23171485739379], [-104.90741364556887, 21.23867014927025], [-104.83787823300283, 21.250767680808625], [-104.8119471751125, 21.253232065378334], [-104.78590045006544, 21.252984944067478], [-104.76002081817262, 21.250028999597152], [-104.7221156609353, 21.24059078265896], [-104.69459566263595, 21.230663790263186], [-104.61234713266211, 21.189624863263976], [-104.59335082545408, 21.176942535019162], [-104.5755912887614, 21.162579387950643], [-104.55254284956064, 21.1393799847727], [-104.53044220424253, 21.132176674992557], [-104.50822998135972, 21.122467607243994], [-104.4870625235179, 21.110652888861527], [-104.4671388552305, 21.09684360633436], [-104.44864630642704, 21.081169599804653], [-104.43175875110575, 21.063778242260977], [-104.41663497250386, 21.044833053881263], [-104.40341717015708, 21.02451216455369], [-104.39222962288528, 21.003006639031558], [-104.37487221045706, 20.956667092432117], [-104.36246830548399, 20.929074059312327], [-104.35250828410004, 20.89775412934659], [-104.34731862584806, 20.873009755462903], [-104.34461158101104, 20.838053861611794], [-104.32674915553413, 20.810161583248814], [-104.33332001985539, 20.80510449028458], [-104.3386935960299, 20.79435871855069], [-104.39139828337072, 20.728052821573527], [-104.39561116927665, 20.737243284133942], [-104.42060147791864, 20.759378044929573], [-104.43849109712838, 20.770099437949973], [-104.46352190632372, 20.779816494751806], [-104.48467422898094, 20.798745133574663], [-104.56958306134463, 20.892885774583064], [-104.57886927517687, 20.89989917751037], [-104.58671243766906, 20.904219756817668], [-104.59567097362122, 20.905799954706072], [-104.61975199095286, 20.89881221600482], [-104.61258987507537, 20.87911279092268], [-104.6077165303956, 20.856755749328904], [-104.59748958097097, 20.842849956671486], [-104.59427706365483, 20.834131355341018], [-104.61182722561031, 20.798600402243686], [-104.61547802386782, 20.78354709709373], [-104.61420971649697, 20.775003268941973], [-104.60005241550917, 20.758720037728423], [-104.5905808823737, 20.73707894555831], [-104.58063131496063, 20.722804457295318], [-104.56488742986501, 20.710766384279324], [-104.54519661756004, 20.68894973179], [-104.54310747247392, 20.677288025089908], [-104.55323060790259, 20.651880704021313], [-104.57969691985808, 20.646087166316573], [-104.58230920105181, 20.64364665527318], [-104.58902819888648, 20.624031528995765], [-104.60973342558549, 20.59616866527704], [-104.61233928958642, 20.58927083588868], [-104.61299942377052, 20.577671145821245], [-104.61666006544229, 20.563639107137828], [-104.61451009791209, 20.538219693495602], [-104.61724882372042, 20.535101379432565], [-104.62200927482651, 20.53375120443822], [-104.64562505370091, 20.54090673173522], [-104.6470528368541, 20.539432685221076], [-104.64890354295738, 20.50323129764034], [-104.65913574373232, 20.485658607823524], [-104.66211478138632, 20.472226114066014], [-104.66037888010632, 20.4659863511722], [-104.64684336419423, 20.458709363973615], [-104.64259394933703, 20.447999364113787], [-104.63227888974076, 20.43157944858922], [-104.63168862791404, 20.427128838342316], [-104.63763863769705, 20.417391754512998], [-104.63625165582346, 20.411570510340525], [-104.62983756709676, 20.403350603554163], [-104.62970785467806, 20.398901017875186], [-104.63144729911163, 20.391550327550238], [-104.64042454185198, 20.38256510711967], [-104.64730883058466, 20.357773014399832], [-104.66059143716816, 20.326440969321187], [-104.6685911812092, 20.316791878615568], [-104.68924126503691, 20.308712417938224], [-104.69565606364804, 20.302771150128287], [-104.70636499702093, 20.303235414292825], [-104.72293093018612, 20.300541548472488], [-104.7312693159403, 20.3016895151141], [-104.73634050349715, 20.300365860214118], [-104.74474205328153, 20.283930251774766], [-104.74342468471343, 20.277494000460898], [-104.73781649735236, 20.2700880141917], [-104.73770930626237, 20.26501181739333], [-104.74569883262723, 20.220581380917903], [-104.74875687866468, 20.209501472911843], [-104.75443404053847, 20.198230796426277], [-104.75298311708511, 20.188856647422664], [-104.75437428749638, 20.179851645746208], [-104.75985747148964, 20.16722888022289], [-104.76794373637206, 20.156788482435555], [-104.76383226406648, 20.156298892301894], [-104.75313734679516, 20.150796438874977], [-104.74308821045705, 20.143531310501785], [-104.73464915698267, 20.133875448656283], [-104.72570372157851, 20.133842617213723], [-104.72377024538687, 20.135322636542007], [-104.72194382917536, 20.140398366991263], [-104.7224496044774, 20.154019904061773], [-104.71946717277613, 20.155289878037877], [-104.71660837176641, 20.1539771562264], [-104.71210345258886, 20.148888311356227], [-104.70609496157014, 20.13360528501382], [-104.70898026935038, 20.12238416384025], [-104.70766351866878, 20.118635660865944], [-104.69060880095266, 20.107419340955552], [-104.68152683849206, 20.09593948012114], [-104.68269236110268, 20.0912621352178], [-104.69166302718072, 20.084269486676515], [-104.69334990077203, 20.080004428772096], [-104.68863902782353, 20.06955106562993], [-104.68566198401801, 20.046101287764902], [-104.69548473167771, 20.046032109547433], [-104.69910967336504, 20.043205184474886], [-104.70627620951223, 20.031660654095475], [-104.72203774740454, 20.035638897304892], [-104.73968979054598, 20.023184491341684], [-104.75139891194216, 20.0185574641298], [-104.77189569008497, 20.01394061081177], [-104.78194147521228, 20.008551571198826], [-104.7959633027116, 19.989259364332344], [-104.81494386232842, 19.954731453078615], [-104.82480653049436, 19.93269023851767], [-104.83068980987281, 19.933287183391645], [-104.84300255872584, 19.939275492104883], [-104.868617116371, 19.958420370383962], [-104.89537094410151, 19.96828766063333], [-104.90682184328229, 19.9683184852351], [-104.91670517808393, 19.965157249139256], [-104.92126203663355, 19.96160915306776], [-104.92591898741043, 19.953720465697977], [-104.94258197277071, 19.947189550995464], [-104.95321694394423, 19.93391093978744], [-104.9690843055621, 19.9251269486262], [-104.97375278980377, 19.91442147510654], [-104.98034550526131, 19.906058394954304], [-104.984873587723, 19.88776297071534], [-104.99430881142361, 19.872872394855825], [-104.99943615924033, 19.858697457145006], [-105.00860061762259, 19.841062532880414], [-105.00968226207328, 19.830141304217403], [-105.01786449045676, 19.82167029873159], [-105.02119429699674, 19.815842763471014], [-105.02842108116968, 19.792872026801874], [-105.05703782963552, 19.77131346170557], [-105.06923695284057, 19.765289908680142], [-105.0935564002924, 19.76196218881505], [-105.09956555267587, 19.757274650848537], [-105.10710172616717, 19.7480931640031], [-105.11299889397786, 19.747040531765595], [-105.12310662765158, 19.753043596231137], [-105.12902751822722, 19.754543502069108], [-105.13589357909545, 19.752790850526473], [-105.1517728450464, 19.73711951395672], [-105.15313769302927, 19.73336853940557], [-105.14946819895333, 19.726812561729652], [-105.1629513728681, 19.719282727156973], [-105.16262281959116, 19.708223489935897], [-105.1649709085461, 19.690590271816077], [-105.17799412777038, 19.688676000324765], [-105.18980770713254, 19.676340557357683], [-105.19768051419098, 19.67199437743338], [-105.23942529648369, 19.661982103880295], [-105.39517252564943, 19.46524006515837], [-105.41102012661885, 19.47557224447237], [-105.42979093978978, 19.49056254423476], [-105.44703637934597, 19.50728520337074], [-105.46259722089938, 19.525585824240363], [-105.4763297936862, 19.545295440135128], [-105.4868971339147, 19.564080776249625], [-105.49840679211074, 19.57957740098852], [-105.51796591304046, 19.5992096996668], [-105.53584273726148, 19.621845963795487], [-105.55518523543626, 19.653734032815787], [-105.56422417279211, 19.674009004787678], [-105.60597724521487, 19.72370055593841], [-105.66681022362067, 19.80432676311759], [-105.70012978751477, 19.85040271858157], [-105.7250879461389, 19.891690632162874], [-105.75658157197459, 19.953544897945328], [-105.7761368103462, 19.987139600091396], [-105.78552548716397, 20.009805647750028], [-105.79264731713444, 20.033282796357202], [-105.79743371453166, 20.057344952719582], [-105.79983858466629, 20.081760389813503], [-105.79942700681939, 20.11216454965693], [-105.83428891268808, 20.1418574943975], [-105.85080802468313, 20.16036883723222], [-105.86682557224236, 20.1815717544817], [-105.88199707076069, 20.202728757397306], [-105.89488604825662, 20.225348823683067], [-105.92046015238738, 20.278171185347027], [-105.93369925128614, 20.32369574526766], [-105.94314295618868, 20.37140632549919], [-105.94541931152338, 20.406235818340466], [-105.94234446015876, 20.4449718448098]]]}}]}