{"type": "FeatureCollection", "features": [{"type": "Feature", "properties": {"name": "ohio-southern", "source": "the owner's Ohio map (data/ohio-regions-v2.geojson) with straight inner borders, carried out past Ohio's outline: Toledo's southern border due east-west (41.03\u00b0N), its border with the Northeast due north from that corner to the lake (west of Port Clinton, so the Marblehead peninsula is the Northeast's), the Southern-Central border one straight line, Central-Northeast a few straight segments keeping Central's bulge east"}, "geometry": {"type": "Polygon", "coordinates": [[[-83.75745476802048, 38.44382184924679], [-83.81385027096017, 38.45882212113617], [-83.82174011567865, 38.461095089542134], [-83.83721076035373, 38.46660363702879], [-83.84476537920146, 38.4698302505694], [-83.85165882454208, 38.47294338721483], [-83.861162156544, 38.477540891474774], [-83.87938018330787, 38.48820926614212], [-83.89636810705369, 38.50073529402319], [-83.91194136001353, 38.51498186273006], [-83.9259264986147, 38.530790304335], [-83.93227735475332, 38.53922991625215], [-83.93660626136568, 38.545310357396936], [-83.94244166552579, 38.553977428927645], [-83.94650901037075, 38.561177542103145], [-83.96165259899824, 38.576851071441006], [-83.96747688990868, 38.57851053655294], [-83.97598198908477, 38.58157553404875], [-83.99567123495035, 38.576620669606626], [-84.00751956186211, 38.57401835603325], [-84.0316169776345, 38.57098682837699], [-84.04376224253308, 38.57057330947417], [-84.05197715845789, 38.57054333167612], [-84.0707716644791, 38.570476293524145], [-84.08269625637334, 38.57078949734338], [-84.10638944076224, 38.57354365018869], [-84.11807368811488, 38.575975505904005], [-84.25216479645968, 38.60808613716162], [-84.26029746771964, 38.610215337842895], [-84.27626265538855, 38.615490197251965], [-84.28406686019976, 38.61862687276301], [-84.29137080454947, 38.621742436552225], [-84.29966207633517, 38.62550446585214], [-84.31569244993331, 38.63414228635027], [-84.330867094993, 38.64419964837452], [-84.34506435474037, 38.655595182554165], [-84.3517627546419, 38.66176865806138], [-84.36415217316627, 38.67372030913547], [-84.37061086538735, 38.68024350184663], [-84.38260003277695, 38.69414733038982], [-84.39326124956165, 38.70908814397971], [-84.40250785554655, 38.72494341855374], [-84.40657797168232, 38.73317655698071], [-84.41123002474275, 38.74315737988751], [-84.41259452190525, 38.74608619712154], [-84.41697850118253, 38.75621761717368], [-84.42403981920705, 38.777133348552425], [-84.42875213649847, 38.798694484136746], [-84.43020998629754, 38.809642569939896], [-84.43262998005477, 38.83265700045056], [-84.43269017058732, 38.833369597477585], [-84.45767901112552, 38.87365887947883], [-84.48929727483562, 38.89352767852582], [-84.56176874776686, 38.87808925235134], [-84.57136887348723, 38.87628803050679], [-84.59078032836463, 38.8741005630974], [-84.60054542306766, 38.873720005413986], [-84.61720393258705, 38.87347814320474], [-84.62641356421487, 38.873556511040604], [-84.64481681764498, 38.874988898879224], [-84.66300514351772, 38.87811091189102], [-84.67188144943668, 38.88027334612048], [-84.67547663724503, 38.88123669754979], [-84.68416637357738, 38.88356320144047], [-84.69200060476841, 38.88583283446011], [-84.7073629210902, 38.89132163178032], [-84.71486535067311, 38.894531981706265], [-84.7597110091088, 38.91481398508917], [-84.76228318514572, 38.914036479403464], [-84.77176178362636, 38.91142380611162], [-84.77176626272824, 38.91142268919581], [-84.79105111211922, 38.90760948807171], [-84.81061715559635, 38.9057079461983], [-84.83027536271841, 38.90573643465297], [-84.84983581263752, 38.90769467820458], [-84.86910952895265, 38.911563757972374], [-84.88791030543851, 38.91730629420424], [-84.90605650501152, 38.92486680740788], [-84.92337281455247, 38.93417225434652], [-84.93969193863256, 38.945132733720335], [-84.95485621577933, 38.95764235471626], [-84.96871914166736, 38.971580260034806], [-84.98114678451834, 38.98681179351026], [-84.99201907903576, 39.0031898010439], [-85.0012309863735, 39.02055605228148], [-85.00869350893167, 39.03874276930007], [-85.0143345501756, 39.05757424753546], [-85.01809961117112, 39.0768685532899], [-85.01995231710683, 39.09643928142049], [-85.02015542442442, 39.106273884080935], [-85.01998344726944, 39.149869093002], [-85.01996892356088, 39.151616205187594], [-85.019939115815, 39.15336487317772], [-85.01982568345211, 39.15866052367948], [-85.01981299776357, 39.24436324566194], [-85.01981180567445, 39.24502480785578], [-85.01980724235632, 39.2463452692304], [-85.01982641827867, 39.247408066546726], [-85.01985876941822, 39.25129566804375], [-85.01981548268563, 39.255189934296624], [-85.01963067662366, 39.26405163028558], [-85.0196218718666, 39.27181639094801], [-85.0196194045949, 39.272608590496205], [-85.019448409445, 39.30616994713753], [-85.01944019196853, 39.30723067524058], [-85.01939800962923, 39.30975662269507], [-85.01929903879405, 39.31405635564593], [-85.01740722435008, 39.39604396133311], [-85.01574223565746, 39.4799293526567], [-85.01555149473013, 39.512136101361435], [-85.01555003570094, 39.51213609271877], [-85.01554658206365, 39.51288604944096], [-85.01552131211174, 39.51472269765506], [-85.01534096800921, 39.524549647800804], [-85.01514913033938, 39.54958326298717], [-85.01514292793935, 39.55024832478245], [-85.01501794167115, 39.561622138099025], [-85.01515040864678, 39.569846504000324], [-85.01470341401584, 39.62981217175003], [-85.01461854626137, 39.66960002295494], [-85.01461274898486, 39.67075483321611], [-85.01452374837432, 39.6820103320965], [-85.0141298912964, 39.72732279666598], [-85.0141888557916, 39.78532548676621], [-85.01420879894236, 39.799472053036624], [-85.0142031560503, 39.80128260337955], [-85.01413574567489, 39.810102228796], [-85.01417621961622, 39.81525350362264], [-85.01408029978124, 39.82049454348392], [-85.01377751998648, 39.83013257065115], [-85.01369997730932, 39.844158589496004], [-85.01366323446685, 39.84704265717409], [-85.01350921536763, 39.854761863257515], [-85.01348501760201, 39.85583123404425], [-85.01343235404586, 39.85760269810157], [-85.01339227627086, 39.85877579815078], [-85.0130190887562, 39.87653031044892], [-85.01276586640986, 39.8937376163022], [-85.01239496075071, 39.919468878656346], [-85.01234460947606, 39.92399022031411], [-85.01231592136148, 39.92581695357268], [-85.0122705240438, 39.92764472318921], [-85.01213542989457, 39.93223792426257], [-85.01063162412812, 40.008991764164215], [-85.01006062422425, 40.0381317592888], [-85.01003851841608, 40.03913212714036], [-85.00969351717919, 40.053156238511804], [-85.00867472385941, 40.1107528740572], [-85.00866500907898, 40.11126500306605], [-85.00829089942249, 40.12973914655662], [-85.00828613970894, 40.13042130631273], [-85.00825714824522, 40.13270590323801], [-85.00820196570866, 40.13499405880091], [-85.00667701386699, 40.18609344507074], [-85.00664668594129, 40.18703527876153], [-85.0062436698101, 40.19869683837454], [-85.00611109766935, 40.203122996994686], [-85.0055856049576, 40.227732663052784], [-85.00406040637876, 40.30637563270571], [-85.00404187985394, 40.30723552776972], [-85.00392918929994, 40.31199111802357], [-85.00411677887978, 40.35181442991278], [-85.004118997703, 40.35275142580704], [-85.00411899991109, 40.352837965681545], [-85.00411027980265, 40.35471068575282], [-85.0030592818073, 40.46725540491574], [-85.00247839587422, 40.52947275669982], [-85.00226412461437, 40.57288294207176], [-85.00213567323691, 40.644661748612315], [-85.00219158815943, 40.65954651197443], [-85.00219265149637, 40.659924826836246], [-85.00221965105172, 40.67440239650335], [-85.00221812378328, 40.67564141804265], [-85.00215512712194, 40.69018953334637], [-85.00214821727943, 40.69119803157398], [-85.0021362134436, 40.69220743384288], [-85.00212271795114, 40.69314357116999], [-85.00209561111976, 40.702233900943966], [-85.00217808670742, 40.717522505302924], [-85.0021809664782, 40.71871152212272], [-85.00217677617347, 40.7199018127291], [-85.00212575135495, 40.727756342856765], [-85.00225383145526, 40.740087804358424], [-85.00252426525239, 40.76317113327122], [-85.00253734867793, 40.76500789511008], [-85.00293356784425, 40.92155804727202], [-85.00330979789724, 40.98807726200335], [-85.00331295966511, 40.989086543705255], [-85.00333813537733, 41.030394657915814], [-83.96796543313104, 41.030394657915814], [-83.74, 41.030394657915814], [-83.74, 38.43917867984791], [-83.75745476802048, 38.44382184924679]]]}}]}