{"type":"FeatureCollection","features":[{"type":"Feature","properties":{"name":"Western Ohio","source":"The owner's Ohio regions (version 2, Oct 1 2026): estimated borders through the state, drawn on Ohio's county outline (plotly/datasets geojson-counties-fips). Only the lines through Ohio are used; Ohio's own borders and shore come from the Census counties."},"geometry":{"type":"Polygon","coordinates":[[[-84.212904,38.805707],[-84.2253,38.817665],[-84.229954,38.82765],[-84.231306,38.830552],[-84.233727,38.853576],[-84.232478,38.874638],[-84.232132,38.880483],[-84.234453,38.893226],[-84.304698,39.006455],[-84.31368,39.016981],[-84.319936,39.022081],[-84.326539,39.027463],[-84.432841,39.094261],[-84.493743,39.10246],[-84.502062,39.096641],[-84.506082,39.095081],[-84.509743,39.09366],[-84.510057,39.093593],[-84.603444,39.073699],[-84.620112,39.073457],[-84.623732,39.074427],[-84.632446,39.07676],[-84.684847,39.100459],[-84.689747,39.104159],[-84.718548,39.137059],[-84.732048,39.144458],[-84.744149,39.147458],[-84.754449,39.146658],[-84.766749,39.138558],[-84.78768,39.115297],[-84.820157,39.10548],[-84.819985,39.149081],[-84.819826,39.156504],[-84.819802,39.157613],[-84.819813,39.244334],[-84.819801,39.247806],[-84.819859,39.251018],[-84.819633,39.261855],[-84.819622,39.27159],[-84.819451,39.305152],[-84.819451,39.305153],[-84.819352,39.309454],[-84.817453,39.391753],[-84.815754,39.477352],[-84.815754,39.477358],[-84.815555,39.510952],[-84.815555,39.511052],[-84.815355,39.52195],[-84.815355,39.521951],[-84.815155,39.548051],[-84.814955,39.566251],[-84.814955,39.567251],[-84.815036,39.567695],[-84.815156,39.568351],[-84.814705,39.628854],[-84.814619,39.669174],[-84.81453,39.680429],[-84.814129,39.726556],[-84.814129,39.72662],[-84.814189,39.785569],[-84.814179,39.786853],[-84.814209,39.799755],[-84.81412,39.811398],[-84.814179,39.814212],[-84.813852,39.824621],[-84.813793,39.826771],[-84.813703,39.843059],[-84.813674,39.843173],[-84.813549,39.850773],[-84.813464,39.853261],[-84.81305,39.872958],[-84.812787,39.89083],[-84.812698,39.891585],[-84.812411,39.916915],[-84.812411,39.916916],[-84.812357,39.921764],[-84.812193,39.92734],[-84.81067,40.005074],[-84.810099,40.034214],[-84.809737,40.048929],[-84.808706,40.107216],[-84.808305,40.127018],[-84.808291,40.129027],[-84.806766,40.180128],[-84.806347,40.192252],[-84.80634,40.192327],[-84.806175,40.197995],[-84.805627,40.223659],[-84.804098,40.302498],[-84.803918,40.310094],[-84.803917,40.310115],[-84.804119,40.352757],[-84.804119,40.352844],[-84.803068,40.465388],[-84.802483,40.528046],[-84.802265,40.572212],[-84.802265,40.572215],[-84.802135,40.644859],[-84.802193,40.660298],[-84.80222,40.674776],[-84.802157,40.689324],[-84.802127,40.691405],[-84.802094,40.702476],[-84.802181,40.718602],[-84.802119,40.728146],[-84.802119,40.728163],[-84.802266,40.742298],[-84.802538,40.765515],[-84.802935,40.922377],[-84.802936,40.922568],[-84.803313,40.989209],[-84.803313,40.989394],[-84.803374,41.089302],[-84.803378,41.096867],[-84.803413,41.164649],[-84.803594,41.173203],[-84.803472,41.173889],[-84.803492,41.252531],[-84.80347608,41.18995367],[-84.8,41.19],[-84.78276159,41.19038623],[-84.75623236,41.19148586],[-84.72963212,41.19304637],[-84.70299336,41.19489458],[-84.67634883,41.19685736],[-84.64973155,41.1987616],[-84.6231748,41.20043419],[-84.59671212,41.2017021],[-84.57037733,41.20239227],[-84.54420447,41.2023317],[-84.51822785,41.20134742],[-84.5,41.2],[-84.49247375,41.19925511],[-84.46684186,41.1957932],[-84.44132228,41.19104637],[-84.4159533,41.18519483],[-84.39077291,41.17841883],[-84.36581883,41.17089864],[-84.34112847,41.16281458],[-84.31673898,41.15434696],[-84.29268722,41.14567613],[-84.2690098,41.13698246],[-84.25,41.13],[-84.24574231,41.12842098],[-84.22288578,41.11919947],[-84.20043386,41.10899173],[-84.1783906,41.09796626],[-84.15675981,41.08629156],[-84.13554507,41.07413611],[-84.11474972,41.0616684],[-84.09437692,41.04905689],[-84.08,41.04],[-84.07442965,41.0364436],[-84.05491075,41.02349026],[-84.03581967,41.0100674],[-84.01715505,40.99620619],[-83.99891549,40.9819378],[-83.98109952,40.9672934],[-83.96370565,40.95230414],[-83.95,40.94],[-83.94932358,40.92319771],[-83.94833218,40.90356136],[-83.94712312,40.88391108],[-83.94569605,40.86425586],[-83.94405062,40.84460471],[-83.94218648,40.82496662],[-83.94010327,40.80535059],[-83.93780063,40.78576561],[-83.9352782,40.76622068],[-83.93253564,40.74672477],[-83.93,40.73],[-83.92956555,40.72728684],[-83.92595996,40.70790874],[-83.92160642,40.68857944],[-83.9166797,40.66928687],[-83.91135442,40.65001898],[-83.905805,40.63076373],[-83.90020567,40.61150912],[-83.89473048,40.59224318],[-83.88955329,40.57295397],[-83.88484779,40.55362958],[-83.88078747,40.53425811],[-83.88,40.53],[-83.87755473,40.51477356],[-83.87509026,40.49509899],[-83.87309406,40.47532006],[-83.87126189,40.45552747],[-83.86928986,40.4358119],[-83.86687438,40.41626403],[-83.86371219,40.39697447],[-83.86,40.38],[-83.85949817,40.37803246],[-83.85380562,40.35935836],[-83.84663738,40.34084315],[-83.83822424,40.32246111],[-83.82879675,40.30418659],[-83.81858525,40.28599393],[-83.80781984,40.26785757],[-83.79673038,40.24975199],[-83.78554655,40.23165178],[-83.77449778,40.21353158],[-83.7638133,40.19536612],[-83.75372211,40.17713022],[-83.75,40.17],[-83.74420073,40.15882855],[-83.73442422,40.14055891],[-83.72439591,40.12231923],[-83.71421869,40.10409561],[-83.70399535,40.08587419],[-83.69382859,40.06764112],[-83.68382101,40.0493826],[-83.67407511,40.03108487],[-83.66469329,40.0127342],[-83.65577786,39.99431686],[-83.64743102,39.97581917],[-83.63975488,39.95722748],[-83.63285143,39.93852813],[-83.63,39.93],[-83.62687025,39.91965921],[-83.62199172,39.90041626],[-83.61796134,39.88087678],[-83.61447803,39.861156],[-83.61124104,39.84136911],[-83.60794992,39.82163127],[-83.60430451,39.80205758],[-83.60000496,39.78276311],[-83.59475172,39.76386288],[-83.59,39.75],[-83.58818734,39.7454659],[-83.5789938,39.72750431],[-83.56727671,39.70986108],[-83.55376559,39.69245485],[-83.5391893,39.67520445],[-83.52427601,39.65802904],[-83.50975329,39.64084808],[-83.49634807,39.62358141],[-83.48478663,39.60614913],[-83.47579459,39.58847155],[-83.47009686,39.57046908],[-83.47,39.57],[-83.4670077,39.55196604],[-83.46503994,39.53290675],[-83.46391462,39.51341187],[-83.46335394,39.49360215],[-83.46308039,39.47359828],[-83.46281674,39.45352096],[-83.46228606,39.4334909],[-83.46121174,39.41362876],[-83.46,39.4],[-83.45932427,39.39403898],[-83.45658897,39.37455763],[-83.45320981,39.35510254],[-83.44939423,39.33566502],[-83.44534945,39.3162364],[-83.44128248,39.29680803],[-83.43740009,39.27737131],[-83.43390885,39.25791764],[-83.43101509,39.23843844],[-83.43,39.23],[-83.42886955,39.21892172],[-83.42727399,39.19935282],[-83.42605284,39.17974442],[-83.42505165,39.16011191],[-83.42411613,39.14047071],[-83.42309216,39.12083621],[-83.42182579,39.1012238],[-83.42016323,39.08164886],[-83.42,39.08],[-83.41784666,39.06211109],[-83.41485709,39.04259138],[-83.4114939,39.02308393],[-83.40805757,39.00358306],[-83.40484825,38.98408312],[-83.40216577,38.96457852],[-83.40030964,38.94506366],[-83.4,38.94],[-83.39935521,38.9255257],[-83.39884344,38.90594773],[-83.3986676,38.88633687],[-83.39874422,38.86670129],[-83.39898994,38.84704915],[-83.39932145,38.82738861],[-83.39965557,38.80772784],[-83.39990917,38.788075],[-83.4,38.77],[-83.4,38.76843817],[-83.4,38.74881031],[-83.4,38.72918248],[-83.4,38.70955468],[-83.4,38.6899269],[-83.4,38.67029915],[-83.4,38.66848557],[-83.512571,38.701716],[-83.520953,38.703045],[-83.533339,38.702105],[-83.574754,38.692671],[-83.615736,38.684145],[-83.626922,38.679387],[-83.636208,38.670584],[-83.642994,38.643273],[-83.646701,38.637489],[-83.649737,38.632753],[-83.655425,38.629735],[-83.663911,38.62793],[-83.679484,38.630036],[-83.706043,38.637101],[-83.762445,38.652103],[-83.769347,38.65522],[-83.773682,38.661309],[-83.777823,38.674453],[-83.85333,38.752572],[-83.859028,38.756793],[-83.870443,38.761608],[-83.903918,38.76815],[-83.903971,38.76816],[-83.943978,38.783616],[-83.962123,38.787384],[-83.978814,38.787104],[-84.044486,38.770572],[-84.052707,38.770542],[-84.071491,38.770475],[-84.205592,38.802588],[-84.212904,38.805707]]]}}]}
