{"type":"FeatureCollection","features":[{"type":"Feature","properties":{"name":"Toledo area (northwest Ohio), part of Michigan","source":"The owner's Ohio regions (version 2, Oct 1 2026): estimated borders through the state, drawn on Ohio's county outline (plotly/datasets geojson-counties-fips). Only the lines through Ohio are used; Ohio's own borders and shore come from the Census counties."},"geometry":{"type":"Polygon","coordinates":[[[-84.80358,41.270942],[-84.803581,41.271079],[-84.803582,41.271273],[-84.803926,41.367959],[-84.804133,41.408292],[-84.804046,41.408361],[-84.804015,41.411655],[-84.803956,41.426044],[-84.803956,41.426128],[-84.803919,41.435531],[-84.804457,41.488224],[-84.804551,41.500364],[-84.804729,41.530092],[-84.804729,41.530135],[-84.804729,41.530231],[-84.805812,41.61304],[-84.805696,41.631398],[-84.805673,41.632342],[-84.80621,41.67455],[-84.806082,41.696089],[-84.438067,41.704903],[-84.399546,41.705758],[-84.39943,41.705761],[-84.396547,41.705935],[-84.360419,41.706925],[-83.880539,41.720081],[-83.880387,41.720086],[-83.763155,41.72391],[-83.685337,41.726449],[-83.665937,41.726949],[-83.639636,41.727749],[-83.636636,41.727849],[-83.595235,41.729148],[-83.593835,41.729148],[-83.585235,41.729348],[-83.504334,41.731547],[-83.503433,41.731547],[-83.499733,41.731647],[-83.497733,41.731847],[-83.453832,41.732647],[-83.455626,41.727445],[-83.449001,41.710719],[-83.446032,41.706847],[-83.409531,41.691247],[-83.39263,41.691947],[-83.37573,41.686647],[-83.357073,41.687763],[-83.341817,41.693518],[-83.337985,41.698682],[-83.337977,41.70341],[-83.326825,41.701562],[-83.298731,41.683871],[-83.29561,41.681905],[-83.293928,41.680846],[-83.29068,41.676794],[-83.289682,41.676409],[-83.288469,41.675941],[-83.287125,41.675423],[-83.285181,41.674673],[-83.278455,41.672078],[-83.238191,41.651167],[-83.23166,41.644218],[-83.194524,41.631008],[-83.165713,41.623246],[-83.145887,41.617904],[-83.103928,41.613558],[-83.086036,41.60668],[-83.066593,41.59534],[-83.048222,41.573951],[-83.043287,41.568205],[-83.043079,41.567963],[-83.042909,41.567823],[-83.031653,41.558592],[-83.030764,41.557864],[-83.028072,41.555656],[-83.019057,41.550174],[-83.017473,41.549211],[-83.016753,41.548773],[-82.999916,41.538534],[-82.999897,41.538525],[-82.96985,41.524327],[-82.969642,41.524229],[-82.969574,41.52421],[-82.958481,41.521104],[-82.934369,41.514353],[-82.89932828,41.51902752],[-82.90470983,41.50573702],[-82.91239917,41.48677901],[-82.91982391,41.46781],[-82.92671296,41.44880552],[-82.9327955,41.42974113],[-82.93780101,41.41059244],[-82.94,41.4],[-82.94133405,41.3913214],[-82.94249917,41.3718319],[-82.94165759,41.35215887],[-82.93940183,41.33236198],[-82.93632378,41.31250088],[-82.93301466,41.29263522],[-82.93006499,41.27282472],[-82.92806466,41.25312914],[-82.92760287,41.23360826],[-82.92926818,41.21432183],[-82.93,41.21],[-82.93312698,41.19527667],[-82.93826539,41.17638029],[-82.94461055,41.15762525],[-82.95212887,41.13900804],[-82.9607868,41.12052512],[-82.97055087,41.10217294],[-82.9813876,41.08394794],[-82.9932636,41.06584652],[-83.00614551,41.04786507],[-83.02,41.03],[-83.04413195,41.02565728],[-83.06978223,41.02107715],[-83.09544169,41.01653304],[-83.12111039,41.01202572],[-83.14678839,41.00755594],[-83.17247574,41.00312448],[-83.19817251,40.9987321],[-83.22387877,40.99437957],[-83.24959458,40.99006764],[-83.25,40.99],[-83.27531798,40.98578049],[-83.30104777,40.98150688],[-83.32678533,40.97725619],[-83.35253205,40.97303778],[-83.37828935,40.96886103],[-83.40405866,40.96473532],[-83.42984141,40.96067002],[-83.45563906,40.9566745],[-83.48145307,40.95275813],[-83.5,40.95],[-83.507289,40.94888127],[-83.53320923,40.94430475],[-83.55920485,40.93911286],[-83.58523767,40.93374478],[-83.61127012,40.92863969],[-83.63726531,40.92423681],[-83.66318699,40.92097537],[-83.68899957,40.91929463],[-83.71466807,40.91963391],[-83.72,40.92],[-83.74026349,40.92161472],[-83.7659933,40.92370536],[-83.79186384,40.92585323],[-83.81787434,40.92805938],[-83.84402405,40.93032481],[-83.87031222,40.93265057],[-83.89673809,40.93503767],[-83.92330094,40.93748714],[-83.95,40.94],[-83.96370565,40.95230414],[-83.98109952,40.9672934],[-83.99891549,40.9819378],[-84.01715505,40.99620619],[-84.03581967,41.0100674],[-84.05491075,41.02349026],[-84.07442965,41.0364436],[-84.08,41.04],[-84.09437692,41.04905689],[-84.11474972,41.0616684],[-84.13554507,41.07413611],[-84.15675981,41.08629156],[-84.1783906,41.09796626],[-84.20043386,41.10899173],[-84.22288578,41.11919947],[-84.24574231,41.12842098],[-84.25,41.13],[-84.2690098,41.13698246],[-84.29268722,41.14567613],[-84.31673898,41.15434696],[-84.34112847,41.16281458],[-84.36581883,41.17089864],[-84.39077291,41.17841883],[-84.4159533,41.18519483],[-84.44132228,41.19104637],[-84.46684186,41.1957932],[-84.49247375,41.19925511],[-84.5,41.2],[-84.51822785,41.20134742],[-84.54420447,41.2023317],[-84.57037733,41.20239227],[-84.59671212,41.2017021],[-84.6231748,41.20043419],[-84.64973155,41.1987616],[-84.67634883,41.19685736],[-84.70299336,41.19489458],[-84.72963212,41.19304637],[-84.75623236,41.19148586],[-84.78276159,41.19038623],[-84.8,41.19],[-84.80347608,41.18995367],[-84.803492,41.252531],[-84.803492,41.252562],[-84.80358,41.270942]]]}}]}
