{"type": "FeatureCollection", "features": [{"type": "Feature", "properties": {"name": "ohio-northeast", "source": "the owner's Ohio map (data/ohio-regions-v2.geojson) with straight inner borders, carried out past Ohio's outline: Toledo's southern border due east-west (41.03\u00b0N), its border with the Northeast due north from that corner to the lake (west of Port Clinton, so the Marblehead peninsula is the Northeast's), the Southern-Central border one straight line, Central-Northeast a few straight segments keeping Central's bulge east"}, "geometry": {"type": "Polygon", "coordinates": [[[-83.01969393995388, 41.795445644234235], [-83.01701404434597, 41.79441544515134], [-83.0122854250798, 41.80449283341338], [-83.00751466795766, 41.81298678204139], [-83.00465218550505, 41.817804495709005], [-82.99829543717388, 41.82781501789972], [-82.9838567137163, 41.84662415019633], [-82.97582493134352, 41.855356228318065], [-82.9688434355704, 41.86250854048513], [-82.96196007273922, 41.86922909047897], [-82.94726089948314, 41.88164235156075], [-82.93144104291606, 41.8925832805779], [-82.91464334011049, 41.90195392463347], [-82.89702315797057, 41.90966761187869], [-82.88795086266745, 41.912881880494766], [-82.88264891595566, 41.91461791614376], [-82.87362331604423, 41.917339424352754], [-82.85523328301036, 41.92149360958107], [-82.83653844401948, 41.92389731467577], [-82.8177003452404, 41.924530431937114], [-82.79888630421895, 41.92338733809985], [-82.78953593437691, 41.92215176779758], [-82.78262570420044, 41.92107229397954], [-82.77245078978952, 41.91921211444622], [-82.75245223466314, 41.913926404743485], [-82.7331112587223, 41.90660540247597], [-82.71462966367716, 41.89732633629814], [-82.6972050503177, 41.886188415764295], [-82.68102371843875, 41.873310724854505], [-82.67345010051517, 41.8662584291535], [-82.67045517707088, 41.863321368986945], [-82.66385041717645, 41.85652996624514], [-82.66050472414364, 41.852561209726304], [-82.65459629924472, 41.847649406972934], [-82.65101877134225, 41.84451894531881], [-82.64384880124224, 41.83792997140443], [-82.63050943615858, 41.823741745417685], [-82.61934285236875, 41.80926948130719], [-82.61301608117259, 41.8073656922716], [-82.60367501815908, 41.80377145339652], [-82.60130626877232, 41.80279128123649], [-82.59215326036751, 41.798732593877496], [-82.57450906460421, 41.78926547792105], [-82.55790380379972, 41.77808441855933], [-82.54249947743801, 41.76529936853292], [-82.52845041791224, 41.751038418309435], [-82.51589737950965, 41.735444445060175], [-82.50496612822691, 41.718673681206695], [-82.49576618174956, 41.70089414916422], [-82.48838971221959, 41.68228397796381], [-82.48291062278395, 41.663029618618665], [-82.4793838071761, 41.64332397611446], [-82.47784459974822, 41.623364476738736], [-82.47830842146453, 41.603351090112504], [-82.47895444874325, 41.59679766383684], [-82.47701338111395, 41.59771191073977], [-82.4641185164417, 41.60272981618023], [-82.4278279271906, 41.61542482452411], [-82.41798016107133, 41.61858639899916], [-82.3978555960629, 41.623363935399276], [-82.38763248142617, 41.6249666059599], [-82.37393489859703, 41.626752247958414], [-82.36005043839918, 41.628563003815216], [-82.35150466556618, 41.62949121551108], [-82.33432871751567, 41.63024276145534], [-82.32573024789244, 41.63006433996346], [-82.31129008647376, 41.629453881986954], [-82.31074625269197, 41.62972085759901], [-82.30807818447124, 41.631993666582716], [-82.29160175619923, 41.64339553882996], [-82.27406715990746, 41.65309158504635], [-82.26495325263167, 41.65727098046825], [-82.26356226080364, 41.65786711982312], [-82.25467486575448, 41.66142670532687], [-82.23643595276712, 41.66725218091009], [-82.21772816598593, 41.67130612458671], [-82.19871850635938, 41.673553030562964], [-82.19663218073575, 41.67359874036301], [-82.14974761541251, 41.68716140239035], [-82.14627747750808, 41.68813144824315], [-82.14278376217842, 41.68904055901844], [-82.06058759437622, 41.70963884687564], [-82.05036189208897, 41.711918509211486], [-82.02961769028076, 41.71485824471087], [-82.00868498023809, 41.71561181102077], [-81.99821255310488, 41.71516554641917], [-81.98082241140294, 41.71396729460028], [-81.96959218796155, 41.71287445108782], [-81.94740016346466, 41.70879881992458], [-81.93650909193495, 41.70582837888074], [-81.91008089978925, 41.697812443771056], [-81.90686894109184, 41.69683827606169], [-81.89766659258798, 41.693801943104916], [-81.87975226773588, 41.68640932040771], [-81.87766481730374, 41.68530044882481], [-81.85746402244335, 41.69011798125577], [-81.85731102596415, 41.690154595755054], [-81.84877094042798, 41.69200211895805], [-81.83148518768402, 41.69457086782425], [-81.82277250104752, 41.695286803301556], [-81.81328494765035, 41.695857983618104], [-81.81239007365885, 41.695912388922245], [-81.80660403772207, 41.69626035288648], [-81.80646784973534, 41.696268747940906], [-81.79529775931101, 41.69664443442888], [-81.78411282101492, 41.69639562701912], [-81.7789479035479, 41.69613605725315], [-81.76889016461625, 41.7022594989803], [-81.76854630868213, 41.702468374632325], [-81.76851689615798, 41.70248620082628], [-81.7608981467677, 41.70687767262783], [-81.74508739313431, 41.714649464857104], [-81.72865819726117, 41.720998318074436], [-81.72032786862879, 41.72360180734637], [-81.71386504146544, 41.72546786833051], [-81.71254110850852, 41.72625615019659], [-81.71210767121394, 41.726514630013476], [-81.71005470732877, 41.727737149387394], [-81.70930682355446, 41.72828249098068], [-81.69770607087156, 41.73673822574463], [-81.69752499408143, 41.73687106819251], [-81.69525857315338, 41.73852291781893], [-81.69351675398639, 41.73979232860808], [-81.68504737575714, 41.745965874141255], [-81.65812330599908, 41.76792546314884], [-81.65799494783228, 41.768030579634335], [-81.65641074425666, 41.769322228928445], [-81.65627445039217, 41.76943356750355], [-81.6485750753326, 41.77541628511614], [-81.63234398194986, 41.78622425727922], [-81.61514187304354, 41.79539811942929], [-81.59712830991401, 41.80285357655486], [-81.59483429375574, 41.803611981256154], [-81.59127526584554, 41.807280181800785], [-81.58719752149295, 41.811481649124005], [-81.58630253087595, 41.81240463811005], [-81.58599100180625, 41.81272519531486], [-81.58591987340938, 41.81279822156066], [-81.57754365747768, 41.82091073576965], [-81.55944373986281, 41.83560621935953], [-81.54978006664597, 41.84213980550001], [-81.54969248900093, 41.84219536551139], [-81.5488202114205, 41.84274559689444], [-81.54525641092583, 41.84498081294682], [-81.54331712050876, 41.84619770033601], [-81.5377439323434, 41.84969481841251], [-81.51935482063097, 41.861232162992216], [-81.51427752998828, 41.86441771793264], [-81.51239451575417, 41.86559884663739], [-81.51079479165011, 41.86660286582657], [-81.50871985096661, 41.86790486947747], [-81.50697885459788, 41.86899714171375], [-81.49492868049194, 41.87655774120008], [-81.49205109955928, 41.8783295087497], [-81.48920499481335, 41.88001699515898], [-81.48151396431453, 41.8844915229489], [-81.4751304716597, 41.888205789839], [-81.47432549248254, 41.888674644849296], [-81.47319183510122, 41.88933446813506], [-81.46950588422902, 41.89147942323406], [-81.45381056336514, 41.900611010668776], [-81.44407627393826, 41.90591889584549], [-81.43405052539138, 41.91068528888964], [-81.4109813589052, 41.92087771152567], [-81.39778624390625, 41.926707710048085], [-81.39708479098256, 41.92717059052327], [-81.3882309198826, 41.93268719909049], [-81.36971678225221, 41.94230180790127], [-81.35030671346759, 41.94993392207489], [-81.33020736783116, 41.95550314481874], [-81.30963732569508, 41.95894891084428], [-81.28950011623853, 41.9601917880519], [-81.27580214947305, 41.96559716155903], [-81.27519415495206, 41.965837309857534], [-81.26611309272316, 41.969421707720585], [-81.260779799515, 41.97152655018885], [-81.24699522368805, 41.97748521876984], [-81.20165418559867, 41.997084370720735], [-81.19225437170655, 42.00114796720444], [-81.17868765574481, 42.00643549781852], [-81.16475847564031, 42.01072674694548], [-81.15653421011973, 42.01293575849565], [-81.1271783631528, 42.02485723941601], [-81.114169290908, 42.02962234059537], [-81.10084168110532, 42.033481390332724], [-81.09625692499627, 42.03463816471585], [-81.09625035231724, 42.034641475165806], [-81.07881838460224, 42.04192779956984], [-81.06078118406397, 42.047535517702514], [-81.04229540177849, 42.051416620536486], [-81.03293107553462, 42.05269900750282], [-81.02516874301826, 42.053575703803375], [-81.02468264523651, 42.053630901687406], [-81.01425733473543, 42.05480905780539], [-80.99616029450863, 42.05685389856121], [-80.99365783327626, 42.05713743837562], [-80.98094935546709, 42.05857339445919], [-80.96548183887474, 42.0603210500424], [-80.95247500261547, 42.062697012743186], [-80.95052805585466, 42.06305281828612], [-80.91741421201775, 42.074211622282625], [-80.91073884555313, 42.07646145595806], [-80.90568165586707, 42.07992440795914], [-80.88874408621732, 42.08925873087721], [-80.87098415840133, 42.096913521138866], [-80.85256793256156, 42.102817204378795], [-80.83366760540498, 42.10691457955734], [-80.82408630068845, 42.10827404135905], [-80.82311911943941, 42.108387476196896], [-80.81768311483857, 42.10902471152846], [-80.80972971782789, 42.109957825040446], [-80.80802166883903, 42.110158479714926], [-80.79817250700518, 42.111069248665444], [-80.78716164265067, 42.11126437005495], [-80.76416998123062, 42.11522282403157], [-80.76089568602589, 42.11611543444344], [-80.75195723244843, 42.118551738786834], [-80.74601618521837, 42.12017065954178], [-80.6881681536192, 42.135937305389696], [-80.67213155124419, 42.1403080325138], [-80.67202788970827, 42.1403363975562], [-80.67182104927718, 42.14039287641824], [-80.66119625407704, 42.14328791337851], [-80.64247985933679, 42.14838926535665], [-80.64042471429228, 42.14913718620798], [-80.63171378005917, 42.152306801239995], [-80.62904902384732, 42.15327598808055], [-80.62429405027774, 42.155006427860926], [-80.62220272149851, 42.155767098698554], [-80.61521558158785, 42.15816334492485], [-80.60813769507884, 42.16030220977044], [-80.588079272171, 42.16596120058185], [-80.58568163657425, 42.16663704958291], [-80.58448588015955, 42.16697451427068], [-80.57982978380238, 42.168288209826045], [-80.57637569634817, 42.16926241496921], [-80.5738080254442, 42.16998741602858], [-80.57299927109764, 42.17021394141611], [-80.57296749597204, 42.17022276945518], [-80.56363465557982, 42.172575336365576], [-80.54469801238714, 42.175919502971645], [-80.52553226008696, 42.17742945279409], [-80.5063100777603, 42.17709223432094], [-80.48720908125983, 42.17491096350155], [-80.46840576666303, 42.17090579560603], [-80.4500738794218, 42.165113738987465], [-80.43238280892848, 42.15758831311922], [-80.41549602333238, 42.148399054066964], [-80.39956955906952, 42.13763087196496], [-80.38475057906253, 42.12538326643366], [-80.3711760129131, 42.111769407188284], [-80.35897129165194, 42.09691508833364], [-80.34824918873716, 42.0809575660077], [-80.33910877801061, 42.064044290114246], [-80.33163451824068, 42.04633154186363], [-80.3258954727106, 42.02798298971089], [-80.32194467106332, 42.00916817703466], [-80.31981861929962, 41.990060955530836], [-80.31944639424239, 41.98044827987964], [-80.3194264731294, 41.97908866391694], [-80.31941292128853, 41.977937642651106], [-80.31940598412132, 41.97678541364554], [-80.31930498778281, 41.94462057974252], [-80.31930476667657, 41.943439482673924], [-80.31934482188367, 41.92895585089574], [-80.3192940417368, 41.84969221257292], [-80.31923904279668, 41.76526883948027], [-80.31924131590189, 41.76417614673121], [-80.31924956412306, 41.763082388674796], [-80.319372045504, 41.75116306598117], [-80.31940772437284, 41.73915465275984], [-80.31937308557876, 41.701658017739156], [-80.31937328456978, 41.70113602016324], [-80.31941802741584, 41.67460140334324], [-80.31940992153405, 41.67436536321648], [-80.31935700158819, 41.66979230800394], [-80.31933923867953, 41.541040825055674], [-80.31918688547387, 41.53222635394073], [-80.31916258815089, 41.5302627776522], [-80.31915755805954, 41.528296533633046], [-80.31922465343497, 41.49983526739379], [-80.31920922190059, 41.48931096367698], [-80.31916998256604, 41.463381611269085], [-80.31899721337342, 41.43675220338048], [-80.31899300420915, 41.43545469302325], [-80.31899300000111, 41.416442051652425], [-80.31899765424787, 41.415077574520794], [-80.31924583632662, 41.37869963179817], [-80.31921914530072, 41.372932345380825], [-80.31921785317103, 41.37142377026303], [-80.3192498491561, 41.360447194938516], [-80.31925121524753, 41.36008874248302], [-80.31929921574697, 41.34989156817685], [-80.31933595539792, 41.34216625323789], [-80.3192953477838, 41.340617798976375], [-80.3192833605403, 41.33814387440736], [-80.31928351367176, 41.338143873665366], [-80.31928289217925, 41.338043183018485], [-80.3192678054549, 41.334574930293236], [-80.31916030658536, 41.31790707251042], [-80.31902925191248, 41.31520670081882], [-80.31884054969395, 41.309820451664784], [-80.31879696175982, 41.30442055963417], [-80.3189787676521, 41.270931374259554], [-80.31894499472513, 41.269714688149094], [-80.31890804052547, 41.26760775051176], [-80.31870806849365, 41.25131002991874], [-80.31869301505392, 41.2488561527635], [-80.31870807034157, 41.246399819554526], [-80.31889298634424, 41.23133008991858], [-80.31889299929168, 41.219978519761625], [-80.31883386102511, 41.21045573712089], [-80.31883010958832, 41.20900869220774], [-80.31883683001348, 41.20756013604117], [-80.3191430597505, 41.17049073379823], [-80.31911512803214, 41.145746303019834], [-80.31911683751738, 41.14466336066329], [-80.31915896829678, 41.13483337140867], [-80.3190471149189, 41.12886362542635], [-80.31902088959578, 41.12700073113012], [-80.31901247673132, 41.12555174137885], [-80.31899248583966, 41.11639597824534], [-80.318995509045, 41.114776094880554], [-80.3190276147846, 41.11218379185712], [-80.31916413471528, 41.10494823553094], [-80.31914672012134, 41.103766468638014], [-80.31913311526502, 41.10262030929571], [-80.31912605288547, 41.10146796333417], [-80.31909305565826, 41.091307817102816], [-80.31909202262582, 41.09075149282549], [-80.3190885879871, 41.0833821838308], [-80.31901488482885, 41.0775346505502], [-80.31899110958234, 41.075615786805386], [-80.31895314479439, 41.0741229882682], [-80.31892916345879, 41.07027180804393], [-80.31895975544286, 41.06127776472802], [-80.31892705137919, 41.01553035904108], [-80.31892796681892, 41.01476559682572], [-80.31898942350192, 40.99499788590795], [-80.31900018603713, 40.98710720920667], [-80.31909118601351, 40.92078822152321], [-80.31912302364438, 40.91748363872609], [-80.31920951810913, 40.91417672808182], [-80.31972983698918, 40.89906589365406], [-80.31906142202831, 40.85433372056791], [-80.31904258105838, 40.853078316964734], [-80.31902009414719, 40.850191943111355], [-80.31899203470438, 40.80133679310267], [-80.31899747106627, 40.799742834461554], [-80.31905767142807, 40.7916028720997], [-80.31899102127474, 40.638893389509036], [-80.31924644103995, 40.62870113641522], [-80.32131273707768, 40.60841688712752], [-80.32543226655291, 40.58845319278865], [-80.33156248489739, 40.56901251281591], [-80.339639711462, 40.55029679680564], [-80.34958004009498, 40.53250046343549], [-80.36128021075822, 40.51580838084511], [-80.37461868219158, 40.50039394622768], [-80.38945689448225, 40.486417284581556], [-80.39924652717599, 40.478920302486074], [-80.39923502078926, 40.4785288554517], [-80.40061659474517, 40.458756119158274], [-80.40394854824528, 40.439217236564886], [-80.40633747230432, 40.4295909138769], [-80.41377765929646, 40.40250218176955], [-80.40456929140761, 40.36065583039184], [-80.40269043756138, 40.35098961842019], [-80.40036947850187, 40.33143373292776], [-80.3999828747941, 40.31174926029002], [-80.40153356153992, 40.29212215413376], [-80.40500651150217, 40.272742614820025], [-80.4074551320375, 40.26319976792505], [-80.41045243060633, 40.252609312981896], [-80.41341110590267, 40.24307092059157], [-80.42073884248056, 40.22449155427101], [-80.42509009934129, 40.21549707566346], [-80.43888643805623, 40.188707127020486], [-80.44387105267586, 40.1796149946796], [-80.45522178892945, 40.162261645863666], [-80.46155785669207, 40.15404735338751], [-80.48205332155972, 40.12885538603481], [-80.48878044188204, 40.12100985803913], [-80.49834644834047, 40.11146123338621], [-80.51244967179098, 40.087186550560034], [-80.5220076000667, 40.070728470225234], [-80.53104438459938, 40.043233335555605], [-80.53116670337302, 40.038924446272794], [-80.5317662693261, 40.02723291018778], [-80.53231125973102, 40.01952227888152], [-80.53315449169374, 40.011830772073], [-80.53370099544271, 40.007602611441094], [-80.54177681615974, 39.94514926213136], [-80.54319623522532, 39.93588483586293], [-80.54732923984834, 39.917601664926714], [-80.55315412656009, 39.899790007875666], [-80.56062055529915, 39.882601730649796], [-80.56966297372713, 39.86618773963352], [-80.58020199292949, 39.85069214327968], [-80.59214508441939, 39.83625098689341], [-80.60538739250178, 39.822991058207336], [-80.6150365930701, 39.81498936822783], [-80.63021559808767, 39.69561930769509], [-80.63136212623033, 39.686606154140726], [-80.63288775532943, 39.67663044326246], [-80.63743850885879, 39.6569682098197], [-80.64045254329069, 39.647331850132105], [-80.6425563808581, 39.64115713180427], [-80.6458379649543, 39.63222735272349], [-80.65365732173635, 39.614881686906166], [-80.65817781594556, 39.60650522523641], [-80.70666187058771, 39.52156488912314], [-80.71206782581748, 39.51264289200397], [-80.72424012693477, 39.495700106812244], [-80.73810750263826, 39.480121103112886], [-80.7535219098839, 39.46607099583815], [-80.77031571334538, 39.4537025832293], [-80.78830627643619, 39.44315037470019], [-80.8072979475256, 39.43452912801553], [-80.81710978842565, 39.43097089317202], [-80.82894650567773, 39.42702465472286], [-80.84173883603539, 39.42322903680664], [-80.8547686798935, 39.420291506122545], [-80.86590599681375, 39.41816873446772], [-80.90132984373662, 39.39425199802409], [-80.91356340708722, 39.38444129169071], [-80.93543964834942, 39.36689618768679], [-80.99663311898914, 39.31380775448444], [-81.08454975496478, 39.237534540550165], [-81.09237940358787, 39.23108250303494], [-81.10897305151398, 39.21940695205425], [-81.12665974363019, 39.20947494303426], [-81.14526150450679, 39.20138554420142], [-81.1548507607384, 39.198056823751024], [-81.16280552763472, 39.195519768512874], [-81.17166282378967, 39.19291848397646], [-81.18971404391677, 39.188950500723365], [-81.20804991736888, 39.18666616466553], [-81.22347776348116, 39.18617966707184], [-81.24910547636985, 39.17168574351958], [-81.25990388212193, 39.16600618594497], [-81.28245075937964, 39.156667577355414], [-81.29411219478489, 39.15304588672746], [-81.30344566054768, 39.150456808895996], [-81.31280476812857, 39.148102252669446], [-81.33181370427589, 39.14475916870981], [-81.34141936372593, 39.143778879568515], [-81.35576371075437, 39.14266409605293], [-81.36043825910295, 39.14230029858136], [-81.36971543260768, 39.141794757421245], [-81.38829475398141, 39.14207788313674], [-81.40676304649188, 39.14408336785273], [-81.41591198992253, 39.14572782276592], [-81.4244972590834, 39.147477839237105], [-81.43478979377672, 39.14986063677348], [-81.44723306979274, 39.153801761133906], [-81.45147535441419, 39.14865443959251], [-81.45841804351302, 39.14067063836218], [-81.4735477283546, 39.12583436721776], [-81.49015793155927, 39.11268514463916], [-81.50806582277134, 39.101366649277224], [-81.52707047504632, 39.092005874905986], [-81.53692267688352, 39.08809128638162], [-81.547654105521, 39.08415335768108], [-81.54933800776752, 39.066576184945866], [-81.55310515374579, 39.04735199213542], [-81.55873496135216, 39.02858856376132], [-81.56344921744652, 39.01710300930493], [-81.5571116729479, 38.95332649341608], [-81.55640292027117, 38.94396642392612], [-81.55630567003719, 38.92519348485739], [-81.55796841911355, 38.906498724112495], [-81.56137628304342, 38.888042145956305], [-81.56649925057414, 38.86998628769703], [-81.57329220644411, 38.85249015771499], [-81.57729867578924, 38.843996131557034], [-81.58115822021134, 38.83628803002873], [-81.58610918438376, 38.82701700521114], [-81.59743925241271, 38.80931398671741], [-81.61056118864663, 38.792901627626385], [-81.62533269229462, 38.77795661436319], [-81.64159070414699, 38.764643921470025], [-81.65915575577404, 38.753110504682326], [-81.67783395063653, 38.743483678718455], [-81.68753116683556, 38.739417182420254], [-81.80238375162982, 38.69476684269603], [-81.8114945231212, 38.691476602243945], [-81.83014478828882, 38.68623625647639], [-81.84920978259507, 38.68282550263337], [-81.8588485299925, 38.681815707191575], [-81.89262669883072, 38.6791024968735], [-81.90264446007023, 38.67855028816674], [-81.90632647173948, 38.67862458502756], [-82.09856025446996, 38.95874548691571], [-82.31041254, 39.26745425], [-82.26726697, 39.45649342], [-82.06637284, 39.59157538], [-81.9695302, 39.77341487], [-81.98, 40.23], [-82.17112004, 40.4307763], [-82.78427785, 40.76870779], [-83.01969393995388, 41.030394657915814], [-83.01969393995388, 41.795445644234235]]]}}]}