{"type":"FeatureCollection","features":[{"type":"Feature","properties":{"name":"Central Ohio","source":"The owner's Ohio regions (version 2, Oct 1 2026): estimated borders through the state, drawn on Ohio's county outline (plotly/datasets geojson-counties-fips). Only the lines through Ohio are used; Ohio's own borders and shore come from the Census counties."},"geometry":{"type":"Polygon","coordinates":[[[-82.139279,38.866407],[-82.184428,38.816529],[-82.191172,38.815137],[-82.215759,38.797462],[-82.221566,38.787187],[-82.220449,38.773739],[-82.198882,38.757725],[-82.188268,38.734082],[-82.182467,38.708782],[-82.172066,38.625984],[-82.172066,38.619284],[-82.175167,38.608484],[-82.177267,38.603784],[-82.181967,38.599384],[-82.193824,38.593096],[-82.218967,38.591683],[-82.245969,38.598483],[-82.26207,38.598183],[-82.27427,38.593683],[-82.287102,38.582588],[-82.291271,38.578983],[-82.293871,38.572683],[-82.293271,38.560283],[-82.295571,38.539783],[-82.313935,38.468084],[-82.320223,38.454516],[-82.323999,38.449268],[-82.330335,38.4445],[-82.34064,38.440948],[-82.50667,38.410092],[-82.520178,38.407582],[-82.560664,38.404338],[-82.593673,38.421809],[-82.665485,38.505734],[-82.665548,38.505808],[-82.690509,38.536576],[-82.696621,38.542112],[-82.724846,38.5576],[-82.730958,38.559264],[-82.789776,38.559951],[-82.800112,38.563183],[-82.816012,38.570733],[-82.820161,38.572703],[-82.839538,38.586159],[-82.847186,38.595166],[-82.853554,38.610926],[-82.869592,38.678177],[-82.873492,38.710077],[-82.870392,38.722077],[-82.869992,38.730477],[-82.871292,38.739376],[-82.874466,38.745346],[-82.875492,38.747276],[-82.879492,38.751476],[-82.889193,38.756076],[-82.894193,38.756576],[-82.923694,38.750076],[-82.943147,38.74328],[-82.968695,38.728776],[-82.979395,38.725976],[-83.011816,38.730057],[-83.030702,38.72572],[-83.030889,38.72556],[-83.127652,38.642451],[-83.135046,38.631719],[-83.142836,38.625076],[-83.156926,38.620547],[-83.265769,38.605278],[-83.2821,38.602987],[-83.320531,38.622713],[-83.324157,38.633326],[-83.333347,38.641562],[-83.369077,38.659334],[-83.512571,38.701716],[-83.4,38.66848557],[-83.4,38.67029915],[-83.4,38.6899269],[-83.4,38.70955468],[-83.4,38.72918248],[-83.4,38.74881031],[-83.4,38.76843817],[-83.4,38.77],[-83.39990917,38.788075],[-83.39965557,38.80772784],[-83.39932145,38.82738861],[-83.39898994,38.84704915],[-83.39874422,38.86670129],[-83.3986676,38.88633687],[-83.39884344,38.90594773],[-83.39935521,38.9255257],[-83.4,38.94],[-83.40030964,38.94506366],[-83.40216577,38.96457852],[-83.40484825,38.98408312],[-83.40805757,39.00358306],[-83.4114939,39.02308393],[-83.41485709,39.04259138],[-83.41784666,39.06211109],[-83.42,39.08],[-83.42016323,39.08164886],[-83.42182579,39.1012238],[-83.42309216,39.12083621],[-83.42411613,39.14047071],[-83.42505165,39.16011191],[-83.42605284,39.17974442],[-83.42727399,39.19935282],[-83.42886955,39.21892172],[-83.43,39.23],[-83.43101509,39.23843844],[-83.43390885,39.25791764],[-83.43740009,39.27737131],[-83.44128248,39.29680803],[-83.44534945,39.3162364],[-83.44939423,39.33566502],[-83.45320981,39.35510254],[-83.45658897,39.37455763],[-83.45932427,39.39403898],[-83.46,39.4],[-83.46121174,39.41362876],[-83.46228606,39.4334909],[-83.46281674,39.45352096],[-83.46308039,39.47359828],[-83.46335394,39.49360215],[-83.46391462,39.51341187],[-83.46503994,39.53290675],[-83.4670077,39.55196604],[-83.47,39.57],[-83.47009686,39.57046908],[-83.47579459,39.58847155],[-83.48478663,39.60614913],[-83.49634807,39.62358141],[-83.50975329,39.64084808],[-83.52427601,39.65802904],[-83.5391893,39.67520445],[-83.55376559,39.69245485],[-83.56727671,39.70986108],[-83.5789938,39.72750431],[-83.58818734,39.7454659],[-83.59,39.75],[-83.59475172,39.76386288],[-83.60000496,39.78276311],[-83.60430451,39.80205758],[-83.60794992,39.82163127],[-83.61124104,39.84136911],[-83.61447803,39.861156],[-83.61796134,39.88087678],[-83.62199172,39.90041626],[-83.62687025,39.91965921],[-83.63,39.93],[-83.63285143,39.93852813],[-83.63975488,39.95722748],[-83.64743102,39.97581917],[-83.65577786,39.99431686],[-83.66469329,40.0127342],[-83.67407511,40.03108487],[-83.68382101,40.0493826],[-83.69382859,40.06764112],[-83.70399535,40.08587419],[-83.71421869,40.10409561],[-83.72439591,40.12231923],[-83.73442422,40.14055891],[-83.74420073,40.15882855],[-83.75,40.17],[-83.75372211,40.17713022],[-83.7638133,40.19536612],[-83.77449778,40.21353158],[-83.78554655,40.23165178],[-83.79673038,40.24975199],[-83.80781984,40.26785757],[-83.81858525,40.28599393],[-83.82879675,40.30418659],[-83.83822424,40.32246111],[-83.84663738,40.34084315],[-83.85380562,40.35935836],[-83.85949817,40.37803246],[-83.86,40.38],[-83.86371219,40.39697447],[-83.86687438,40.41626403],[-83.86928986,40.4358119],[-83.87126189,40.45552747],[-83.87309406,40.47532006],[-83.87509026,40.49509899],[-83.87755473,40.51477356],[-83.88,40.53],[-83.88078747,40.53425811],[-83.88484779,40.55362958],[-83.88955329,40.57295397],[-83.89473048,40.59224318],[-83.90020567,40.61150912],[-83.905805,40.63076373],[-83.91135442,40.65001898],[-83.9166797,40.66928687],[-83.92160642,40.68857944],[-83.92595996,40.70790874],[-83.92956555,40.72728684],[-83.93,40.73],[-83.93253564,40.74672477],[-83.9352782,40.76622068],[-83.93780063,40.78576561],[-83.94010327,40.80535059],[-83.94218648,40.82496662],[-83.94405062,40.84460471],[-83.94569605,40.86425586],[-83.94712312,40.88391108],[-83.94833218,40.90356136],[-83.94932358,40.92319771],[-83.95,40.94],[-83.92330094,40.93748714],[-83.89673809,40.93503767],[-83.87031222,40.93265057],[-83.84402405,40.93032481],[-83.81787434,40.92805938],[-83.79186384,40.92585323],[-83.7659933,40.92370536],[-83.74026349,40.92161472],[-83.72,40.92],[-83.71466807,40.91963391],[-83.68899957,40.91929463],[-83.66318699,40.92097537],[-83.63726531,40.92423681],[-83.61127012,40.92863969],[-83.58523767,40.93374478],[-83.55920485,40.93911286],[-83.53320923,40.94430475],[-83.507289,40.94888127],[-83.5,40.95],[-83.48145307,40.95275813],[-83.45563906,40.9566745],[-83.42984141,40.96067002],[-83.40405866,40.96473532],[-83.37828935,40.96886103],[-83.35253205,40.97303778],[-83.32678533,40.97725619],[-83.30104777,40.98150688],[-83.27531798,40.98578049],[-83.25,40.99],[-83.24959458,40.99006764],[-83.22387877,40.99437957],[-83.19817251,40.9987321],[-83.17247574,41.00312448],[-83.14678839,41.00755594],[-83.12111039,41.01202572],[-83.09544169,41.01653304],[-83.06978223,41.02107715],[-83.04413195,41.02565728],[-83.02,41.03],[-83.019423,41.02698833],[-83.01418823,41.00935571],[-83.00606019,40.9916482],[-82.99545446,40.97394137],[-82.98278616,40.95631076],[-82.96846993,40.93883197],[-82.95291993,40.92158067],[-82.93654983,40.90463273],[-82.91977279,40.88806417],[-82.90300153,40.87195124],[-82.88664829,40.85637039],[-82.88,40.85],[-82.87083967,40.84131498],[-82.85457023,40.82646228],[-82.83774024,40.81177295],[-82.8203888,40.79724925],[-82.80255499,40.78289344],[-82.78427785,40.76870779],[-82.76559637,40.75469462],[-82.74654951,40.74085622],[-82.72717618,40.72719494],[-82.70751526,40.71371313],[-82.68760559,40.70041317],[-82.66748598,40.68729747],[-82.6471952,40.67436844],[-82.62677199,40.66162854],[-82.60625505,40.64908023],[-82.58568305,40.63672602],[-82.56509464,40.62456843],[-82.54452842,40.61261001],[-82.54,40.61],[-82.52376724,40.60093893],[-82.50232198,40.589711],[-82.48028197,40.57886779],[-82.45775763,40.56834355],[-82.43485934,40.55807258],[-82.4116975,40.54798928],[-82.38838256,40.53802812],[-82.36502495,40.52812365],[-82.34173513,40.51821052],[-82.31862362,40.50822344],[-82.29580092,40.49809721],[-82.27337756,40.48776672],[-82.2514641,40.47716692],[-82.23017108,40.46623285],[-82.20960905,40.4548996],[-82.18988854,40.44310235],[-82.17112004,40.4307763],[-82.17,40.43],[-82.15280565,40.41775512],[-82.13433982,40.40393714],[-82.11591691,40.38940351],[-82.09773369,40.37423606],[-82.07998668,40.35851672],[-82.06287211,40.34232752],[-82.04658595,40.32575058],[-82.03132388,40.30886812],[-82.0172813,40.29176243],[-82.00465333,40.27451582],[-81.99363482,40.25721068],[-81.9844204,40.23992936],[-81.98,40.23],[-81.97705617,40.22266663],[-81.97045078,40.20478632],[-81.96437646,40.18623659],[-81.95887275,40.16713036],[-81.9539791,40.14758056],[-81.94973486,40.12770011],[-81.94617926,40.10760192],[-81.9433515,40.08739887],[-81.94129068,40.06720387],[-81.94003584,40.04712977],[-81.93962597,40.02728943],[-81.94,40.01],[-81.94009464,40.00779165],[-81.9409817,39.98836163],[-81.94200068,39.96880249],[-81.94319097,39.94914978],[-81.94459192,39.92943909],[-81.94624284,39.90970596],[-81.94818298,39.88998595],[-81.95045158,39.87031462],[-81.95308782,39.8507275],[-81.95613086,39.83126014],[-81.95961982,39.81194805],[-81.96,39.81],[-81.9639396,39.79270724],[-81.9695302,39.77341487],[-81.97626009,39.75413258],[-81.98399319,39.73492356],[-81.99259362,39.71585103],[-82.00192566,39.69697819],[-82.0118538,39.67836831],[-82.02224269,39.66008465],[-82.0329572,39.64219053],[-82.04386236,39.6247493],[-82.05482337,39.60782436],[-82.06,39.6],[-82.06637284,39.59157538],[-82.08169482,39.57646927],[-82.10046316,39.56235547],[-82.12178195,39.54899409],[-82.14475587,39.53614566],[-82.16849001,39.52357128],[-82.19208983,39.51103268],[-82.2146611,39.4982923],[-82.23530991,39.48511318],[-82.25314283,39.47125891],[-82.26726697,39.45649342],[-82.27679023,39.44058078],[-82.28,39.43],[-82.28127856,39.42330005],[-82.28480625,39.40475104],[-82.28849434,39.38527083],[-82.29227969,39.36519217],[-82.2960993,39.34484779],[-82.2998903,39.32457042],[-82.30358996,39.3046928],[-82.30713569,39.28554766],[-82.31,39.27],[-82.31041254,39.26745425],[-82.31039336,39.24986191],[-82.30586928,39.23232304],[-82.29756932,39.21482093],[-82.28622176,39.19733865],[-82.27255421,39.1798593],[-82.25729356,39.16236612],[-82.24116603,39.14484263],[-82.22489716,39.12727269],[-82.20921179,39.10964053],[-82.19483408,39.09193075],[-82.18248748,39.07412824],[-82.18,39.07],[-82.17200802,39.05623899],[-82.16171065,39.03830356],[-82.15152545,39.02032328],[-82.14145617,39.00229774],[-82.13150658,38.98422652],[-82.1216804,38.9661092],[-82.11198139,38.94794536],[-82.1072784,38.93899548],[-82.098762,38.958288],[-82.139279,38.866407]]]}}]}
