{"type":"FeatureCollection","features":[{"type":"Feature","properties":null,"geometry":{"type":"MultiPolygon","coordinates":[[[[35.77967947986558,32.75197718472685],[35.77967947986558,32.75210200939064],[35.779561254124914,32.75193557650559],[35.77967947986558,32.75197718472685]]],[[[35.803974869571775,32.78199751636888],[35.82300921381848,32.793106911446394],[35.823038770253646,32.79312771555703],[35.823038770253646,32.79314851966766],[35.824280140530604,32.79716371301964],[35.82439836627127,32.79735095001533],[35.845412991674074,32.82052672925942],[35.84544254810924,32.82054753337005],[35.84544254810924,32.82056833748069],[35.84629968472905,32.830741547579755],[35.84361004912897,32.82697600355535],[35.824959938539415,32.80367539964747],[35.803974869571775,32.78199751636888]]],[[[35.8568513320832,32.8697284509042],[35.85918629046129,32.875886467651284],[35.85971830629427,32.87626094164266],[35.865393141846084,32.87688506496162],[35.865452254716416,32.87690586907225],[35.877274828782696,32.88069221720728],[35.87733394165303,32.880713021317916],[35.883008777204836,32.88360479269577],[35.88303833364,32.883625596806404],[35.88900873354348,32.88747435727333],[35.88900873354348,32.88749516138396],[35.88900873354348,32.88751596549459],[35.88971808798745,32.89313307536524],[35.88968853155229,32.893153879475875],[35.88679200090605,32.900788988077835],[35.886821557341214,32.90118426617985],[35.889126959284134,32.905449108859415],[35.88968853155229,32.90576117051889],[35.89577715719642,32.90596921162521],[35.895806713631586,32.90596921162521],[35.895806713631586,32.905990015735846],[35.89784610765802,32.90904821999875],[35.897875664093185,32.909069024109385],[35.897875664093185,32.90908982822002],[35.89923526011081,32.91682895737514],[35.89923526011081,32.91684976148577],[35.89923526011081,32.916870565596405],[35.8963978423349,32.92188435625872],[35.8963978423349,32.921905160369356],[35.89158014340289,32.925254622181114],[35.89152103053256,32.9260243742745],[35.91416125986948,32.947244567119185],[35.91419081630465,32.947244567119185],[35.91419081630465,32.94726537122981],[35.926042946806085,32.968360739410706],[35.92607250324125,32.96838154352133],[35.92607250324125,32.968402347631965],[35.92518581018628,32.97545494113623],[35.925570043843436,32.975995848012666],[35.9376586258262,32.98071838112614],[35.93768818226137,32.980739185236764],[35.93768818226137,32.9807599893474],[35.939550237676805,32.987625345855975],[35.939550237676805,32.987666954077234],[35.939845802028465,32.98956012814475],[35.939845802028465,32.989580932255386],[35.939845802028465,32.98960173636602],[35.9396389069823,32.990329880238136],[35.9396389069823,32.990433900791295],[35.93960935054714,32.99134928165911],[35.93975713272297,32.99172375565048],[35.94014136638012,32.99207742553123],[35.940170922815284,32.99207742553123],[35.940170922815284,32.99209822964186],[35.940170922815284,32.992119033752495],[35.94043693073178,32.993138435173464],[35.94043693073178,32.99318004339473],[35.94082116438893,32.99869313271222],[35.94082116438893,32.99871393682285],[35.94079160795377,32.998734740933486],[35.937629069391036,33.00389416037023],[35.937569956520704,33.004039789144656],[35.933136491245854,33.024053343572675],[35.933136491245854,33.02407414768331],[35.93310693481069,33.02409495179394],[35.9265454062039,33.02636259985283],[35.926515849768734,33.02636259985283],[35.926486293333575,33.02636259985283],[35.91821049148718,33.024864703887324],[35.91785581426519,33.02488550799796],[35.91244698662987,33.0264042080741],[35.9124174301947,33.02642501218473],[35.90015150960094,33.02756923826949],[35.90012195316577,33.02756923826949],[35.89489046414145,33.026924310839895],[35.89486090770628,33.026924310839895],[35.894831351271115,33.02690350672927],[35.893530868123825,33.02209775717326],[35.89288062655018,33.021681674960625],[35.8892451850248,33.02174408729252],[35.88921562858963,33.02174408729252],[35.889186072154466,33.021723283181885],[35.88091027030807,33.01822819259571],[35.88091027030807,33.018207388485074],[35.880880713872905,33.01818658437444],[35.87839797331899,33.01537802943911],[35.88463438113895,32.97435232327273],[35.89769832548219,32.963867051514185],[35.90094953335041,32.938735685870675],[35.899264816545966,32.936676078918104],[35.88744224247969,32.922113201475675],[35.879048214892634,32.91279295991252],[35.86902858337147,32.900893008630995],[35.86412221513396,32.89506785765403],[35.85664443703704,32.87081026465707],[35.8568513320832,32.8697284509042]]],[[[35.874851201099105,33.051181903836856],[35.87517632188593,33.05130672850065],[35.8752058783211,33.05130672850065],[35.8752058783211,33.05132753261128],[35.87594478920024,33.055342725963264],[35.87594478920024,33.055405138295164],[35.875826563459576,33.060002846744844],[35.87579700702441,33.06002365085548],[35.874673862488116,33.063477133220395],[35.87464430605295,33.06353954555229],[35.87378716943314,33.06811644989134],[35.87378716943314,33.06813725400197],[35.87360983082215,33.06886539787409],[35.87343249221115,33.065744781279285],[35.874851201099105,33.051181903836856]]],[[[35.874082733784796,33.07837287643294],[35.87762950600468,33.07953790662833],[35.877895513921175,33.07957951484959],[35.881649181187214,33.07941308196454],[35.88197430197404,33.07930906141138],[35.88679200090605,33.07650050647605],[35.886821557341214,33.07650050647605],[35.88685111377638,33.07647970236542],[35.897964333398676,33.0752314557275],[35.898259897750336,33.07512743517434],[35.908545537188,33.06892781020599],[35.90857509362316,33.06892781020599],[35.90860465005833,33.06892781020599],[35.916584887553064,33.06886539787409],[35.91661444398823,33.06886539787409],[35.92217105379938,33.0697807787419],[35.92220061023455,33.0697807787419],[35.92223016666971,33.069801582852534],[35.9246537943533,33.07252692134533],[35.9246537943533,33.07254772545596],[35.92500847157529,33.077374279122594],[35.92500847157529,33.07739508323323],[35.92500847157529,33.07741588734386],[35.92350109338184,33.08180555468722],[35.92350109338184,33.081826358797855],[35.92347153694667,33.081826358797855],[35.92004299046745,33.08311621365704],[35.91968831324546,33.08351149175905],[35.91850605583883,33.08810920020873],[35.91850605583883,33.08829643720442],[35.919333636023474,33.09299816620726],[35.91951097463447,33.093289423756104],[35.92237794884554,33.09570270058943],[35.922525731021366,33.095785917031954],[35.93047641208094,33.09961387338825],[35.93047641208094,33.099634677498884],[35.93050596851611,33.09965548160951],[35.93281137045903,33.10652083811809],[35.93281137045903,33.10654164222872],[35.93281137045903,33.106562446339346],[35.93148133087657,33.113448606958556],[35.93148133087657,33.11346941106919],[35.931451774441406,33.113490215179816],[35.92494935870496,33.11661083177462],[35.92491980226979,33.116631635885255],[35.919540531069636,33.118254356514555],[35.91927452315314,33.11839998528898],[35.91318589750901,33.124266744487215],[35.913156341073844,33.12428754859785],[35.90479186992195,33.129467772145226],[35.90493965209778,33.13040395712367],[35.91218097871338,33.133025275063304],[35.91218097871338,33.13304607917394],[35.91218097871338,33.13306688328457],[35.91829916079268,33.161568514850465],[35.91826960435751,33.1615893189611],[35.912062752972716,33.166852758951],[35.911914970796886,33.16706080005732],[35.908338642141835,33.175923351186576],[35.90830908570667,33.175964959407835],[35.90455541844063,33.1813948322828],[35.904525862005464,33.1813948322828],[35.90304804024718,33.180833121295734],[35.90281158876585,33.18079151307447],[35.90041751751743,33.180729100742575],[35.90038796108227,33.180729100742575],[35.9003584046471,33.18070829663194],[35.89749143043603,33.17933522533023],[35.89746187400086,33.179314421219594],[35.893678650299655,33.17681792794375],[35.89347175525349,33.176734711501226],[35.89137324835673,33.176173000514154],[35.891018571134744,33.17615219640353],[35.887737806831346,33.17681792794375],[35.887501355350025,33.17690114438628],[35.88599397715657,33.177795721143454],[35.885905307851075,33.177858133475354],[35.88359990590815,33.17985532809603],[35.883452123732326,33.18006336920235],[35.88274276928835,33.18183171860607],[35.88271321285318,33.18206056382302],[35.88283143859385,33.182996748801465],[35.88292010789934,33.18324639812905],[35.88498905836094,33.18601334484311],[35.8850186147961,33.18605495306438],[35.89190526418971,33.19316995890053],[35.891934820624876,33.19316995890053],[35.891934820624876,33.1932115671218],[35.89326486020733,33.19597851383586],[35.89326486020733,33.195999317946495],[35.89317619090183,33.19810053312033],[35.89403332752164,33.19864143999676],[35.90624013524507,33.19525036996374],[35.906506143161565,33.19510474118931],[35.91623021033108,33.18659585994081],[35.916259766766245,33.186575055830176],[35.921845933012555,33.18399534611181],[35.92187548944772,33.18399534611181],[35.92190504588289,33.18399534611181],[35.928791695276495,33.18601334484311],[35.92882125171166,33.18601334484311],[35.92882125171166,33.186034148953745],[35.93142221800624,33.191609650603134],[35.931451774441406,33.19165125882439],[35.93219068532055,33.19901591398814],[35.93219068532055,33.1990575222094],[35.930771976432595,33.213329142102985],[35.930771976432595,33.21334994621361],[35.930771976432595,33.213370750324245],[35.92497891514012,33.21692825324232],[35.92494935870496,33.21692825324232],[35.92491980226979,33.21692825324232],[35.907511061957194,33.21819730399088],[35.907422392651696,33.21821810810151],[35.899708163073456,33.21967439584576],[35.89967860663829,33.21967439584576],[35.899649050203124,33.21967439584576],[35.89004320877427,33.21828052043341],[35.889806757292945,33.21828052043341],[35.878959545587136,33.22011128216903],[35.87866398123548,33.22023610683282],[35.86961971207478,33.22635251535864],[35.86941281702862,33.22660216468623],[35.86350152999548,33.241414691456235],[35.86350152999548,33.241477103788135],[35.85232919750285,33.28768303350189],[35.85238831037318,33.28803670338264],[35.85430947865895,33.29130294875187],[35.85466415588094,33.29157340219009],[35.87570833771891,33.29748176960959],[35.87573789415408,33.297502573720216],[35.87573789415408,33.29752337783085],[35.87892998915197,33.30058158209376],[35.87946200498496,33.30076881908945],[35.892378167152366,33.2999574587748],[35.89246683645786,33.299936654664165],[35.9144863806563,33.29623352297166],[35.914515937091466,33.296212718861035],[35.91454549352663,33.29623352297166],[35.92323508546534,33.29914609846015],[35.92332375477084,33.29916690257078],[35.93346161203267,33.30116409719146],[35.93349116846784,33.30116409719146],[35.93349116846784,33.30118490130209],[35.939225116889986,33.306115475521885],[35.939225116889986,33.30613627963252],[35.939166004019654,33.310609163418405],[35.939313786195484,33.310983637409784],[35.94221031684172,33.31366736768131],[35.94253543762854,33.31383380056637],[35.949303861281486,33.31539410886377],[35.94942208702215,33.315414912974404],[35.96032841159829,33.316018232182735],[35.960357968033456,33.316018232182735],[35.969431793629326,33.3193052816626],[35.969461350064485,33.31932608577323],[35.969461350064485,33.31934688988386],[35.9711756233041,33.326690740936975],[35.9711756233041,33.3267115450476],[35.9711756233041,33.326732349158235],[35.96839731839852,33.34029662929033],[35.96839731839852,33.34031743340096],[35.96836776196336,33.34033823751159],[35.9591165977565,33.35431859985632],[35.959057484886166,33.35438101218822],[35.95087035234527,33.372584608991254],[35.9508407959101,33.37283425831884],[35.95214127905739,33.383527571183706],[35.95222994836289,33.38375641640066],[35.96156978187525,33.396467727996836],[35.961747120486244,33.396634160881895],[35.979835658807644,33.40726506141487],[35.980131223159304,33.407348277857395],[35.98950061310683,33.408388483389],[35.98953016954199,33.408388483389],[36.00200298518192,33.410926584886106],[36.00203254161708,33.41094738899674],[36.01075168999096,33.416065200212216],[36.01078124642613,33.41608600432285],[36.012938866193224,33.4222232169593],[36.01302753549872,33.42238964984436],[36.019795959151665,33.43021199544201],[36.019795959151665,33.43025360366327],[36.017904347301055,33.43524659021496],[36.01787479086589,33.43526739432559],[36.01486003447899,33.4367652902911],[36.01483047804383,33.4367652902911],[36.01480092160866,33.4367652902911],[36.007766490039224,33.436307599857194],[36.00773693360406,33.436307599857194],[36.00773693360406,33.43628679574656],[36.00176653370059,33.43385271480261],[36.00147096934893,33.43379030247072],[35.99292915958605,33.433977539466404],[35.99289960315088,33.433977539466404],[35.992870046715716,33.433977539466404],[35.98267307658355,33.429546263901784],[35.9823775122319,33.429483851569884],[35.971352961915095,33.42933822279546],[35.97088005895244,33.42950465568052],[35.96688994020507,33.43291652982417],[35.966683045158916,33.433228591483655],[35.966032803585264,33.4378054958227],[35.96612147289076,33.43813836159281],[35.97082094608211,33.44483728521633],[35.97102784112827,33.445024522212016],[35.9812543676956,33.45030876631256],[35.9812543676956,33.45032957042319],[35.981283924130764,33.45035037453382],[35.992958716021214,33.46957337275783],[35.992958716021214,33.46959417686846],[35.992958716021214,33.46961498097909],[35.99319516750254,33.47227790713999],[35.99319516750254,33.47229871125062],[35.993165611067376,33.47231951536126],[35.9884956943112,33.47398384421182],[35.98846613787603,33.47398384421182],[35.988436581440865,33.47398384421182],[35.984712470609985,33.47402545243308],[35.98468291417482,33.47402545243308],[35.98468291417482,33.47400464832245],[35.982732189453884,33.471716196152926],[35.98231839936157,33.47150815504661],[35.977855377651544,33.47082161939575],[35.977530256864725,33.470863227617016],[35.97566820144928,33.47142493860408],[35.975638645014115,33.47142493860408],[35.96925445501833,33.4721530824762],[35.968781552055674,33.472423535914416],[35.968456431268855,33.47292283456959],[35.96842687483369,33.47294363868022],[35.96839731839852,33.47296444279085],[35.96260425710605,33.47489922507963],[35.96254514423572,33.47489922507963],[35.960151072987294,33.47535691551354],[35.96009196011696,33.47535691551354],[35.95305752854753,33.475835410058075],[35.953027972112366,33.475835410058075],[35.953027972112366,33.47581460594744],[35.952525512714544,33.47537771962417],[35.95249595627938,33.4753361114029],[35.95217083549256,33.47483681274773],[35.95214127905739,33.47479520452647],[35.952052609751895,33.47433751409257],[35.95199349688156,33.4742334935394],[35.95172748896507,33.47369258666297],[35.951431924613416,33.47342213322475],[35.950752126604606,33.473130875675906],[35.950752126604606,33.47311007156527],[35.95072257016944,33.47308926745464],[35.95051567512328,33.472423535914416],[35.95051567512328,33.47240273180378],[35.95051567512328,33.47236112358252],[35.950752126604606,33.471716196152926],[35.950752126604606,33.47142493860408],[35.95036789294745,33.47032232074058],[35.95010188503096,33.4700102590811],[35.950072328595795,33.4700102590811],[35.94933341771665,33.47005186730237],[35.94918563554082,33.470155887855526],[35.949156079105656,33.470155887855526],[35.94912652267049,33.47017669196616],[35.94821027318036,33.47048875362564],[35.94818071674519,33.47048875362564],[35.948151160310026,33.47048875362564],[35.94643688707041,33.46967739331099],[35.946407330635246,33.469656589200355],[35.94546152470995,33.46886603299634],[35.945402411839616,33.46882442477507],[35.94507729105279,33.46851236311559],[35.94407237225716,33.46815869323485],[35.9437768079055,33.46788823979663],[35.94253543762854,33.46680642604377],[35.942062534665894,33.46639034383112],[35.939845802028465,33.46460119031677],[35.937392617909715,33.46260399569609],[35.93697882781739,33.462291934036614],[35.93541233675361,33.46104368739869],[35.933668507078835,33.45971222431824],[35.932220241755715,33.458672018786636],[35.93142221800624,33.45815191602084],[35.93127443583042,33.458068699578305],[35.9305946378216,33.457631813255034],[35.93012173485895,33.45736135981682],[35.928259679443514,33.456404370727746],[35.926574962639066,33.4555305980812],[35.92518581018628,33.454885670651606],[35.92394443990932,33.45421993911138],[35.92326464190051,33.45376224867748],[35.92208238449388,33.45301330069472],[35.92125480430924,33.45245158970766],[35.919629200375134,33.451411384176055],[35.91812182218168,33.45032957042319],[35.917796701394856,33.45007992109561],[35.91676222616406,33.44931016900222],[35.915579968757434,33.44845720046631],[35.91410214699915,33.447458603155965],[35.913363236120006,33.44687608805827],[35.91274255098153,33.446376789403104],[35.9114716242694,33.445357387982135],[35.911087390612245,33.445024522212016],[35.909018440150646,33.44315215225514],[35.907717957003356,33.44196631794911],[35.90736327978137,33.44165425628963],[35.905885458023086,33.44034359731981],[35.90479186992195,33.439345000009475],[35.90381650756149,33.438471227362925],[35.902929814506514,33.437618258827015],[35.90204312145154,33.43697333139742],[35.90077219473942,33.43612036286151],[35.89967860663829,33.43530900254686],[35.89864413140749,33.43470568333853],[35.89843723636133,33.434580858674735],[35.897580099741525,33.434081560019564],[35.89592493937224,33.433124570930495],[35.89494957701178,33.43258366405406],[35.89347175525349,33.43173069551815],[35.89220082854137,33.430898531092865],[35.88965897511712,33.42962948034431],[35.88744224247969,33.42852686248081],[35.88661466229505,33.42808997615754],[35.884900389055446,33.42719539940036],[35.88348168016749,33.42648805963887],[35.882092527714704,33.42578071987738],[35.8771861594772,33.423367443044064],[35.87496942683977,33.42226482518057],[35.87360983082215,33.42197356763172],[35.871570436795714,33.42134944431276],[35.86947192989895,33.42064210455127],[35.86775765665934,33.420080393564206],[35.866841407169204,33.41983074423662],[35.865688706197744,33.41949787846651],[35.864388223050454,33.41895697159007],[35.86338330425482,33.418457672934906],[35.862939957727335,33.41814561127542],[35.86258528050534,33.4179375701691],[35.86063455578441,33.41681414819497],[35.860338991432755,33.416647715309914],[35.85894983897997,33.41596117965906],[35.85617153407439,33.41419283025534],[35.856082864768894,33.41415122203407],[35.854545930140276,33.41327744938752],[35.85253609254901,33.41225804796655],[35.85046714208741,33.4110514095499],[35.84833907875548,33.40976155469071],[35.846092789682885,33.40845089572089],[35.84567899959057,33.408201246393304],[35.845619886720236,33.40818044228268],[35.844703637230104,33.4077435559594],[35.84361004912897,33.407181844972335],[35.8416002115377,33.40597520655568],[35.840211059084915,33.40505982568787],[35.840063276909085,33.40497660924534],[35.83896968880796,33.404206857151955],[35.836546061124366,33.402896198182134],[35.8345362235331,33.40175197209737],[35.83353130473747,33.40110704466778],[35.833413078996806,33.40104463233588],[35.8324672730715,33.40058694190198],[35.83069388696156,33.40006683913618],[35.82924562163844,33.399401107595956],[35.82835892858348,33.39892261305142],[35.82827025927798,33.39888100483015],[35.828152033537314,33.398797788387625],[35.82726534048234,33.39823607740056],[35.82599441377022,33.39729989242212],[35.82507816428008,33.39638451155431],[35.82504860784491,33.396363707443676],[35.82401413261412,33.39528189369081],[35.823127439559144,33.39426249226984],[35.82244764155033,33.39363836895088],[35.821501835625035,33.39253575108738],[35.821058489097545,33.39151634966641],[35.82029002178324,33.38958156737763],[35.81987623169092,33.38885342350551],[35.81931465942277,33.3879380426377],[35.81887131289528,33.38702266176989],[35.81848707923813,33.38537913702996],[35.818250627756804,33.38467179726847],[35.81813240201615,33.38408928217077],[35.81795506340515,33.3831322930817],[35.8183392970623,33.382071283439466],[35.81836885349747,33.381967262886306],[35.818546192108464,33.381197510792916],[35.8185166356733,33.380219717593214],[35.8185166356733,33.38009489292942],[35.81828018419197,33.37907549150845],[35.81786639409965,33.37745277087915],[35.81774816835899,33.37651658590071],[35.81736393470184,33.37512271048836],[35.816625023822695,33.374040896735494],[35.81597478224905,33.37343757752717],[35.81562010502706,33.373083907646425],[35.8154132099809,33.37270943365505],[35.81505853275891,33.37202289800419],[35.81499941988858,33.3713155582427],[35.81526542780507,33.37035856915362],[35.81573833076772,33.369131126626336],[35.816004338684216,33.3680701169841],[35.816329459471035,33.36719634433756],[35.816861475304016,33.36607292236342],[35.81721615252601,33.36451261406602],[35.81721615252601,33.364034119521484],[35.82377768113279,33.36151682213501],[35.82096981979205,33.354339403966954],[35.81511764562924,33.3476196762328],[35.81366938030612,33.346662687143734],[35.813048695167645,33.34626740904172],[35.842339122416845,33.32843828623006],[35.85105827079072,33.323154042129524],[35.817482160442495,33.285852271766274],[35.82215207719868,33.275575041114045],[35.83613227103205,33.26531861457245],[35.85014202130059,33.2532106221846],[35.84733415995985,33.21122792692915],[35.863176409208656,33.197247564584416],[35.86784632596484,33.17671390739059],[35.8659842705494,33.164605915002745],[35.85105827079072,33.14500844278736],[35.845472104544406,33.132879646288885],[35.84174799371353,33.12262321974728],[35.853866132131465,33.11330297818413],[35.875294547626595,33.10211036666409],[35.874082733784796,33.07837287643294]]]]}}],"properties":{"source":"The owner's IDF control map (data/idf-control.kml, 100 areas merged, gaps under 120 m closed)","fetched":"2026-10-07T13:47:04.198Z","cleaned":"5 slivers and walled-in pockets of the rest (0.66 km² in all) given to the held part"}}