{"type":"FeatureCollection","name":"Ohio Chabad custom regional estimate \u2014 version 2","as_of":"2026-10-01","official_boundaries_verified":false,"crs_note":"RFC 7946 WGS84 longitude, latitude","geometry_source":"https://raw.githubusercontent.com/plotly/datasets/master/geojson-counties-fips.json","features":[{"type":"Feature","id":"michigan_toledo","properties":{"assigned_network_id":"michigan_toledo","assigned_network":"Toledo / Michigan","color":"#efb677","boundary_status":"Estimated custom cartographic allocation; not official","official_boundary_verified":false,"mapped_area_sqmi":4319,"mapped_ohio_percent":10.4,"county_boundaries_used_as_borders":false},"geometry":{"type":"Polygon","coordinates":[[[-84.80358,41.270942],[-84.803581,41.271079],[-84.803582,41.271273],[-84.803926,41.367959],[-84.804133,41.408292],[-84.804046,41.408361],[-84.804015,41.411655],[-84.803956,41.426044],[-84.803956,41.426128],[-84.803919,41.435531],[-84.804457,41.488224],[-84.804551,41.500364],[-84.804729,41.530092],[-84.804729,41.530135],[-84.804729,41.530231],[-84.805812,41.61304],[-84.805696,41.631398],[-84.805673,41.632342],[-84.80621,41.67455],[-84.806082,41.696089],[-84.438067,41.704903],[-84.399546,41.705758],[-84.39943,41.705761],[-84.396547,41.705935],[-84.360419,41.706925],[-83.880539,41.720081],[-83.880387,41.720086],[-83.763155,41.72391],[-83.685337,41.726449],[-83.665937,41.726949],[-83.639636,41.727749],[-83.636636,41.727849],[-83.595235,41.729148],[-83.593835,41.729148],[-83.585235,41.729348],[-83.504334,41.731547],[-83.503433,41.731547],[-83.499733,41.731647],[-83.497733,41.731847],[-83.453832,41.732647],[-83.455626,41.727445],[-83.449001,41.710719],[-83.446032,41.706847],[-83.409531,41.691247],[-83.39263,41.691947],[-83.37573,41.686647],[-83.357073,41.687763],[-83.341817,41.693518],[-83.337985,41.698682],[-83.337977,41.70341],[-83.326825,41.701562],[-83.298731,41.683871],[-83.29561,41.681905],[-83.293928,41.680846],[-83.29068,41.676794],[-83.289682,41.676409],[-83.288469,41.675941],[-83.287125,41.675423],[-83.285181,41.674673],[-83.278455,41.672078],[-83.238191,41.651167],[-83.23166,41.644218],[-83.194524,41.631008],[-83.165713,41.623246],[-83.145887,41.617904],[-83.103928,41.613558],[-83.086036,41.60668],[-83.066593,41.59534],[-83.048222,41.573951],[-83.043287,41.568205],[-83.043079,41.567963],[-83.042909,41.567823],[-83.031653,41.558592],[-83.030764,41.557864],[-83.028072,41.555656],[-83.019057,41.550174],[-83.017473,41.549211],[-83.016753,41.548773],[-82.999916,41.538534],[-82.999897,41.538525],[-82.96985,41.524327],[-82.969642,41.524229],[-82.969574,41.52421],[-82.958481,41.521104],[-82.934369,41.514353],[-82.89932828,41.51902752],[-82.90470983,41.50573702],[-82.91239917,41.48677901],[-82.91982391,41.46781],[-82.92671296,41.44880552],[-82.9327955,41.42974113],[-82.93780101,41.41059244],[-82.94,41.4],[-82.94133405,41.3913214],[-82.94249917,41.3718319],[-82.94165759,41.35215887],[-82.93940183,41.33236198],[-82.93632378,41.31250088],[-82.93301466,41.29263522],[-82.93006499,41.27282472],[-82.92806466,41.25312914],[-82.92760287,41.23360826],[-82.92926818,41.21432183],[-82.93,41.21],[-82.93312698,41.19527667],[-82.93826539,41.17638029],[-82.94461055,41.15762525],[-82.95212887,41.13900804],[-82.9607868,41.12052512],[-82.97055087,41.10217294],[-82.9813876,41.08394794],[-82.9932636,41.06584652],[-83.00614551,41.04786507],[-83.02,41.03],[-83.04413195,41.02565728],[-83.06978223,41.02107715],[-83.09544169,41.01653304],[-83.12111039,41.01202572],[-83.14678839,41.00755594],[-83.17247574,41.00312448],[-83.19817251,40.9987321],[-83.22387877,40.99437957],[-83.24959458,40.99006764],[-83.25,40.99],[-83.27531798,40.98578049],[-83.30104777,40.98150688],[-83.32678533,40.97725619],[-83.35253205,40.97303778],[-83.37828935,40.96886103],[-83.40405866,40.96473532],[-83.42984141,40.96067002],[-83.45563906,40.9566745],[-83.48145307,40.95275813],[-83.5,40.95],[-83.507289,40.94888127],[-83.53320923,40.94430475],[-83.55920485,40.93911286],[-83.58523767,40.93374478],[-83.61127012,40.92863969],[-83.63726531,40.92423681],[-83.66318699,40.92097537],[-83.68899957,40.91929463],[-83.71466807,40.91963391],[-83.72,40.92],[-83.74026349,40.92161472],[-83.7659933,40.92370536],[-83.79186384,40.92585323],[-83.81787434,40.92805938],[-83.84402405,40.93032481],[-83.87031222,40.93265057],[-83.89673809,40.93503767],[-83.92330094,40.93748714],[-83.95,40.94],[-83.96370565,40.95230414],[-83.98109952,40.9672934],[-83.99891549,40.9819378],[-84.01715505,40.99620619],[-84.03581967,41.0100674],[-84.05491075,41.02349026],[-84.07442965,41.0364436],[-84.08,41.04],[-84.09437692,41.04905689],[-84.11474972,41.0616684],[-84.13554507,41.07413611],[-84.15675981,41.08629156],[-84.1783906,41.09796626],[-84.20043386,41.10899173],[-84.22288578,41.11919947],[-84.24574231,41.12842098],[-84.25,41.13],[-84.2690098,41.13698246],[-84.29268722,41.14567613],[-84.31673898,41.15434696],[-84.34112847,41.16281458],[-84.36581883,41.17089864],[-84.39077291,41.17841883],[-84.4159533,41.18519483],[-84.44132228,41.19104637],[-84.46684186,41.1957932],[-84.49247375,41.19925511],[-84.5,41.2],[-84.51822785,41.20134742],[-84.54420447,41.2023317],[-84.57037733,41.20239227],[-84.59671212,41.2017021],[-84.6231748,41.20043419],[-84.64973155,41.1987616],[-84.67634883,41.19685736],[-84.70299336,41.19489458],[-84.72963212,41.19304637],[-84.75623236,41.19148586],[-84.78276159,41.19038623],[-84.8,41.19],[-84.80347608,41.18995367],[-84.803492,41.252531],[-84.803492,41.252562],[-84.80358,41.270942]]]}},{"type":"Feature","id":"northeast_ohio_cleveland","properties":{"assigned_network_id":"northeast_ohio_cleveland","assigned_network":"Cleveland / eastern Ohio","color":"#b79bd4","boundary_status":"Estimated custom cartographic allocation; not official","official_boundary_verified":false,"mapped_area_sqmi":15366,"mapped_ohio_percent":37.2,"county_boundaries_used_as_borders":false},"geometry":{"type":"MultiPolygon","coordinates":[[[[-82.869422,41.533962],[-82.866262,41.537534],[-82.861323,41.543116],[-82.857841,41.547051],[-82.85677,41.548262],[-82.856533,41.55065],[-82.855197,41.564114],[-82.856088,41.566633],[-82.856647,41.568216],[-82.858702,41.574025],[-82.859531,41.576371],[-82.857945,41.578049],[-82.857316,41.578714],[-82.856919,41.579135],[-82.854263,41.581945],[-82.852957,41.583327],[-82.847657,41.585639],[-82.834101,41.587587],[-82.820207,41.570664],[-82.794324,41.546486],[-82.785496,41.540675],[-82.77201,41.54058],[-82.749907,41.54647],[-82.739868,41.545047],[-82.732886,41.544057],[-82.7319,41.543918],[-82.731628,41.543879],[-82.730516,41.543721],[-82.728489,41.543434],[-82.727656,41.543316],[-82.722069,41.542524],[-82.720539,41.542307],[-82.717878,41.54193],[-82.717595,41.541715],[-82.715227,41.539913],[-82.711332,41.53695],[-82.710935,41.536648],[-82.710967,41.536221],[-82.711632,41.527201],[-82.716492,41.522227],[-82.721914,41.516677],[-82.719956,41.510735],[-82.719811,41.510296],[-82.713904,41.501697],[-82.710013,41.49759],[-82.694722,41.493945],[-82.687921,41.492324],[-82.658302,41.461878],[-82.617745,41.431833],[-82.616952,41.428425],[-82.55808,41.400005],[-82.513827,41.384257],[-82.499099,41.381541],[-82.481214,41.381342],[-82.460599,41.386316],[-82.431315,41.396866],[-82.398086,41.413945],[-82.361784,41.426644],[-82.348076,41.428431],[-82.334182,41.430243],[-82.29158,41.428442],[-82.283488,41.429283],[-82.268479,41.430842],[-82.254678,41.434441],[-82.193375,41.46454],[-82.18885,41.468097],[-82.186174,41.47344],[-82.184774,41.47404],[-82.181598,41.471634],[-82.165373,41.47444],[-82.094169,41.495039],[-82.011966,41.515639],[-81.994565,41.51444],[-81.96813,41.506422],[-81.964912,41.505446],[-81.962664,41.501341],[-81.958463,41.498642],[-81.937862,41.491443],[-81.930404,41.490457],[-81.928652,41.490226],[-81.87736,41.483445],[-81.860262,41.483841],[-81.850141,41.486255],[-81.837092,41.489367],[-81.836059,41.489614],[-81.810992,41.495592],[-81.810758,41.495648],[-81.801207,41.496223],[-81.800253,41.496281],[-81.799746,41.496311],[-81.794449,41.49663],[-81.794157,41.496648],[-81.782258,41.49605],[-81.768898,41.491663],[-81.768856,41.491649],[-81.762489,41.49046],[-81.75861,41.489736],[-81.746095,41.4874],[-81.745818,41.487348],[-81.744755,41.48715],[-81.744272,41.487263],[-81.741852,41.487827],[-81.738755,41.48855],[-81.732674,41.491437],[-81.727806,41.493749],[-81.726429,41.494402],[-81.725763,41.494718],[-81.71931,41.497782],[-81.716836,41.498957],[-81.71559,41.499549],[-81.710986,41.501734],[-81.710953,41.50175],[-81.707622,41.505108],[-81.706864,41.505872],[-81.69325,41.514161],[-81.691248,41.515379],[-81.688058,41.517321],[-81.664884,41.53143],[-81.664851,41.53145],[-81.649872,41.535775],[-81.648453,41.536185],[-81.641055,41.538321],[-81.633652,41.540458],[-81.627431,41.544163],[-81.61691,41.550428],[-81.616567,41.550633],[-81.615816,41.551079],[-81.610163,41.554446],[-81.60967,41.55474],[-81.599747,41.560649],[-81.593144,41.565462],[-81.593092,41.5655],[-81.591981,41.56631],[-81.591471,41.566682],[-81.579815,41.575178],[-81.579746,41.575228],[-81.579727,41.575243],[-81.579285,41.575565],[-81.578666,41.576016],[-81.577459,41.576896],[-81.575715,41.578167],[-81.575577,41.578267],[-81.562844,41.587549],[-81.531674,41.612972],[-81.531612,41.613023],[-81.529955,41.614374],[-81.529742,41.614548],[-81.527026,41.615373],[-81.520707,41.617292],[-81.509359,41.620739],[-81.50044,41.623448],[-81.48864,41.631348],[-81.486919,41.632704],[-81.477544,41.640086],[-81.466038,41.649148],[-81.452461,41.663139],[-81.447734,41.668011],[-81.443647,41.672222],[-81.442843,41.673051],[-81.44272,41.673178],[-81.442645,41.673255],[-81.442552,41.673314],[-81.441803,41.673783],[-81.441339,41.674074],[-81.438971,41.67556],[-81.437809,41.676289],[-81.437014,41.676788],[-81.435582,41.677686],[-81.431441,41.680285],[-81.413062,41.691816],[-81.407984,41.695002],[-81.406098,41.696185],[-81.404476,41.697203],[-81.402417,41.698495],[-81.400686,41.699581],[-81.400617,41.699624],[-81.388632,41.707144],[-81.388269,41.707355],[-81.380935,41.711622],[-81.374509,41.715361],[-81.374454,41.715393],[-81.373666,41.715852],[-81.372587,41.71648],[-81.368913,41.718618],[-81.36867,41.718759],[-81.367498,41.719441],[-81.353229,41.727743],[-81.330154,41.737938],[-81.309499,41.747064],[-81.30701,41.748164],[-81.306495,41.748392],[-81.301626,41.750543],[-81.288892,41.758945],[-81.286925,41.760243],[-81.279925,41.759944],[-81.279187,41.759859],[-81.265576,41.758298],[-81.264224,41.758143],[-81.263751,41.758239],[-81.26311,41.758369],[-81.259349,41.75913],[-81.25552,41.759905],[-81.252977,41.76042],[-81.251918,41.760634],[-81.248672,41.761291],[-81.248609,41.761316],[-81.247832,41.761623],[-81.247607,41.761712],[-81.202359,41.77957],[-81.201721,41.779822],[-81.192684,41.783389],[-81.184368,41.786671],[-81.183328,41.78712],[-81.167638,41.793903],[-81.122295,41.813503],[-81.112885,41.817571],[-81.098931,41.821319],[-81.095592,41.822216],[-81.092716,41.822988],[-81.05192,41.839557],[-81.024525,41.846469],[-81.01049,41.853962],[-81.002663,41.854846],[-81.002117,41.854908],[-80.991799,41.856074],[-80.973674,41.858122],[-80.971141,41.858409],[-80.958494,41.859838],[-80.936244,41.862352],[-80.916528,41.865954],[-80.900342,41.868912],[-80.853542,41.884685],[-80.852064,41.885183],[-80.826889,41.893668],[-80.819165,41.896271],[-80.816444,41.897188],[-80.814943,41.897694],[-80.81324,41.89876],[-80.812659,41.899125],[-80.808697,41.901606],[-80.80801,41.902304],[-80.806133,41.904211],[-80.801436,41.908982],[-80.800794,41.909635],[-80.799822,41.909749],[-80.798311,41.909926],[-80.794388,41.910386],[-80.78641,41.911322],[-80.785497,41.911429],[-80.784682,41.911525],[-80.782944,41.908294],[-80.782052,41.906635],[-80.781112,41.906897],[-80.77709,41.908018],[-80.771784,41.909496],[-80.770756,41.909782],[-80.76802,41.910545],[-80.766046,41.911095],[-80.762176,41.912173],[-80.757945,41.913352],[-80.727504,41.918593],[-80.720816,41.919744],[-80.717469,41.920656],[-80.712218,41.922087],[-80.708293,41.923157],[-80.699363,41.925591],[-80.693429,41.927208],[-80.635576,41.942976],[-80.619443,41.947373],[-80.619242,41.947428],[-80.60861,41.950325],[-80.581882,41.95761],[-80.579439,41.958499],[-80.576735,41.959483],[-80.576591,41.959535],[-80.5755,41.959932],[-80.572028,41.961196],[-80.563327,41.964362],[-80.560671,41.965328],[-80.555898,41.967065],[-80.553836,41.967815],[-80.533774,41.973475],[-80.53139,41.974147],[-80.530164,41.974493],[-80.529274,41.974744],[-80.525521,41.975803],[-80.522057,41.97678],[-80.519461,41.977513],[-80.519425,41.977523],[-80.519425,41.977522],[-80.519405,41.976158],[-80.519304,41.943992],[-80.519345,41.929168],[-80.519294,41.849563],[-80.519239,41.765138],[-80.519369,41.752487],[-80.519408,41.739359],[-80.519373,41.701473],[-80.519424,41.671228],[-80.519357,41.669767],[-80.519339,41.539297],[-80.519157,41.528769],[-80.519225,41.499924],[-80.519209,41.489013],[-80.519169,41.462581],[-80.518993,41.435454],[-80.518993,41.416437],[-80.519025,41.416438],[-80.519249,41.378918],[-80.519217,41.372006],[-80.519249,41.36103],[-80.519297,41.350833],[-80.519345,41.34074],[-80.519345,41.340145],[-80.519293,41.339654],[-80.519293,41.339054],[-80.519311,41.339052],[-80.519281,41.337174],[-80.519281,41.337145],[-80.519281,41.335958],[-80.519265,41.333495],[-80.519129,41.312408],[-80.518794,41.305509],[-80.518996,41.2683],[-80.518993,41.268155],[-80.518893,41.265155],[-80.518693,41.248855],[-80.518893,41.232556],[-80.518893,41.219357],[-80.518893,41.219356],[-80.51883,41.209213],[-80.519144,41.171203],[-80.519115,41.14552],[-80.519167,41.133388],[-80.519167,41.133343],[-80.519012,41.125116],[-80.519012,41.125093],[-80.519012,41.125057],[-80.519056,41.125057],[-80.518992,41.115958],[-80.519192,41.105358],[-80.519125,41.100819],[-80.519092,41.090658],[-80.519088,41.082074],[-80.518999,41.075014],[-80.51896,41.071866],[-80.518928,41.070954],[-80.51896,41.061546],[-80.518927,41.015387],[-80.518989,40.995445],[-80.519,40.98738],[-80.519091,40.921061],[-80.51979,40.900761],[-80.519764,40.899858],[-80.519039,40.851339],[-80.51902,40.850073],[-80.519081,40.849157],[-80.518992,40.801221],[-80.519058,40.792298],[-80.518991,40.638801],[-80.56072,40.62368],[-80.589041,40.620128],[-80.594065,40.623664],[-80.601494,40.625387],[-80.627171,40.619936],[-80.634355,40.616095],[-80.665892,40.587728],[-80.667957,40.582496],[-80.666917,40.573664],[-80.610259,40.490962],[-80.599194,40.482566],[-80.612295,40.434867],[-80.617346,40.396004],[-80.619196,40.381768],[-80.609313,40.360468],[-80.599895,40.317669],[-80.602895,40.307069],[-80.616696,40.28027],[-80.637198,40.25507],[-80.644598,40.25127],[-80.652098,40.24497],[-80.685391,40.187642],[-80.703052,40.157231],[-80.705482,40.153047],[-80.726504,40.089072],[-80.733104,40.058772],[-80.730904,40.049172],[-80.731504,40.037472],[-80.732051,40.03324],[-80.740126,39.970793],[-80.743166,39.969113],[-80.759455,39.958233],[-80.806018,39.91713],[-80.808722,39.91257],[-80.809619,39.905626],[-80.806179,39.897306],[-80.812342,39.848845],[-80.828618,39.720848],[-80.829764,39.711839],[-80.831871,39.705655],[-80.88036,39.620706],[-80.892208,39.616756],[-80.943782,39.606926],[-81.020055,39.55541],[-81.038691,39.540464],[-81.063587,39.520497],[-81.127696,39.464879],[-81.215617,39.388602],[-81.223581,39.386062],[-81.249088,39.389992],[-81.270716,39.385914],[-81.295373,39.37529],[-81.347567,39.34577],[-81.356911,39.343178],[-81.371271,39.342062],[-81.375961,39.341697],[-81.384556,39.343449],[-81.393794,39.351706],[-81.406689,39.38809],[-81.412706,39.394618],[-81.435642,39.408474],[-81.446543,39.410374],[-81.456143,39.409274],[-81.467744,39.403774],[-81.542346,39.352874],[-81.605816,39.275851],[-81.695724,39.242859],[-81.721551,39.212448],[-81.740061,39.190652],[-81.749853,39.186489],[-81.749689,39.180742],[-81.747253,39.095379],[-81.747253,39.095378],[-81.812355,39.082078],[-81.814155,39.073478],[-81.811655,39.059578],[-81.803355,39.047678],[-81.793304,39.040353],[-81.772854,39.026179],[-81.764253,39.015279],[-81.756131,38.933545],[-81.759995,38.925828],[-81.874857,38.881174],[-81.908645,38.87846],[-81.926967,38.891602],[-81.928352,38.895371],[-81.926671,38.901311],[-81.90091,38.924338],[-81.89847,38.929603],[-81.900595,38.937671],[-81.919783,38.968494],[-81.935619,38.9895],[-82.002261,39.027878],[-82.017562,39.030078],[-82.035963,39.025478],[-82.041563,39.017878],[-82.045663,39.003778],[-82.051563,38.994378],[-82.093165,38.97098],[-82.098762,38.958288],[-82.1072784,38.93899548],[-82.11198139,38.94794536],[-82.1216804,38.9661092],[-82.13150658,38.98422652],[-82.14145617,39.00229774],[-82.15152545,39.02032328],[-82.16171065,39.03830356],[-82.17200802,39.05623899],[-82.18,39.07],[-82.18248748,39.07412824],[-82.19483408,39.09193075],[-82.20921179,39.10964053],[-82.22489716,39.12727269],[-82.24116603,39.14484263],[-82.25729356,39.16236612],[-82.27255421,39.1798593],[-82.28622176,39.19733865],[-82.29756932,39.21482093],[-82.30586928,39.23232304],[-82.31039336,39.24986191],[-82.31041254,39.26745425],[-82.31,39.27],[-82.30713569,39.28554766],[-82.30358996,39.3046928],[-82.2998903,39.32457042],[-82.2960993,39.34484779],[-82.29227969,39.36519217],[-82.28849434,39.38527083],[-82.28480625,39.40475104],[-82.28127856,39.42330005],[-82.28,39.43],[-82.27679023,39.44058078],[-82.26726697,39.45649342],[-82.25314283,39.47125891],[-82.23530991,39.48511318],[-82.2146611,39.4982923],[-82.19208983,39.51103268],[-82.16849001,39.52357128],[-82.14475587,39.53614566],[-82.12178195,39.54899409],[-82.10046316,39.56235547],[-82.08169482,39.57646927],[-82.06637284,39.59157538],[-82.06,39.6],[-82.05482337,39.60782436],[-82.04386236,39.6247493],[-82.0329572,39.64219053],[-82.02224269,39.66008465],[-82.0118538,39.67836831],[-82.00192566,39.69697819],[-81.99259362,39.71585103],[-81.98399319,39.73492356],[-81.97626009,39.75413258],[-81.9695302,39.77341487],[-81.9639396,39.79270724],[-81.96,39.81],[-81.95961982,39.81194805],[-81.95613086,39.83126014],[-81.95308782,39.8507275],[-81.95045158,39.87031462],[-81.94818298,39.88998595],[-81.94624284,39.90970596],[-81.94459192,39.92943909],[-81.94319097,39.94914978],[-81.94200068,39.96880249],[-81.9409817,39.98836163],[-81.94009464,40.00779165],[-81.94,40.01],[-81.93962597,40.02728943],[-81.94003584,40.04712977],[-81.94129068,40.06720387],[-81.9433515,40.08739887],[-81.94617926,40.10760192],[-81.94973486,40.12770011],[-81.9539791,40.14758056],[-81.95887275,40.16713036],[-81.96437646,40.18623659],[-81.97045078,40.20478632],[-81.97705617,40.22266663],[-81.98,40.23],[-81.9844204,40.23992936],[-81.99363482,40.25721068],[-82.00465333,40.27451582],[-82.0172813,40.29176243],[-82.03132388,40.30886812],[-82.04658595,40.32575058],[-82.06287211,40.34232752],[-82.07998668,40.35851672],[-82.09773369,40.37423606],[-82.11591691,40.38940351],[-82.13433982,40.40393714],[-82.15280565,40.41775512],[-82.17,40.43],[-82.17112004,40.4307763],[-82.18988854,40.44310235],[-82.20960905,40.4548996],[-82.23017108,40.46623285],[-82.2514641,40.47716692],[-82.27337756,40.48776672],[-82.29580092,40.49809721],[-82.31862362,40.50822344],[-82.34173513,40.51821052],[-82.36502495,40.52812365],[-82.38838256,40.53802812],[-82.4116975,40.54798928],[-82.43485934,40.55807258],[-82.45775763,40.56834355],[-82.48028197,40.57886779],[-82.50232198,40.589711],[-82.52376724,40.60093893],[-82.54,40.61],[-82.54452842,40.61261001],[-82.56509464,40.62456843],[-82.58568305,40.63672602],[-82.60625505,40.64908023],[-82.62677199,40.66162854],[-82.6471952,40.67436844],[-82.66748598,40.68729747],[-82.68760559,40.70041317],[-82.70751526,40.71371313],[-82.72717618,40.72719494],[-82.74654951,40.74085622],[-82.76559637,40.75469462],[-82.78427785,40.76870779],[-82.80255499,40.78289344],[-82.8203888,40.79724925],[-82.83774024,40.81177295],[-82.85457023,40.82646228],[-82.87083967,40.84131498],[-82.88,40.85],[-82.88664829,40.85637039],[-82.90300153,40.87195124],[-82.91977279,40.88806417],[-82.93654983,40.90463273],[-82.95291993,40.92158067],[-82.96846993,40.93883197],[-82.98278616,40.95631076],[-82.99545446,40.97394137],[-83.00606019,40.9916482],[-83.01418823,41.00935571],[-83.019423,41.02698833],[-83.02,41.03],[-83.00614551,41.04786507],[-82.9932636,41.06584652],[-82.9813876,41.08394794],[-82.97055087,41.10217294],[-82.9607868,41.12052512],[-82.95212887,41.13900804],[-82.94461055,41.15762525],[-82.93826539,41.17638029],[-82.93312698,41.19527667],[-82.93,41.21],[-82.92926818,41.21432183],[-82.92760287,41.23360826],[-82.92806466,41.25312914],[-82.93006499,41.27282472],[-82.93301466,41.29263522],[-82.93632378,41.31250088],[-82.93940183,41.33236198],[-82.94165759,41.35215887],[-82.94249917,41.3718319],[-82.94133405,41.3913214],[-82.94,41.4],[-82.93780101,41.41059244],[-82.9327955,41.42974113],[-82.92671296,41.44880552],[-82.91982391,41.46781],[-82.91239917,41.48677901],[-82.90470983,41.50573702],[-82.89932828,41.51902752],[-82.897728,41.519241],[-82.896854,41.519541],[-82.8882,41.522508],[-82.882305,41.52577],[-82.875229,41.529684],[-82.869422,41.533962]]],[[[-82.700208,41.61219],[-82.691123,41.611331],[-82.68015,41.61897],[-82.677772,41.617986],[-82.680669,41.594611],[-82.686033,41.587246],[-82.688744,41.585896],[-82.702027,41.585437],[-82.725827,41.595199],[-82.735766,41.600982],[-82.735707,41.603361],[-82.718802,41.619629],[-82.70731,41.619609],[-82.703438,41.617734],[-82.700208,41.61219]]],[[[-82.808587,41.661682],[-82.805179,41.664281],[-82.796333,41.665973],[-82.793069,41.664692],[-82.794198,41.662496],[-82.797493,41.658197],[-82.827011,41.633701],[-82.834662,41.629331],[-82.842099,41.628323],[-82.843602,41.647009],[-82.834092,41.657121],[-82.824731,41.659428],[-82.808587,41.661682]]],[[[-82.805423,41.67192],[-82.813781,41.670594],[-82.826443,41.684774],[-82.812805,41.692002],[-82.803341,41.693837],[-82.786304,41.69714],[-82.782719,41.694003],[-82.790561,41.68997],[-82.801539,41.682577],[-82.805137,41.674931],[-82.805423,41.67192]]],[[[-82.82572,41.72281],[-82.820409,41.724549],[-82.813489,41.723468],[-82.810487,41.720524],[-82.808869,41.708333],[-82.816133,41.706732],[-82.835118,41.708971],[-82.835577,41.710823],[-82.832709,41.71565],[-82.82572,41.72281]]]]}},{"type":"Feature","id":"southern_ohio_cincinnati","properties":{"assigned_network_id":"southern_ohio_cincinnati","assigned_network":"Cincinnati / Southern Ohio","color":"#86bea6","boundary_status":"Estimated custom cartographic allocation; not official","official_boundary_verified":false,"mapped_area_sqmi":9411,"mapped_ohio_percent":22.8,"county_boundaries_used_as_borders":false},"geometry":{"type":"Polygon","coordinates":[[[-84.212904,38.805707],[-84.2253,38.817665],[-84.229954,38.82765],[-84.231306,38.830552],[-84.233727,38.853576],[-84.232478,38.874638],[-84.232132,38.880483],[-84.234453,38.893226],[-84.304698,39.006455],[-84.31368,39.016981],[-84.319936,39.022081],[-84.326539,39.027463],[-84.432841,39.094261],[-84.493743,39.10246],[-84.502062,39.096641],[-84.506082,39.095081],[-84.509743,39.09366],[-84.510057,39.093593],[-84.603444,39.073699],[-84.620112,39.073457],[-84.623732,39.074427],[-84.632446,39.07676],[-84.684847,39.100459],[-84.689747,39.104159],[-84.718548,39.137059],[-84.732048,39.144458],[-84.744149,39.147458],[-84.754449,39.146658],[-84.766749,39.138558],[-84.78768,39.115297],[-84.820157,39.10548],[-84.819985,39.149081],[-84.819826,39.156504],[-84.819802,39.157613],[-84.819813,39.244334],[-84.819801,39.247806],[-84.819859,39.251018],[-84.819633,39.261855],[-84.819622,39.27159],[-84.819451,39.305152],[-84.819451,39.305153],[-84.819352,39.309454],[-84.817453,39.391753],[-84.815754,39.477352],[-84.815754,39.477358],[-84.815555,39.510952],[-84.815555,39.511052],[-84.815355,39.52195],[-84.815355,39.521951],[-84.815155,39.548051],[-84.814955,39.566251],[-84.814955,39.567251],[-84.815036,39.567695],[-84.815156,39.568351],[-84.814705,39.628854],[-84.814619,39.669174],[-84.81453,39.680429],[-84.814129,39.726556],[-84.814129,39.72662],[-84.814189,39.785569],[-84.814179,39.786853],[-84.814209,39.799755],[-84.81412,39.811398],[-84.814179,39.814212],[-84.813852,39.824621],[-84.813793,39.826771],[-84.813703,39.843059],[-84.813674,39.843173],[-84.813549,39.850773],[-84.813464,39.853261],[-84.81305,39.872958],[-84.812787,39.89083],[-84.812698,39.891585],[-84.812411,39.916915],[-84.812411,39.916916],[-84.812357,39.921764],[-84.812193,39.92734],[-84.81067,40.005074],[-84.810099,40.034214],[-84.809737,40.048929],[-84.808706,40.107216],[-84.808305,40.127018],[-84.808291,40.129027],[-84.806766,40.180128],[-84.806347,40.192252],[-84.80634,40.192327],[-84.806175,40.197995],[-84.805627,40.223659],[-84.804098,40.302498],[-84.803918,40.310094],[-84.803917,40.310115],[-84.804119,40.352757],[-84.804119,40.352844],[-84.803068,40.465388],[-84.802483,40.528046],[-84.802265,40.572212],[-84.802265,40.572215],[-84.802135,40.644859],[-84.802193,40.660298],[-84.80222,40.674776],[-84.802157,40.689324],[-84.802127,40.691405],[-84.802094,40.702476],[-84.802181,40.718602],[-84.802119,40.728146],[-84.802119,40.728163],[-84.802266,40.742298],[-84.802538,40.765515],[-84.802935,40.922377],[-84.802936,40.922568],[-84.803313,40.989209],[-84.803313,40.989394],[-84.803374,41.089302],[-84.803378,41.096867],[-84.803413,41.164649],[-84.803594,41.173203],[-84.803472,41.173889],[-84.803492,41.252531],[-84.80347608,41.18995367],[-84.8,41.19],[-84.78276159,41.19038623],[-84.75623236,41.19148586],[-84.72963212,41.19304637],[-84.70299336,41.19489458],[-84.67634883,41.19685736],[-84.64973155,41.1987616],[-84.6231748,41.20043419],[-84.59671212,41.2017021],[-84.57037733,41.20239227],[-84.54420447,41.2023317],[-84.51822785,41.20134742],[-84.5,41.2],[-84.49247375,41.19925511],[-84.46684186,41.1957932],[-84.44132228,41.19104637],[-84.4159533,41.18519483],[-84.39077291,41.17841883],[-84.36581883,41.17089864],[-84.34112847,41.16281458],[-84.31673898,41.15434696],[-84.29268722,41.14567613],[-84.2690098,41.13698246],[-84.25,41.13],[-84.24574231,41.12842098],[-84.22288578,41.11919947],[-84.20043386,41.10899173],[-84.1783906,41.09796626],[-84.15675981,41.08629156],[-84.13554507,41.07413611],[-84.11474972,41.0616684],[-84.09437692,41.04905689],[-84.08,41.04],[-84.07442965,41.0364436],[-84.05491075,41.02349026],[-84.03581967,41.0100674],[-84.01715505,40.99620619],[-83.99891549,40.9819378],[-83.98109952,40.9672934],[-83.96370565,40.95230414],[-83.95,40.94],[-83.94932358,40.92319771],[-83.94833218,40.90356136],[-83.94712312,40.88391108],[-83.94569605,40.86425586],[-83.94405062,40.84460471],[-83.94218648,40.82496662],[-83.94010327,40.80535059],[-83.93780063,40.78576561],[-83.9352782,40.76622068],[-83.93253564,40.74672477],[-83.93,40.73],[-83.92956555,40.72728684],[-83.92595996,40.70790874],[-83.92160642,40.68857944],[-83.9166797,40.66928687],[-83.91135442,40.65001898],[-83.905805,40.63076373],[-83.90020567,40.61150912],[-83.89473048,40.59224318],[-83.88955329,40.57295397],[-83.88484779,40.55362958],[-83.88078747,40.53425811],[-83.88,40.53],[-83.87755473,40.51477356],[-83.87509026,40.49509899],[-83.87309406,40.47532006],[-83.87126189,40.45552747],[-83.86928986,40.4358119],[-83.86687438,40.41626403],[-83.86371219,40.39697447],[-83.86,40.38],[-83.85949817,40.37803246],[-83.85380562,40.35935836],[-83.84663738,40.34084315],[-83.83822424,40.32246111],[-83.82879675,40.30418659],[-83.81858525,40.28599393],[-83.80781984,40.26785757],[-83.79673038,40.24975199],[-83.78554655,40.23165178],[-83.77449778,40.21353158],[-83.7638133,40.19536612],[-83.75372211,40.17713022],[-83.75,40.17],[-83.74420073,40.15882855],[-83.73442422,40.14055891],[-83.72439591,40.12231923],[-83.71421869,40.10409561],[-83.70399535,40.08587419],[-83.69382859,40.06764112],[-83.68382101,40.0493826],[-83.67407511,40.03108487],[-83.66469329,40.0127342],[-83.65577786,39.99431686],[-83.64743102,39.97581917],[-83.63975488,39.95722748],[-83.63285143,39.93852813],[-83.63,39.93],[-83.62687025,39.91965921],[-83.62199172,39.90041626],[-83.61796134,39.88087678],[-83.61447803,39.861156],[-83.61124104,39.84136911],[-83.60794992,39.82163127],[-83.60430451,39.80205758],[-83.60000496,39.78276311],[-83.59475172,39.76386288],[-83.59,39.75],[-83.58818734,39.7454659],[-83.5789938,39.72750431],[-83.56727671,39.70986108],[-83.55376559,39.69245485],[-83.5391893,39.67520445],[-83.52427601,39.65802904],[-83.50975329,39.64084808],[-83.49634807,39.62358141],[-83.48478663,39.60614913],[-83.47579459,39.58847155],[-83.47009686,39.57046908],[-83.47,39.57],[-83.4670077,39.55196604],[-83.46503994,39.53290675],[-83.46391462,39.51341187],[-83.46335394,39.49360215],[-83.46308039,39.47359828],[-83.46281674,39.45352096],[-83.46228606,39.4334909],[-83.46121174,39.41362876],[-83.46,39.4],[-83.45932427,39.39403898],[-83.45658897,39.37455763],[-83.45320981,39.35510254],[-83.44939423,39.33566502],[-83.44534945,39.3162364],[-83.44128248,39.29680803],[-83.43740009,39.27737131],[-83.43390885,39.25791764],[-83.43101509,39.23843844],[-83.43,39.23],[-83.42886955,39.21892172],[-83.42727399,39.19935282],[-83.42605284,39.17974442],[-83.42505165,39.16011191],[-83.42411613,39.14047071],[-83.42309216,39.12083621],[-83.42182579,39.1012238],[-83.42016323,39.08164886],[-83.42,39.08],[-83.41784666,39.06211109],[-83.41485709,39.04259138],[-83.4114939,39.02308393],[-83.40805757,39.00358306],[-83.40484825,38.98408312],[-83.40216577,38.96457852],[-83.40030964,38.94506366],[-83.4,38.94],[-83.39935521,38.9255257],[-83.39884344,38.90594773],[-83.3986676,38.88633687],[-83.39874422,38.86670129],[-83.39898994,38.84704915],[-83.39932145,38.82738861],[-83.39965557,38.80772784],[-83.39990917,38.788075],[-83.4,38.77],[-83.4,38.76843817],[-83.4,38.74881031],[-83.4,38.72918248],[-83.4,38.70955468],[-83.4,38.6899269],[-83.4,38.67029915],[-83.4,38.66848557],[-83.512571,38.701716],[-83.520953,38.703045],[-83.533339,38.702105],[-83.574754,38.692671],[-83.615736,38.684145],[-83.626922,38.679387],[-83.636208,38.670584],[-83.642994,38.643273],[-83.646701,38.637489],[-83.649737,38.632753],[-83.655425,38.629735],[-83.663911,38.62793],[-83.679484,38.630036],[-83.706043,38.637101],[-83.762445,38.652103],[-83.769347,38.65522],[-83.773682,38.661309],[-83.777823,38.674453],[-83.85333,38.752572],[-83.859028,38.756793],[-83.870443,38.761608],[-83.903918,38.76815],[-83.903971,38.76816],[-83.943978,38.783616],[-83.962123,38.787384],[-83.978814,38.787104],[-84.044486,38.770572],[-84.052707,38.770542],[-84.071491,38.770475],[-84.205592,38.802588],[-84.212904,38.805707]]]}},{"type":"Feature","id":"central_ohio_columbus","properties":{"assigned_network_id":"central_ohio_columbus","assigned_network":"Columbus / Central Ohio","color":"#86b5d8","boundary_status":"Estimated custom cartographic allocation; not official","official_boundary_verified":false,"mapped_area_sqmi":12247,"mapped_ohio_percent":29.6,"county_boundaries_used_as_borders":false},"geometry":{"type":"Polygon","coordinates":[[[-82.139279,38.866407],[-82.184428,38.816529],[-82.191172,38.815137],[-82.215759,38.797462],[-82.221566,38.787187],[-82.220449,38.773739],[-82.198882,38.757725],[-82.188268,38.734082],[-82.182467,38.708782],[-82.172066,38.625984],[-82.172066,38.619284],[-82.175167,38.608484],[-82.177267,38.603784],[-82.181967,38.599384],[-82.193824,38.593096],[-82.218967,38.591683],[-82.245969,38.598483],[-82.26207,38.598183],[-82.27427,38.593683],[-82.287102,38.582588],[-82.291271,38.578983],[-82.293871,38.572683],[-82.293271,38.560283],[-82.295571,38.539783],[-82.313935,38.468084],[-82.320223,38.454516],[-82.323999,38.449268],[-82.330335,38.4445],[-82.34064,38.440948],[-82.50667,38.410092],[-82.520178,38.407582],[-82.560664,38.404338],[-82.593673,38.421809],[-82.665485,38.505734],[-82.665548,38.505808],[-82.690509,38.536576],[-82.696621,38.542112],[-82.724846,38.5576],[-82.730958,38.559264],[-82.789776,38.559951],[-82.800112,38.563183],[-82.816012,38.570733],[-82.820161,38.572703],[-82.839538,38.586159],[-82.847186,38.595166],[-82.853554,38.610926],[-82.869592,38.678177],[-82.873492,38.710077],[-82.870392,38.722077],[-82.869992,38.730477],[-82.871292,38.739376],[-82.874466,38.745346],[-82.875492,38.747276],[-82.879492,38.751476],[-82.889193,38.756076],[-82.894193,38.756576],[-82.923694,38.750076],[-82.943147,38.74328],[-82.968695,38.728776],[-82.979395,38.725976],[-83.011816,38.730057],[-83.030702,38.72572],[-83.030889,38.72556],[-83.127652,38.642451],[-83.135046,38.631719],[-83.142836,38.625076],[-83.156926,38.620547],[-83.265769,38.605278],[-83.2821,38.602987],[-83.320531,38.622713],[-83.324157,38.633326],[-83.333347,38.641562],[-83.369077,38.659334],[-83.512571,38.701716],[-83.4,38.66848557],[-83.4,38.67029915],[-83.4,38.6899269],[-83.4,38.70955468],[-83.4,38.72918248],[-83.4,38.74881031],[-83.4,38.76843817],[-83.4,38.77],[-83.39990917,38.788075],[-83.39965557,38.80772784],[-83.39932145,38.82738861],[-83.39898994,38.84704915],[-83.39874422,38.86670129],[-83.3986676,38.88633687],[-83.39884344,38.90594773],[-83.39935521,38.9255257],[-83.4,38.94],[-83.40030964,38.94506366],[-83.40216577,38.96457852],[-83.40484825,38.98408312],[-83.40805757,39.00358306],[-83.4114939,39.02308393],[-83.41485709,39.04259138],[-83.41784666,39.06211109],[-83.42,39.08],[-83.42016323,39.08164886],[-83.42182579,39.1012238],[-83.42309216,39.12083621],[-83.42411613,39.14047071],[-83.42505165,39.16011191],[-83.42605284,39.17974442],[-83.42727399,39.19935282],[-83.42886955,39.21892172],[-83.43,39.23],[-83.43101509,39.23843844],[-83.43390885,39.25791764],[-83.43740009,39.27737131],[-83.44128248,39.29680803],[-83.44534945,39.3162364],[-83.44939423,39.33566502],[-83.45320981,39.35510254],[-83.45658897,39.37455763],[-83.45932427,39.39403898],[-83.46,39.4],[-83.46121174,39.41362876],[-83.46228606,39.4334909],[-83.46281674,39.45352096],[-83.46308039,39.47359828],[-83.46335394,39.49360215],[-83.46391462,39.51341187],[-83.46503994,39.53290675],[-83.4670077,39.55196604],[-83.47,39.57],[-83.47009686,39.57046908],[-83.47579459,39.58847155],[-83.48478663,39.60614913],[-83.49634807,39.62358141],[-83.50975329,39.64084808],[-83.52427601,39.65802904],[-83.5391893,39.67520445],[-83.55376559,39.69245485],[-83.56727671,39.70986108],[-83.5789938,39.72750431],[-83.58818734,39.7454659],[-83.59,39.75],[-83.59475172,39.76386288],[-83.60000496,39.78276311],[-83.60430451,39.80205758],[-83.60794992,39.82163127],[-83.61124104,39.84136911],[-83.61447803,39.861156],[-83.61796134,39.88087678],[-83.62199172,39.90041626],[-83.62687025,39.91965921],[-83.63,39.93],[-83.63285143,39.93852813],[-83.63975488,39.95722748],[-83.64743102,39.97581917],[-83.65577786,39.99431686],[-83.66469329,40.0127342],[-83.67407511,40.03108487],[-83.68382101,40.0493826],[-83.69382859,40.06764112],[-83.70399535,40.08587419],[-83.71421869,40.10409561],[-83.72439591,40.12231923],[-83.73442422,40.14055891],[-83.74420073,40.15882855],[-83.75,40.17],[-83.75372211,40.17713022],[-83.7638133,40.19536612],[-83.77449778,40.21353158],[-83.78554655,40.23165178],[-83.79673038,40.24975199],[-83.80781984,40.26785757],[-83.81858525,40.28599393],[-83.82879675,40.30418659],[-83.83822424,40.32246111],[-83.84663738,40.34084315],[-83.85380562,40.35935836],[-83.85949817,40.37803246],[-83.86,40.38],[-83.86371219,40.39697447],[-83.86687438,40.41626403],[-83.86928986,40.4358119],[-83.87126189,40.45552747],[-83.87309406,40.47532006],[-83.87509026,40.49509899],[-83.87755473,40.51477356],[-83.88,40.53],[-83.88078747,40.53425811],[-83.88484779,40.55362958],[-83.88955329,40.57295397],[-83.89473048,40.59224318],[-83.90020567,40.61150912],[-83.905805,40.63076373],[-83.91135442,40.65001898],[-83.9166797,40.66928687],[-83.92160642,40.68857944],[-83.92595996,40.70790874],[-83.92956555,40.72728684],[-83.93,40.73],[-83.93253564,40.74672477],[-83.9352782,40.76622068],[-83.93780063,40.78576561],[-83.94010327,40.80535059],[-83.94218648,40.82496662],[-83.94405062,40.84460471],[-83.94569605,40.86425586],[-83.94712312,40.88391108],[-83.94833218,40.90356136],[-83.94932358,40.92319771],[-83.95,40.94],[-83.92330094,40.93748714],[-83.89673809,40.93503767],[-83.87031222,40.93265057],[-83.84402405,40.93032481],[-83.81787434,40.92805938],[-83.79186384,40.92585323],[-83.7659933,40.92370536],[-83.74026349,40.92161472],[-83.72,40.92],[-83.71466807,40.91963391],[-83.68899957,40.91929463],[-83.66318699,40.92097537],[-83.63726531,40.92423681],[-83.61127012,40.92863969],[-83.58523767,40.93374478],[-83.55920485,40.93911286],[-83.53320923,40.94430475],[-83.507289,40.94888127],[-83.5,40.95],[-83.48145307,40.95275813],[-83.45563906,40.9566745],[-83.42984141,40.96067002],[-83.40405866,40.96473532],[-83.37828935,40.96886103],[-83.35253205,40.97303778],[-83.32678533,40.97725619],[-83.30104777,40.98150688],[-83.27531798,40.98578049],[-83.25,40.99],[-83.24959458,40.99006764],[-83.22387877,40.99437957],[-83.19817251,40.9987321],[-83.17247574,41.00312448],[-83.14678839,41.00755594],[-83.12111039,41.01202572],[-83.09544169,41.01653304],[-83.06978223,41.02107715],[-83.04413195,41.02565728],[-83.02,41.03],[-83.019423,41.02698833],[-83.01418823,41.00935571],[-83.00606019,40.9916482],[-82.99545446,40.97394137],[-82.98278616,40.95631076],[-82.96846993,40.93883197],[-82.95291993,40.92158067],[-82.93654983,40.90463273],[-82.91977279,40.88806417],[-82.90300153,40.87195124],[-82.88664829,40.85637039],[-82.88,40.85],[-82.87083967,40.84131498],[-82.85457023,40.82646228],[-82.83774024,40.81177295],[-82.8203888,40.79724925],[-82.80255499,40.78289344],[-82.78427785,40.76870779],[-82.76559637,40.75469462],[-82.74654951,40.74085622],[-82.72717618,40.72719494],[-82.70751526,40.71371313],[-82.68760559,40.70041317],[-82.66748598,40.68729747],[-82.6471952,40.67436844],[-82.62677199,40.66162854],[-82.60625505,40.64908023],[-82.58568305,40.63672602],[-82.56509464,40.62456843],[-82.54452842,40.61261001],[-82.54,40.61],[-82.52376724,40.60093893],[-82.50232198,40.589711],[-82.48028197,40.57886779],[-82.45775763,40.56834355],[-82.43485934,40.55807258],[-82.4116975,40.54798928],[-82.38838256,40.53802812],[-82.36502495,40.52812365],[-82.34173513,40.51821052],[-82.31862362,40.50822344],[-82.29580092,40.49809721],[-82.27337756,40.48776672],[-82.2514641,40.47716692],[-82.23017108,40.46623285],[-82.20960905,40.4548996],[-82.18988854,40.44310235],[-82.17112004,40.4307763],[-82.17,40.43],[-82.15280565,40.41775512],[-82.13433982,40.40393714],[-82.11591691,40.38940351],[-82.09773369,40.37423606],[-82.07998668,40.35851672],[-82.06287211,40.34232752],[-82.04658595,40.32575058],[-82.03132388,40.30886812],[-82.0172813,40.29176243],[-82.00465333,40.27451582],[-81.99363482,40.25721068],[-81.9844204,40.23992936],[-81.98,40.23],[-81.97705617,40.22266663],[-81.97045078,40.20478632],[-81.96437646,40.18623659],[-81.95887275,40.16713036],[-81.9539791,40.14758056],[-81.94973486,40.12770011],[-81.94617926,40.10760192],[-81.9433515,40.08739887],[-81.94129068,40.06720387],[-81.94003584,40.04712977],[-81.93962597,40.02728943],[-81.94,40.01],[-81.94009464,40.00779165],[-81.9409817,39.98836163],[-81.94200068,39.96880249],[-81.94319097,39.94914978],[-81.94459192,39.92943909],[-81.94624284,39.90970596],[-81.94818298,39.88998595],[-81.95045158,39.87031462],[-81.95308782,39.8507275],[-81.95613086,39.83126014],[-81.95961982,39.81194805],[-81.96,39.81],[-81.9639396,39.79270724],[-81.9695302,39.77341487],[-81.97626009,39.75413258],[-81.98399319,39.73492356],[-81.99259362,39.71585103],[-82.00192566,39.69697819],[-82.0118538,39.67836831],[-82.02224269,39.66008465],[-82.0329572,39.64219053],[-82.04386236,39.6247493],[-82.05482337,39.60782436],[-82.06,39.6],[-82.06637284,39.59157538],[-82.08169482,39.57646927],[-82.10046316,39.56235547],[-82.12178195,39.54899409],[-82.14475587,39.53614566],[-82.16849001,39.52357128],[-82.19208983,39.51103268],[-82.2146611,39.4982923],[-82.23530991,39.48511318],[-82.25314283,39.47125891],[-82.26726697,39.45649342],[-82.27679023,39.44058078],[-82.28,39.43],[-82.28127856,39.42330005],[-82.28480625,39.40475104],[-82.28849434,39.38527083],[-82.29227969,39.36519217],[-82.2960993,39.34484779],[-82.2998903,39.32457042],[-82.30358996,39.3046928],[-82.30713569,39.28554766],[-82.31,39.27],[-82.31041254,39.26745425],[-82.31039336,39.24986191],[-82.30586928,39.23232304],[-82.29756932,39.21482093],[-82.28622176,39.19733865],[-82.27255421,39.1798593],[-82.25729356,39.16236612],[-82.24116603,39.14484263],[-82.22489716,39.12727269],[-82.20921179,39.10964053],[-82.19483408,39.09193075],[-82.18248748,39.07412824],[-82.18,39.07],[-82.17200802,39.05623899],[-82.16171065,39.03830356],[-82.15152545,39.02032328],[-82.14145617,39.00229774],[-82.13150658,38.98422652],[-82.1216804,38.9661092],[-82.11198139,38.94794536],[-82.1072784,38.93899548],[-82.098762,38.958288],[-82.139279,38.866407]]]}}]}